_id,fname,lname,street,city,state,zip_code,email,password,phone
ObjectId("5e18a2e17c29a56f60fb1d12"),Lydia,Mcintyre,594 Adams Pass,Tillmantown,CA,71368,lydia.mcintyre@tbeatty.com,$2b$12$bpb43usdypY4cVF1rL0vK.tHGoj1avtmH/JHmPAQoImphoBKWV7l6,(70) 701-9193
ObjectId("5e18a2e17c29a56f60fb1cfb"),Cortez,Velasquez,565 Owens St,Daleburg,UT,19914,cortez.velasquez@tbeatty.com,$2b$12$bpb43usdypY4cVF1rL0vK.JiMSqNvIDVMixlGJgJUt0MHhijXJyTK,(934) 999-1504
ObjectId("5e18a2e17c29a56f60fb1cf4"),Rayshawn,Gaines,414 Mcdonald Pass,Scottburg,ME,16260,rayshawn.gaines@tbeatty.com,$2b$12$bpb43usdypY4cVF1rL0vK.kaD1N4mmZfk9smyO.1dO5jUsrF6oZBa,(596) 240-9439
ObjectId("5e18a2e17c29a56f60fb1cf2"),Lara,Stephens,964 Hale Ave,Morrisonville,IL,66788,lara.stephens@tbeatty.com,$2b$12$bpb43usdypY4cVF1rL0vK.96Z5XY7NOaDKY0t19Vlm7U7UBaFfXn6,(879) 221-1132
ObjectId("5e18a2e17c29a56f60fb1d03"),Aleah,Wells,79 Jimenez Rd,Wootenmont,ME,28253,aleah.wells@tbeatty.com,$2b$12$bpb43usdypY4cVF1rL0vK.K20sBM7y7wxGrXDQNURCASQwAa9jA0O,(513) 828-1423
ObjectId("5e18a2e17c29a56f60fb1d06"),Noelle,Donovan,61 Sweet Ct,Donaldson Pond,OR,96051,noelle.donovan@tbeatty.com,$2b$12$bpb43usdypY4cVF1rL0vK..UEOb0hGruAu6pHn3GHu6VX.lumCVcO,(430) 755-6678
ObjectId("5e18a2e17c29a56f60fb1d0e"),Elton,Conrad,536 Woodard Ave,Watson Springs,ME,62048,elton.conrad@tbeatty.com,$2b$12$bpb43usdypY4cVF1rL0vK.jx57bvCfTS1uxjpmiwABl1z3v/ROnZC,(43) 773-9519
ObjectId("5e18a2e17c29a56f60fb1cff"),Melissa,Battle,810 Romero St,Haystown,PA,14460,melissa.battle@tbeatty.com,$2b$12$bpb43usdypY4cVF1rL0vK.arrikwR8rqn2K/2DQ6GRGoq4cf09tLa,(224) 93-5199
ObjectId("5e18a2e17c29a56f60fb1cf5"),Jalen,Booth,819 Hines Way,Morton River,MD,26071,jalen.booth@tbeatty.com,$2b$12$bpb43usdypY4cVF1rL0vK.HHVuMAV10pqPCz565unFjbm4D4AJT9y,(5) 751-4175
ObjectId("5e18a2e17c29a56f60fb1d07"),Celeste,Bishop,659 Carson Ct,Hale Fork,NH,31526,celeste.bishop@tbeatty.com,$2b$12$bpb43usdypY4cVF1rL0vK.7oq4FbKYGSeB.lXUR8cwAJ/23rk0YGu,(62) 463-9407
ObjectId("5e18a2e17c29a56f60fb1cf3"),James,Newman,772 Ellison Ln,Barnetttown,IL,49208,james.newman@tbeatty.com,$2b$12$bpb43usdypY4cVF1rL0vK.oqswWClQvIZfw7uV0mwDXWMUAldm.Oi,(637) 583-2323
ObjectId("5e18a2e17c29a56f60fb1cf7"),Chaz,Alston,73 Arnold Cir,Skinnertown,CA,78906,chaz.alston@tbeatty.com,$2b$12$bpb43usdypY4cVF1rL0vK.T44qf1nABOc0UN4/VEegbPDq4/w0q52,(509) 548-5456
ObjectId("5e18a2e17c29a56f60fb1cfd"),Alysha,Vang,282 Nieves Cir,Richard Springs,IL,76636,alysha.vang@tbeatty.com,$2b$12$bpb43usdypY4cVF1rL0vK.Ap99IzvDDtDcmb0FycbHCyYX4IOsu2W,(65) 130-2723
ObjectId("5e18a2e17c29a56f60fb1d02"),Cole,Mclaughlin,261 Smith Ln,Eaton Lake,MI,82240,cole.mclaughlin@tbeatty.com,$2b$12$bpb43usdypY4cVF1rL0vK.V8FZEVPnKNKFgjA10pK.8l1n0ETtqBS,(748) 61-7023
ObjectId("5e18a2e17c29a56f60fb1cf6"),Darcy,Clements,337 Henderson Ln,Mossmont,NJ,98414,darcy.clements@tbeatty.com,$2b$12$bpb43usdypY4cVF1rL0vK.FwDGisz6UctyHxdUkutTB1/lDyEFESW,(590) 828-7096
ObjectId("5e18a2e17c29a56f60fb1d01"),Beau,Robbins,702 Dickerson Way,Garcia Fork,AR,26027,beau.robbins@tbeatty.com,$2b$12$bpb43usdypY4cVF1rL0vK.ury8Fu6cwDZzCHnUx4WVYG3ELS3VrhW,(664) 148-6711
ObjectId("5e18a2e17c29a56f60fb1d08"),Abel,Chaney,825 Jarvis Dr,Norman Fork,WY,63176,abel.chaney@tbeatty.com,$2b$12$bpb43usdypY4cVF1rL0vK.BIEI60AEPPfzwksIEWSL5yIq8rI6OGa,(507) 265-2964
ObjectId("5e18a2e17c29a56f60fb1d0c"),Jerry,Griffith,98 Peck Blvd,Chavezville,AZ,58811,jerry.griffith@tbeatty.com,$2b$12$bpb43usdypY4cVF1rL0vK.I/szgqnkfAS8yNOokEVX2Rn4F7jzJXm,(797) 22-2373
ObjectId("5e18a2e17c29a56f60fb1d16"),Clarence,Buck,611 Johnson Ln,Callahan Lake,MI,62745,clarence.buck@tbeatty.com,$2b$12$bpb43usdypY4cVF1rL0vK.JcwItd5h5zr1lHsC7FUnQgJNVCrn.JC,(105) 259-8663
ObjectId("5e18a2e17c29a56f60fb1cfc"),Lamont,Soto,987 Harmon Pass,Barlow Island,AZ,74139,lamont.soto@tbeatty.com,$2b$12$bpb43usdypY4cVF1rL0vK.LAsZQo9zeh7cMNA9NN304aGc.IH2J3O,(693) 441-6919
ObjectId("5e18a2e17c29a56f60fb1d09"),Calvin,Griffith,888 Compton Way,Velazquezmont,ME,16157,calvin.griffith@tbeatty.com,$2b$12$bpb43usdypY4cVF1rL0vK.CHmaNLsNuJmoejFhcD7/Zc2bf1a9P0O,(876) 581-6113
ObjectId("5e18a2e17c29a56f60fb1d0b"),Ruth,David,283 Stephens Pass,Larson Fork,CT,52775,ruth.david@tbeatty.com,$2b$12$bpb43usdypY4cVF1rL0vK.JJec94r/xqEAK9c5gPTwHc9BoeIJzW2,(277) 339-1337
ObjectId("5e18a2e17c29a56f60fb1d13"),Kolby,Alvarado,488 Meyers Ave,Patterson Fork,IL,27890,kolby.alvarado@tbeatty.com,$2b$12$bpb43usdypY4cVF1rL0vK.GmrnxL70FE4t6xi8zxD8X3Biqkf7a62,(2) 546-2335
ObjectId("5e18a2e17c29a56f60fb1d2c"),Melanie,Malone,556 Cherry Cir,Mcbrideville,CO,79740,melanie.malone@tbeatty.com,$2b$12$bpb43usdypY4cVF1rL0vK.vt5N3.Oa0a7njTKNy5ZJ4yS.mwisdL6,(557) 357-9681
ObjectId("5e18a2e17c29a56f60fb1d10"),Gabriel,Rowe,86 Schneider Ave,Meyers Island,MO,49402,gabriel.rowe@tbeatty.com,$2b$12$bpb43usdypY4cVF1rL0vK.5jB.kyLOwa.ckiXGA3mJDU1jX6q6fWa,(66) 144-9798
ObjectId("5e18a2e17c29a56f60fb1d1d"),Kenia,Hunter,892 Mcintosh Way,Pecktown,AK,59096,kenia.hunter@tbeatty.com,$2b$12$bpb43usdypY4cVF1rL0vK.STf9uRy0WC/tq4zye8JrS9i86d3jTVG,(855) 651-5330
ObjectId("5e18a2e17c29a56f60fb1d20"),Susan,Patterson,190 Morgan Ct,Pearson Springs,LA,29221,susan.patterson@tbeatty.com,$2b$12$bpb43usdypY4cVF1rL0vK.f.VXuVmCiImhXi.O.la8j3VPZRUfN5O,(630) 147-6600
ObjectId("5e18a2e17c29a56f60fb1d29"),Jodi,Pitts,786 Carson Way,Pollardburg,NM,96790,jodi.pitts@tbeatty.com,$2b$12$bpb43usdypY4cVF1rL0vK.TZbRS72xlhgdPH9qUQxCFdn5qHw0mHS,(863) 517-5055
ObjectId("5e18a2e17c29a56f60fb1d25"),Sheldon,Clayton,557 Delgado Dr,Mason Bridge,IN,77996,sheldon.clayton@tbeatty.com,$2b$12$bpb43usdypY4cVF1rL0vK.Jpnv3Q0aibFzqRcSKndK/LNZa8CQwPa,(654) 307-4120
ObjectId("5e18a2e17c29a56f60fb1d0d"),Alexis,Weber,352 Armstrong Ct,Thomas Bridge,SC,92086,alexis.weber@tbeatty.com,$2b$12$bpb43usdypY4cVF1rL0vK.hZ95GSYk7Yn1e5r/Qa36fVoc60FAioO,(89) 806-3066
ObjectId("5e18a2e17c29a56f60fb1d1e"),Travis,Hart,448 Mcfarland Cir,Searsmont,ID,92026,travis.hart@tbeatty.com,$2b$12$bpb43usdypY4cVF1rL0vK.yJoyPH5eq2M0PdieiPTHRau9v/2K36m,(555) 9-1432
ObjectId("5e18a2e17c29a56f60fb1d2f"),Ricardo,Sharpe,827 Robinson Rd,Weber River,WI,75966,ricardo.sharpe@tbeatty.com,$2b$12$bpb43usdypY4cVF1rL0vK.35/YcA0K./f/eMqy/Tol2aEL1vwAc0W,(582) 679-2109
ObjectId("5e18a2e17c29a56f60fb1d18"),Kalie,Dale,312 Ayers Pass,Goodmantown,NC,81328,kalie.dale@tbeatty.com,$2b$12$bpb43usdypY4cVF1rL0vK.LYkocKZyfRTJFJl8hH8oym6OMkOJwly,(523) 176-8646
ObjectId("5e18a2e17c29a56f60fb1d2e"),Stacie,Wilkins,965 Buchanan Way,Savage Lake,OK,67590,stacie.wilkins@tbeatty.com,$2b$12$bpb43usdypY4cVF1rL0vK./dKPbHTt0GRI6YZK3k8J8nhS9HdkLd2,(183) 414-3922
ObjectId("5e18a2e17c29a56f60fb1d27"),Moriah,Stephens,445 Cantrell St,Cohen Springs,HI,20463,moriah.stephens@tbeatty.com,$2b$12$bpb43usdypY4cVF1rL0vK.VfG1UBDYiPMyzBYllTPS/j4C5xyFMGy,(775) 922-9182
ObjectId("5e18a2e17c29a56f60fb1d0a"),Debbie,Crawford,439 Mckinney Ln,Roberts Pond,KY,98723,debbie.crawford@tbeatty.com,$2b$12$bpb43usdypY4cVF1rL0vK.GM/OYUzIujadrCkF5Nx1hVEuH05JzUC,(647) 376-1437
ObjectId("5e18a2e17c29a56f60fb1d31"),Dayton,Washington,335 Morse St,Frazier Island,OK,81208,dayton.washington@tbeatty.com,$2b$12$bpb43usdypY4cVF1rL0vK.WyK4GdV6HjXY86iFHvz5QWufXR5JUHK,(730) 783-9544
ObjectId("5e18a2e17c29a56f60fb1d15"),Christian,Joseph,57 Irwin Blvd,Hancock Lake,NY,32593,christian.joseph@tbeatty.com,$2b$12$bpb43usdypY4cVF1rL0vK.NZPpY320AVrOuzTUBJc7tMZbN2xpXqO,(647) 830-8657
ObjectId("5e18a2e17c29a56f60fb1d2b"),Javier,Ayala,450 Chase Way,Dudley Lake,SC,41004,javier.ayala@tbeatty.com,$2b$12$bpb43usdypY4cVF1rL0vK.s5amvdjPOwXlx98mD8nhil046RII0Au,(615) 236-5885
ObjectId("5e18a2e17c29a56f60fb1d00"),Nicholas,Jacobson,674 Sanford Dr,Russo Bridge,AK,80417,nicholas.jacobson@tbeatty.com,$2b$12$bpb43usdypY4cVF1rL0vK.h7SbVnA9LykscjIgki9aXxoSNWdViBq,(350) 905-9893
ObjectId("5e18a2e17c29a56f60fb1d05"),Reagan,Malone,931 Valenzuela Dr,Cunningham Island,NJ,33661,reagan.malone@tbeatty.com,$2b$12$bpb43usdypY4cVF1rL0vK.kJFn1FfsjCgDIUERKe4ROECfOvifp7O,(382) 625-4159
ObjectId("5e18a2e17c29a56f60fb1d0f"),Kurt,Vaughan,710 Powell Dr,Gardner Springs,SD,43754,kurt.vaughan@tbeatty.com,$2b$12$bpb43usdypY4cVF1rL0vK.I9uVSSBriGOEmZgq9JOH7kr.u7iyjPW,(320) 645-7102
ObjectId("5e18a2e17c29a56f60fb1d1b"),Marco,Foster,459 Castro St,Thorntontown,AZ,37902,marco.foster@tbeatty.com,$2b$12$bpb43usdypY4cVF1rL0vK.VAIWq62ewl9BYkQMYYXriLEcRIExWZy,(722) 20-8506
ObjectId("5e18a2e17c29a56f60fb1d2d"),Caroline,Mcdonald,105 Best Way,Jenkins Creek,WI,14732,caroline.mcdonald@tbeatty.com,$2b$12$bpb43usdypY4cVF1rL0vK.mQzz/Ckz4TV9lAhYSwmUiPUt5eFLaA2,(863) 153-3323
ObjectId("5e18a2e17c29a56f60fb1cf8"),Charles,Ruiz,63 Bean St,Fletcher City,OH,79082,charles.ruiz@tbeatty.com,$2b$12$bpb43usdypY4cVF1rL0vK.VskCPigMm1Aa0byZ15N4FKJXjVa8O2u,(181) 628-3937
ObjectId("5e18a2e17c29a56f60fb1cfe"),Anabel,Ratliff,705 Combs Dr,Juarezmont,AR,22681,anabel.ratliff@tbeatty.com,$2b$12$bpb43usdypY4cVF1rL0vK.WDk9IN/z5sXYkf5hIkOEMwk.pq0BwCG,(326) 519-5391
ObjectId("5e18a2e17c29a56f60fb1d17"),Miranda,Roy,168 Fuller Rd,Bailey River,AK,74877,miranda.roy@tbeatty.com,$2b$12$bpb43usdypY4cVF1rL0vK.4xf9zegPmJUKYgdpsXE9F5r80VVqvkK,(864) 310-7703
ObjectId("5e18a2e17c29a56f60fb1d1c"),Regan,Kirby,30 Decker Blvd,Solomon Valley,AZ,81442,regan.kirby@tbeatty.com,$2b$12$bpb43usdypY4cVF1rL0vK.JhSJWyQeTMXCI.t9YSMZnyVu8BeA3HW,(183) 695-3178
ObjectId("5e18a2e17c29a56f60fb1d26"),Jaden,Mullen,932 Acevedo Pass,Munoz Bridge,AZ,37598,jaden.mullen@tbeatty.com,$2b$12$bpb43usdypY4cVF1rL0vK.nG2FgrAnTEzzPJ9L4thLwY6Y9DNzT0q,(616) 410-7179
ObjectId("5e18a2e17c29a56f60fb1d28"),Karley,Silva,689 James Pass,Knappmont,WV,25152,karley.silva@tbeatty.com,$2b$12$bpb43usdypY4cVF1rL0vK.uz7vkKF8w.DhFQ2.WYA/cGdIIQXeMUO,(522) 43-3855
ObjectId("5e18a2e17c29a56f60fb1d14"),Dana,Dillard,111 Nguyen Pass,Meyer Springs,MT,64507,dana.dillard@tbeatty.com,$2b$12$bpb43usdypY4cVF1rL0vK.Ib8WSHEZLYQXFcYx.B2WLrRO8tissj2,(707) 723-9827
ObjectId("5e18a2e17c29a56f60fb1d19"),Yasmeen,Fuentes,47 Cline Dr,Stephens Fork,VA,30984,yasmeen.fuentes@tbeatty.com,$2b$12$bpb43usdypY4cVF1rL0vK.EvrriWXSKtSpnVkPnL.vnaEKsHN1UHe,(165) 373-4653
ObjectId("5e18a2e17c29a56f60fb1d1a"),Syed,Collier,356 Herman Way,Mason Bridge,GA,27578,syed.collier@tbeatty.com,$2b$12$bpb43usdypY4cVF1rL0vK.U6W7MO5zAxth417bwmWEUJCDFm1w9AO,(781) 580-9972
ObjectId("5e18a2e17c29a56f60fb1d22"),Chantal,Shelton,95 Huffman Cir,Spencer Fork,PA,96749,chantal.shelton@tbeatty.com,$2b$12$bpb43usdypY4cVF1rL0vK.VuAl56Mk2uWQ0b.a/OVAGZm/6audthS,(781) 417-3620
ObjectId("5e18a2e17c29a56f60fb1d04"),Kaley,Randall,731 Hebert Ave,Gilbert Pond,MT,25006,kaley.randall@tbeatty.com,$2b$12$bpb43usdypY4cVF1rL0vK.1uLw2/M9p4pWb/TXpIpHIxAC5tXUK/q,(808) 933-1980
ObjectId("5e18a2e17c29a56f60fb1d1f"),Clayton,Cochran,792 Villarreal Dr,Bray City,AL,66876,clayton.cochran@tbeatty.com,$2b$12$bpb43usdypY4cVF1rL0vK.Ky9QpOVf47yh/ggXvaZTfkP4uc8qdGG,(800) 980-7822
ObjectId("5e18a2e17c29a56f60fb1d21"),Ricardo,Franklin,119 Wilcox Blvd,Baxter Island,NH,22669,ricardo.franklin@tbeatty.com,$2b$12$bpb43usdypY4cVF1rL0vK.fd4m7aRZN71nEaWVSm3OCIUOIpj.f3C,(18) 404-9293
ObjectId("5e18a2e17c29a56f60fb1d24"),Martina,Watkins,985 Reese Blvd,Tucker Creek,FL,40988,martina.watkins@tbeatty.com,$2b$12$bpb43usdypY4cVF1rL0vK.cZmVZEyOm0sNXwP5uYhARp.3jToY4Wy,(440) 55-9943
ObjectId("5e18a2e17c29a56f60fb1d11"),Bonnie,Rutledge,700 Aguilar Ct,Roberts Island,UT,40730,bonnie.rutledge@tbeatty.com,$2b$12$bpb43usdypY4cVF1rL0vK.kzJtuUNv8aenj02ucC30038hBe5muWe,(739) 676-2376
ObjectId("5e18a2e17c29a56f60fb1d2a"),Jacques,Lyons,450 Cabrera Pass,Yates Island,KS,67130,jacques.lyons@tbeatty.com,$2b$12$bpb43usdypY4cVF1rL0vK.QZziXTLYWag/FV5cHgc5dHB0IZbOqMG,(947) 475-2587
ObjectId("5e18a2e17c29a56f60fb1cf9"),Perla,Valdez,873 George Ct,Navarro Pond,IA,18609,perla.valdez@tbeatty.com,$2b$12$bpb43usdypY4cVF1rL0vK.BrdbFPkCYFUWO9L/gkoBqnS.PbMWLu6,(337) 399-2436
ObjectId("5e18a2e17c29a56f60fb1cfa"),Coleman,Vaughn,410 Simpson Cir,Mack Island,OH,11307,coleman.vaughn@tbeatty.com,$2b$12$bpb43usdypY4cVF1rL0vK.ggi61wAsOs/YSLwjsLrvIgTOy.b3G2O,(293) 454-3898
ObjectId("5e18a2e17c29a56f60fb1d23"),Logan,Dennis,732 Le Rd,Cortez Valley,OK,53526,logan.dennis@tbeatty.com,$2b$12$bpb43usdypY4cVF1rL0vK.bqchX47LWKCSKLGpln/zkejsydy1uzC,(613) 448-6991
ObjectId("5e18a2e17c29a56f60fb1d30"),Ahmad,Strong,749 Melton Way,Mann River,LA,83089,ahmad.strong@tbeatty.com,$2b$12$bpb43usdypY4cVF1rL0vK.jfA5TLrloSFKMxlY5Jqdr.eMjnwlP.K,(318) 869-5682
ObjectId("5e18a2e17c29a56f60fb1d3b"),Jonathan,Mccarty,2 Small Cir,Moodymont,MN,48197,jonathan.mccarty@tbeatty.com,$2b$12$bpb43usdypY4cVF1rL0vK.vC/y.jXWNt/ojboykoPQBSSpuN.tMIG,(147) 903-5225
ObjectId("5e18a2e17c29a56f60fb1d32"),Jeremiah,Burks,224 Patton Dr,Knox Springs,NH,90762,jeremiah.burks@tbeatty.com,$2b$12$bpb43usdypY4cVF1rL0vK.6bxjjHcvTYkdBRe7OjwEbiNq15vQ50O,(417) 794-9024
ObjectId("5e18a2e17c29a56f60fb1d34"),Rocio,Flores,968 Wynn St,Combs Springs,AZ,79678,rocio.flores@tbeatty.com,$2b$12$bpb43usdypY4cVF1rL0vK.ZCweYNUOJI8Duj5DmSIlbJIg6eKxe0G,(439) 431-6264
ObjectId("5e18a2e17c29a56f60fb1d42"),Shirley,Abbott,228 Jacobson Ct,O'connor Island,ND,40746,shirley.abbott@tbeatty.com,$2b$12$bpb43usdypY4cVF1rL0vK.j7FIsQhlTYY50.Slus.6wLvw/h5QRM.,(148) 242-7813
ObjectId("5e18a2e17c29a56f60fb1d6a"),Emilie,Mclean,363 Phillips Ln,Munozville,NM,87482,emilie.mclean@tbeatty.com,$2b$12$bpb43usdypY4cVF1rL0vK.Xw1Dm5cGxwcK09KX1vb.NjyvsJxbbAC,(818) 945-7596
ObjectId("5e18a2e17c29a56f60fb1d84"),Daisy,Santana,245 Hickman Ln,Solis Creek,FL,93285,daisy.santana@tbeatty.com,$2b$12$bpb43usdypY4cVF1rL0vK.S3ZXlviAsMUkOdiSBduS2VHyA44Jrbe,(914) 865-6392
ObjectId("5e18a2e17c29a56f60fb1d86"),Hanna,Bryan,945 Rivers Ave,Mcgee City,OH,33915,hanna.bryan@tbeatty.com,$2b$12$bpb43usdypY4cVF1rL0vK.dV.v0GMBHd/SKkpYUkwySfyFd.yu1Uu,(109) 217-6664
ObjectId("5e18a2e17c29a56f60fb1d8d"),Moriah,Klein,883 Ratliff St,Guerra Springs,WV,58504,moriah.klein@tbeatty.com,$2b$12$bpb43usdypY4cVF1rL0vK.Si4psHmPd9z7B4.GMhtNqNJVKEuZ7P2,(336) 591-9872
ObjectId("5e18a2e17c29a56f60fb1dab"),Tristan,Norris,442 Benson Ln,Pierce Valley,AL,82884,tristan.norris@tbeatty.com,$2b$12$bpb43usdypY4cVF1rL0vK.LJfkAFKk73zFBt/CUm6dZCTgs/mnq/a,(462) 346-4287
ObjectId("5e18a2e17c29a56f60fb1db2"),Ashley,Stephenson,992 Randall Cir,Lester Pond,MI,28900,ashley.stephenson@tbeatty.com,$2b$12$bpb43usdypY4cVF1rL0vK.W2ON9pybvhVLWnIBZyZsCa0js6fNLXC,(256) 739-1279
ObjectId("5e18a2e17c29a56f60fb1dc8"),Aliyah,Knapp,5 Fischer Way,Contreras Island,HI,76194,aliyah.knapp@tbeatty.com,$2b$12$bpb43usdypY4cVF1rL0vK.c3MeWkwvmZrqtLnX5LL9/PgEQ0Xp7/y,(579) 551-5369
ObjectId("5e18a2e17c29a56f60fb1dd7"),Jaden,Buckley,256 Lynch Rd,Osborne Springs,KY,65303,jaden.buckley@tbeatty.com,$2b$12$bpb43usdypY4cVF1rL0vK.IRJ2W.baVnUQwLK6COe6CY.GqRXSsWC,(359) 823-2716
ObjectId("5e18a2e17c29a56f60fb1de6"),Zane,Lynn,58 Steele Rd,Gaines Springs,CT,27198,zane.lynn@tbeatty.com,$2b$12$bpb43usdypY4cVF1rL0vK.O70uKUG4ArLI.3WFPOjmYtyRPKcK0JK,(843) 359-8363
ObjectId("5e18a2e17c29a56f60fb1de7"),Addison,Barrett,849 Atkins Blvd,Reid Fork,MO,65556,addison.barrett@tbeatty.com,$2b$12$bpb43usdypY4cVF1rL0vK.2G1uA1Il3193rOtovbQGV.JwqyDPVLC,(372) 189-7427
ObjectId("5e18a2e17c29a56f60fb1de9"),Howard,Manning,996 Spencer Ave,Morsetown,VA,69839,howard.manning@tbeatty.com,$2b$12$bpb43usdypY4cVF1rL0vK.k/CqNMdKJuo6pKzKx3ZEfn8X7Dwl18u,(497) 163-5317
ObjectId("5e18a2e17c29a56f60fb1e04"),Gwendolyn,Eaton,52 Baxter Blvd,Pearsonville,HI,39593,gwendolyn.eaton@tbeatty.com,$2b$12$bpb43usdypY4cVF1rL0vK.TrYe9jasg2IDWEF8DjRu51qxhNy8qoC,(934) 383-8814
ObjectId("5e18a2e17c29a56f60fb1e20"),Coty,Hamilton,381 Walsh Dr,Quinn Bridge,MN,82249,coty.hamilton@tbeatty.com,$2b$12$bpb43usdypY4cVF1rL0vK.qciadjsPyfCOJJSom5vlFwAgQKYrqqi,(235) 539-1082
ObjectId("5e18a2e17c29a56f60fb1e38"),Dominque,Anderson,153 Zimmerman Ave,Bishop Pond,HI,54544,dominque.anderson@tbeatty.com,$2b$12$bpb43usdypY4cVF1rL0vK.YUEeEKuXpSRrebOziSeeySVG45OutbG,(283) 409-6011
ObjectId("5e18a2e17c29a56f60fb1e3b"),Nigel,Mckinney,342 Daniels Dr,Riddleburg,OH,90420,nigel.mckinney@tbeatty.com,$2b$12$bpb43usdypY4cVF1rL0vK.GWqW5lu4z6E.nvS2auszLn2BtsPuO8K,(110) 642-5770
ObjectId("5e18a2e17c29a56f60fb1e4b"),Jerrell,Faulkner,261 Edwards Way,Lang City,OR,32755,jerrell.faulkner@tbeatty.com,$2b$12$bpb43usdypY4cVF1rL0vK.WPZGiYIOl2opwYYCGJjehQMWuDLjGEC,(20) 43-7053
ObjectId("5e18a2e17c29a56f60fb1e4e"),Timothy,Fulton,161 Buck Dr,Doylemont,TN,55078,timothy.fulton@tbeatty.com,$2b$12$bpb43usdypY4cVF1rL0vK.Rl5N41uzIdLWdzzMI4E3/FKg0vwKnUy,(568) 497-6946
ObjectId("5e18a2e17c29a56f60fb1e64"),Issac,Lyons,250 Burgess Ct,Graham River,NY,90025,issac.lyons@tbeatty.com,$2b$12$bpb43usdypY4cVF1rL0vK.mUiax/8aQsaEcO2Kfw/qMnpp2X6Ah92,(132) 30-9336
ObjectId("5e18a2e17c29a56f60fb1e77"),Jaylen,Bass,296 Flores Blvd,Owens River,LA,87581,jaylen.bass@tbeatty.com,$2b$12$bpb43usdypY4cVF1rL0vK.8VThY14ctDUhjgd5bfLv7sHmgtbiSca,(834) 686-9093
ObjectId("5e18a2e17c29a56f60fb1d48"),Chelsie,Fletcher,976 Haynes Pass,Kelly Fork,DE,23288,chelsie.fletcher@tbeatty.com,$2b$12$bpb43usdypY4cVF1rL0vK.4CJ.TtdOMloZEqHFzSeWsUEm5ls2r0i,(166) 259-8145
ObjectId("5e18a2e17c29a56f60fb1d72"),Jamil,York,67 Knapp Rd,Bauer Valley,AK,86702,jamil.york@tbeatty.com,$2b$12$bpb43usdypY4cVF1rL0vK.Z73aeCLJEV2QAuxRT3hvVTthmsVZ6Z6,(753) 161-8990
ObjectId("5e18a2e17c29a56f60fb1d85"),Ulises,Orr,925 Stevenson Ln,Ortiz Island,OH,22136,ulises.orr@tbeatty.com,$2b$12$bpb43usdypY4cVF1rL0vK.F4x7GpX.nQBP7Rj503dFul2Fx42Ag9y,(474) 87-3200
ObjectId("5e18a2e17c29a56f60fb1d87"),Terry,Zimmerman,129 Hodge Way,Rodriquezburg,IL,42698,terry.zimmerman@tbeatty.com,$2b$12$bpb43usdypY4cVF1rL0vK.Jkcb94.qPWesdI/6xABSLEX5zOaVfCK,(840) 57-4710
ObjectId("5e18a2e17c29a56f60fb1d90"),Sheila,Mcgee,841 Nichols Pass,Hillmont,MT,55232,sheila.mcgee@tbeatty.com,$2b$12$bpb43usdypY4cVF1rL0vK.Y6Ns.NQPM/gz8zIEpgMKZ4IiJTd26dy,(56) 552-5110
ObjectId("5e18a2e17c29a56f60fb1d91"),Marcel,Duffy,807 Carter Ct,Maysville,VA,53672,marcel.duffy@tbeatty.com,$2b$12$bpb43usdypY4cVF1rL0vK.MCZafIOH4hx7yctSrCS0Z7i3jw8oeI.,(911) 175-8784
ObjectId("5e18a2e17c29a56f60fb1d9a"),Summer,Cline,138 Hart Ave,Gillburg,NC,95673,summer.cline@tbeatty.com,$2b$12$bpb43usdypY4cVF1rL0vK.JvT0q56Uixe4l73dQHJxYLqg18tKkxa,(590) 677-8867
ObjectId("5e18a2e17c29a56f60fb1dbb"),Bailey,Ross,273 Skinner Ave,Combs Springs,CA,12365,bailey.ross@tbeatty.com,$2b$12$bpb43usdypY4cVF1rL0vK./vnmNNf8OTAHQ9iPmFe75hHuq5tXxnq,(881) 710-1541
ObjectId("5e18a2e17c29a56f60fb1dc2"),Estevan,Holden,476 Murray Pass,Donovan City,FL,74427,estevan.holden@tbeatty.com,$2b$12$bpb43usdypY4cVF1rL0vK.1HlshIPsp5Yx7v496Idt/lwt5w69kHy,(74) 778-9681
ObjectId("5e18a2e17c29a56f60fb1dc9"),Tonya,Dale,194 Duran Cir,Cameron Springs,VT,20408,tonya.dale@tbeatty.com,$2b$12$bpb43usdypY4cVF1rL0vK.XrQPP2jHmJMwyE9fvfmQo1jWVtlCi7m,(887) 840-8134
ObjectId("5e18a2e17c29a56f60fb1dfa"),Raul,Marquez,723 Mcknight Ct,Stephenson Fork,ME,77827,raul.marquez@tbeatty.com,$2b$12$bpb43usdypY4cVF1rL0vK.qq9FRemphMhdK5iqUYn4xDZ7dRA3jfe,(441) 424-3036
ObjectId("5e18a2e17c29a56f60fb1e08"),Alan,Maddox,700 Mitchell Way,Bartlett City,MS,38149,alan.maddox@tbeatty.com,$2b$12$bpb43usdypY4cVF1rL0vK.zRF.77qNX2NB4XfjGQcSdhCCGQ0MHye,(833) 924-5826
ObjectId("5e18a2e17c29a56f60fb1e0e"),Callie,Newton,928 Glass Pass,Castaneda Bridge,NE,98031,callie.newton@tbeatty.com,$2b$12$bpb43usdypY4cVF1rL0vK.uJLgFmCeo7kYt4HUlYF9K6mRRlaG7Vy,(711) 150-5249
ObjectId("5e18a2e17c29a56f60fb1e10"),Justina,Lucas,993 Dean Ave,Arnold City,MT,12276,justina.lucas@tbeatty.com,$2b$12$bpb43usdypY4cVF1rL0vK.56KEbY/j64cLqzGKqyz7GV8ZKLG/Vq.,(543) 248-5614
ObjectId("5e18a2e17c29a56f60fb1e15"),August,Forbes,486 Weber Cir,Olivertown,WV,17508,august.forbes@tbeatty.com,$2b$12$bpb43usdypY4cVF1rL0vK.u9b9BQ3McHvvOo/fiZ0uQkLfgAFaA9a,(262) 244-7467
ObjectId("5e18a2e17c29a56f60fb1e22"),Stephanie,Scott,663 Rush Pass,Neal Springs,ID,14585,stephanie.scott@tbeatty.com,$2b$12$bpb43usdypY4cVF1rL0vK.Q3ZMDcvAzviV1SN8bWsAhd0QLEjHXRe,(55) 766-4521
ObjectId("5e18a2e17c29a56f60fb1e26"),Darren,Padilla,30 Ellison Way,Lee Pond,MT,34186,darren.padilla@tbeatty.com,$2b$12$bpb43usdypY4cVF1rL0vK.wi3JUS2s78LUB5PaCqNml8UPpBgn1Yu,(131) 33-5569
ObjectId("5e18a2e17c29a56f60fb1e2f"),Jamila,Lucas,437 Bryant Ave,Fitzgeraldburg,OR,38011,jamila.lucas@tbeatty.com,$2b$12$bpb43usdypY4cVF1rL0vK.VUbFie6zYhgklqgwtZOyXH2u5bySsWu,(119) 196-6365
ObjectId("5e18a2e17c29a56f60fb1e30"),Griffin,Randall,375 Pruitt Rd,Robles City,IL,27037,griffin.randall@tbeatty.com,$2b$12$bpb43usdypY4cVF1rL0vK.peFrvlX6TqhQG7iNS7UKT0KkK/jdomm,(483) 263-3281
ObjectId("5e18a2e17c29a56f60fb1e59"),Randy,Mercer,492 Buckley St,Conwayville,ME,40455,randy.mercer@tbeatty.com,$2b$12$bpb43usdypY4cVF1rL0vK.gooYwJ7bSVDF.xLdsBFh2EUp5qAqLce,(733) 170-8971
ObjectId("5e18a2e17c29a56f60fb1e5d"),Glen,Slater,749 Dodson St,Hewitt Pond,PA,29611,glen.slater@tbeatty.com,$2b$12$bpb43usdypY4cVF1rL0vK.sJkcKVYze9hODe/E0.V4XcVUpjzP3wi,(42) 402-4656
ObjectId("5e18a2e17c29a56f60fb1e6a"),Stetson,Harris,957 Chan Ln,Raymond Springs,SC,33759,stetson.harris@tbeatty.com,$2b$12$bpb43usdypY4cVF1rL0vK.bq7GwAOsx2yCl1.jvY2NVHBYk3G.Ipm,(674) 353-4104
ObjectId("5e18a2e17c29a56f60fb1e6c"),Owen,Madden,419 Reynolds Blvd,Higgins City,NY,82938,owen.madden@tbeatty.com,$2b$12$bpb43usdypY4cVF1rL0vK.8kWbKLeEdPEiBQ13lmeW9zgfXVYUOta,(988) 76-4895
ObjectId("5e18a2e17c29a56f60fb1e79"),Antonia,Rowe,993 Trevino Ln,Mercer City,FL,39943,antonia.rowe@tbeatty.com,$2b$12$bpb43usdypY4cVF1rL0vK.VaJ7XOna/gbrFaAdjSrLL5UH4/f9q1G,(729) 572-8061
ObjectId("5e18a2e17c29a56f60fb1e7b"),Eddy,Hale,248 Carney Rd,Caldwell Valley,MO,89085,eddy.hale@tbeatty.com,$2b$12$bpb43usdypY4cVF1rL0vK.WdnD4WtYmP3gfta/2XxuMvtKEOpgTm.,(57) 266-8091
ObjectId("5e18a2e17c29a56f60fb1e82"),Andrew,Schmidt,577 Ruiz Pass,Strong Springs,TN,93248,andrew.schmidt@tbeatty.com,$2b$12$bpb43usdypY4cVF1rL0vK.c/F1wNCQho.VseXLVnLzSUrnxHcLZyG,(902) 870-3084
ObjectId("5e18a2e17c29a56f60fb1e8b"),Leonardo,Oliver,612 Ford Pass,Burchville,OR,45246,leonardo.oliver@tbeatty.com,$2b$12$bpb43usdypY4cVF1rL0vK.bTrhC.48UjZYLG1eFEt/A47Z12tebgi,(190) 906-5037
ObjectId("5e18a2e17c29a56f60fb1d41"),Dwight,Finley,159 Cummings Way,Higgins Pond,NV,82153,dwight.finley@tbeatty.com,$2b$12$bpb43usdypY4cVF1rL0vK.kkhvBDiS6FMlU96AtQEKHoKPpkU6vVS,(491) 560-7344
ObjectId("5e18a2e17c29a56f60fb1d4e"),Jerod,Chaney,624 Bond St,Dunn Pond,GA,54606,jerod.chaney@tbeatty.com,$2b$12$bpb43usdypY4cVF1rL0vK.zx2hgQATm3ydoxyYVA5GF8OTxjaDw/e,(834) 222-1243
ObjectId("5e18a2e17c29a56f60fb1d57"),Triston,Small,452 Berger Ave,Bowers River,CO,94389,triston.small@tbeatty.com,$2b$12$bpb43usdypY4cVF1rL0vK./zogPb.ViAY0g.NKR77UsG7mWiPhGwK,(941) 838-5512
ObjectId("5e18a2e17c29a56f60fb1d5a"),Elijah,Sosa,713 Joyner Pass,Langley Island,OR,36917,elijah.sosa@tbeatty.com,$2b$12$bpb43usdypY4cVF1rL0vK.Q5emd7sWRTUWRMo4Deoc9hV4RR0/ih2,(462) 284-2165
ObjectId("5e18a2e17c29a56f60fb1d5e"),Iliana,Chen,471 Hoover Ave,Glover Fork,MI,32642,iliana.chen@tbeatty.com,$2b$12$bpb43usdypY4cVF1rL0vK.D1MJuauD5uFgbt5236dkv9iOGg7TFnK,(636) 499-2011
ObjectId("5e18a2e17c29a56f60fb1d81"),Emilia,Ballard,477 Hopkins Cir,Wright Lake,TX,51063,emilia.ballard@tbeatty.com,$2b$12$bpb43usdypY4cVF1rL0vK.UF80up48eFzsRjSInq9d.jvGGEmTYe2,(377) 729-3178
ObjectId("5e18a2e17c29a56f60fb1d97"),Gladys,Ingram,856 Benton Cir,Peters Fork,UT,85479,gladys.ingram@tbeatty.com,$2b$12$bpb43usdypY4cVF1rL0vK.GnMlj6N.UjzinuQVjQKQkJbRft2sCu6,(877) 276-3922
ObjectId("5e18a2e17c29a56f60fb1db1"),Zechariah,Herman,960 Maxwell Rd,Weaverburg,CO,31432,zechariah.herman@tbeatty.com,$2b$12$bpb43usdypY4cVF1rL0vK.JJ4UiQFtzXBkrtVBvNE/agawRD2RVLi,(40) 235-3058
ObjectId("5e18a2e17c29a56f60fb1dbc"),Karl,Hurley,897 Sims Ave,Bishopville,CO,78338,karl.hurley@tbeatty.com,$2b$12$bpb43usdypY4cVF1rL0vK.yDlIQtKe2rQR03lakw7wgNkweIVUjiu,(956) 282-3904
ObjectId("5e18a2e17c29a56f60fb1dbd"),Kali,Fleming,748 Barry Ct,Beck Island,AL,63209,kali.fleming@tbeatty.com,$2b$12$bpb43usdypY4cVF1rL0vK.j/fUz3rMBVU9F/j.NBKF0IbergpZXBy,(728) 53-8201
ObjectId("5e18a2e17c29a56f60fb1dd4"),Nicolette,Henry,858 Coffey Dr,Wiley Valley,OR,36332,nicolette.henry@tbeatty.com,$2b$12$bpb43usdypY4cVF1rL0vK.S4OwMcINTmrLJsdgIOIYE55eH6mYYIy,(112) 115-1576
ObjectId("5e18a2e17c29a56f60fb1ddb"),Olivia,Dorsey,611 Caldwell Ct,Danielmont,KY,73730,olivia.dorsey@tbeatty.com,$2b$12$bpb43usdypY4cVF1rL0vK.kbUQTiDV8fYHqWZzxfADsQBgSWNtcaC,(798) 602-7288
ObjectId("5e18a2e17c29a56f60fb1dde"),Walter,Craft,533 Buckley Ln,Hooper Island,TN,11033,walter.craft@tbeatty.com,$2b$12$bpb43usdypY4cVF1rL0vK.MriTIC49OEnKYDHcDIGRW7wxfPzCC.W,(388) 726-3381
ObjectId("5e18a2e17c29a56f60fb1dea"),Cheyenne,Soto,475 Townsend Ave,Ware Valley,TN,63777,cheyenne.soto@tbeatty.com,$2b$12$bpb43usdypY4cVF1rL0vK.5msF52xIl269rhi9lycfUA.q53FbY7q,(375) 518-2517
ObjectId("5e18a2e17c29a56f60fb1df2"),Cyrus,Crawford,185 Mcconnell Pass,Hollowayville,CO,81137,cyrus.crawford@tbeatty.com,$2b$12$bpb43usdypY4cVF1rL0vK.teRCp64lGUcEwZS0ZE2qwAHEtbL3fZ2,(371) 348-9260
ObjectId("5e18a2e17c29a56f60fb1df7"),Melody,Emerson,416 Pena Way,Brennanmont,MA,73805,melody.emerson@tbeatty.com,$2b$12$bpb43usdypY4cVF1rL0vK.uaDIF6R6O0fnLbNC2ag06sGl8aaZUHS,(612) 345-3550
ObjectId("5e18a2e17c29a56f60fb1e11"),Jairo,Baird,138 Witt Ct,Espinoza Creek,CA,62563,jairo.baird@tbeatty.com,$2b$12$bpb43usdypY4cVF1rL0vK.VrH/xSqlsgQ0exVyn6CcYYeHWF6tQSO,(342) 737-6307
ObjectId("5e18a2e17c29a56f60fb1e1a"),Irene,Henderson,595 Price Ln,Espinoza Fork,NY,67543,irene.henderson@tbeatty.com,$2b$12$bpb43usdypY4cVF1rL0vK.cbjA6f5.JRZ/MkTTbGv3EllNV5DiBz6,(312) 605-1293
ObjectId("5e18a2e17c29a56f60fb1e2b"),Marlena,Weeks,989 Newton Ave,Solomonmont,MI,21546,marlena.weeks@tbeatty.com,$2b$12$bpb43usdypY4cVF1rL0vK.L4uDhsz9G.2/kUROX/q4GpXw.f6nQPW,(903) 812-3847
ObjectId("5e18a2e17c29a56f60fb1e2d"),Jessenia,Brooks,16 Hawkins Blvd,Mcpherson Fork,VA,70406,jessenia.brooks@tbeatty.com,$2b$12$bpb43usdypY4cVF1rL0vK.bTznjOC3ctS2LCQWkfi8iE58uYxV5dS,(919) 698-3564
ObjectId("5e18a2e17c29a56f60fb1e32"),Melina,Soto,248 Stevens Pass,Bryantmont,TX,57430,melina.soto@tbeatty.com,$2b$12$bpb43usdypY4cVF1rL0vK.tY9eW9pFpeffzNSqYNCiml3toZ9b6uS,(885) 0-6728
ObjectId("5e18a2e17c29a56f60fb1e36"),Mikayla,Mcintyre,363 Fernandez Way,Spearstown,TX,93960,mikayla.mcintyre@tbeatty.com,$2b$12$bpb43usdypY4cVF1rL0vK.Wu2F855g9WwZTlMsldoYd3HaHiTBOxC,(536) 761-8124
ObjectId("5e18a2e17c29a56f60fb1e57"),Jasper,Lamb,554 Figueroa Ln,Thompson Valley,NY,58813,jasper.lamb@tbeatty.com,$2b$12$bpb43usdypY4cVF1rL0vK.ibAz1XF.TxCkjmG.QwSdr4Nyym1EhNy,(440) 819-2599
ObjectId("5e18a2e17c29a56f60fb1e58"),Berenice,Burris,897 Mcgowan Blvd,Peters Creek,ME,77530,berenice.burris@tbeatty.com,$2b$12$bpb43usdypY4cVF1rL0vK.bSiQNuUo1KQ99iEJxYaMdlCf8NhPnW2,(947) 43-2500
ObjectId("5e18a2e17c29a56f60fb1e73"),Maura,Hodges,766 Hernandez Dr,Grant River,IA,90406,maura.hodges@tbeatty.com,$2b$12$bpb43usdypY4cVF1rL0vK..788BPW5KlqhwYHJJiMBL4Tc5iPzlge,(603) 694-5795
ObjectId("5e18a2e17c29a56f60fb1e78"),Dylan,Matthews,238 Wilson Rd,Cash Pond,NY,15869,dylan.matthews@tbeatty.com,$2b$12$bpb43usdypY4cVF1rL0vK.8OWD2upqxHecAqRr3ixT08zYgzJzJPW,(154) 99-9049
ObjectId("5e18a2e17c29a56f60fb1e80"),Cecelia,Savage,899 Ryan Blvd,Hester River,UT,77471,cecelia.savage@tbeatty.com,$2b$12$bpb43usdypY4cVF1rL0vK.84uWkxfeHHm/Bwf6aO7E3w2fWOATLbq,(978) 765-8482
ObjectId("5e18a2e17c29a56f60fb1e94"),Carissa,Skinner,242 Sampson Ct,Irwin Pond,IL,31867,carissa.skinner@tbeatty.com,$2b$12$bpb43usdypY4cVF1rL0vK.Kwtbjk3vVvX9Q/pstRlJOM15MDW7NwK,(710) 594-5018
ObjectId("5e18a2e17c29a56f60fb1d37"),Keri,Simpson,431 Mckenzie Pass,Vinson Pond,IA,56760,keri.simpson@tbeatty.com,$2b$12$bpb43usdypY4cVF1rL0vK.ITfeeKhXdaWCy2rd6Fjq45ZC0rnSYCO,(670) 601-1466
ObjectId("5e18a2e17c29a56f60fb1d4f"),Carmen,Nicholson,381 Shannon Rd,Johns Island,IL,13781,carmen.nicholson@tbeatty.com,$2b$12$bpb43usdypY4cVF1rL0vK.OZ7d09L4Dl0Gd5fqWjNAmvzTViPaI/.,(750) 149-5184
ObjectId("5e18a2e17c29a56f60fb1d5f"),Cedric,Hicks,811 Woods Blvd,Yates Valley,AZ,78248,cedric.hicks@tbeatty.com,$2b$12$bpb43usdypY4cVF1rL0vK.rpylg80PznEnSjdxRIHxFPNlk1hk/Su,(549) 271-3017
ObjectId("5e18a2e17c29a56f60fb1d68"),Mia,Chandler,393 Ashley St,Bentleyburg,IL,93933,mia.chandler@tbeatty.com,$2b$12$bpb43usdypY4cVF1rL0vK.X/sTZva8L14YEpDiE2q86ch3Q6hD/jG,(568) 893-2415
ObjectId("5e18a2e17c29a56f60fb1d6d"),Cara,Middleton,796 Mcpherson Ave,Mack Bridge,HI,58407,cara.middleton@tbeatty.com,$2b$12$bpb43usdypY4cVF1rL0vK..oybHecF0RwjPxQNdpAMKaSSL09fxL2,(374) 399-5633
ObjectId("5e18a2e17c29a56f60fb1d92"),Mohamed,Houston,148 Mcguire Blvd,Leblanc Pond,AK,83223,mohamed.houston@tbeatty.com,$2b$12$bpb43usdypY4cVF1rL0vK.657w0q0E0XSF9IDhtD0MBTv1AatqZMG,(944) 823-2012
ObjectId("5e18a2e17c29a56f60fb1daa"),Tatum,Love,630 Eaton Cir,Daniels Island,TX,31778,tatum.love@tbeatty.com,$2b$12$bpb43usdypY4cVF1rL0vK.gH84zI8J2yU1XyFblUkuS.DYsjlOTqa,(376) 135-2081
ObjectId("5e18a2e17c29a56f60fb1db8"),Yasmeen,Hahn,742 Clayton St,Lawrence River,AK,98289,yasmeen.hahn@tbeatty.com,$2b$12$bpb43usdypY4cVF1rL0vK.IEgMsWjQt9Yr1s2FAngUhcO.V53GQcG,(98) 29-8596
ObjectId("5e18a2e17c29a56f60fb1ddc"),Jasper,Daniel,84 Pearson Dr,Dillardtown,NE,29773,jasper.daniel@tbeatty.com,$2b$12$bpb43usdypY4cVF1rL0vK.xPdhymD8kXlHlPNWUzVH/RcJ3FkPcIW,(280) 198-2144
ObjectId("5e18a2e17c29a56f60fb1df1"),Rosa,Kinney,511 Payne Pass,Horne Island,TN,55973,rosa.kinney@tbeatty.com,$2b$12$bpb43usdypY4cVF1rL0vK.jfSJ/bHicBVitkK/4Ap4DkaTjrmu.Em,(697) 87-9138
ObjectId("5e18a2e17c29a56f60fb1e16"),Ingrid,Norris,245 Floyd Dr,Huffmanmont,CA,88550,ingrid.norris@tbeatty.com,$2b$12$bpb43usdypY4cVF1rL0vK.3CTVAlcYPvcocHvCipMaPaOXtwq9rKC,(721) 548-8325
ObjectId("5e18a2e17c29a56f60fb1e21"),Christa,Melton,328 Woodard Pass,Snyder Bridge,AK,67291,christa.melton@tbeatty.com,$2b$12$bpb43usdypY4cVF1rL0vK.kVSt63/e9VtUgR2MsrYOuXxenfJPPx2,(884) 10-8767
ObjectId("5e18a2e17c29a56f60fb1e2a"),Jaime,Hicks,831 Douglas Blvd,Fisher City,CA,29549,jaime.hicks@tbeatty.com,$2b$12$bpb43usdypY4cVF1rL0vK.ZgmbxYMXCpfVpe6yiPeTh4n9eDXuYf2,(295) 20-6703
ObjectId("5e18a2e17c29a56f60fb1e43"),Sarina,Cobb,754 Petty Blvd,Tyson River,DE,17963,sarina.cobb@tbeatty.com,$2b$12$bpb43usdypY4cVF1rL0vK.M7LOsZo6juGZFs344IXoDLMoO8gb2xW,(411) 329-5018
ObjectId("5e18a2e17c29a56f60fb1e44"),Aaron,Beard,405 Dorsey Ln,Garzatown,MA,40056,aaron.beard@tbeatty.com,$2b$12$bpb43usdypY4cVF1rL0vK.Df9k6FFQ.Dd5r7pFVAU3sVEKTtPLcAW,(832) 106-7785
ObjectId("5e18a2e17c29a56f60fb1e4d"),Antoinette,Mccoy,574 Bailey Cir,Colon Lake,SC,56290,antoinette.mccoy@tbeatty.com,$2b$12$bpb43usdypY4cVF1rL0vK.d87JusZLce5kYheMIv0SX3LjvWogzRy,(853) 963-7945
ObjectId("5e18a2e17c29a56f60fb1e4f"),Charles,Burt,274 Cotton Rd,Valenzuelamont,OH,19299,charles.burt@tbeatty.com,$2b$12$bpb43usdypY4cVF1rL0vK.afpCACraD89sX3uYukKue2Vuefw5P4u,(828) 261-5838
ObjectId("5e18a2e17c29a56f60fb1e62"),Reggie,Conley,501 Morales Blvd,Levinetown,FL,52383,reggie.conley@tbeatty.com,$2b$12$bpb43usdypY4cVF1rL0vK.10CRyEAu/ahvscH7XaLMc0qCwSyjxo6,(367) 560-1585
ObjectId("5e18a2e17c29a56f60fb1e83"),Katherine,Solomon,94 Hartman Rd,Sweet Pond,LA,24040,katherine.solomon@tbeatty.com,$2b$12$bpb43usdypY4cVF1rL0vK.VF0JFW7cYn3I2eO0yzEK7IEMzslN99K,(738) 544-1363
ObjectId("5e18a2e17c29a56f60fb1e85"),Tucker,Reynolds,285 Fischer Blvd,Whitaker Creek,GA,22846,tucker.reynolds@tbeatty.com,$2b$12$bpb43usdypY4cVF1rL0vK./Gku5f/KArusgllvqdpUMEZLTtlG8S.,(910) 934-7318
ObjectId("5e18a2e17c29a56f60fb1e95"),Virginia,Huffman,482 Serrano Way,Davis Island,MO,58423,virginia.huffman@tbeatty.com,$2b$12$bpb43usdypY4cVF1rL0vK.HJXDpo81pCEcnr7kwNsWil7I2qcmwpW,(154) 898-2550
ObjectId("5e18a2e17c29a56f60fb1d3e"),Magdalena,English,716 Cortez St,Mcmahon City,UT,14953,magdalena.english@tbeatty.com,$2b$12$bpb43usdypY4cVF1rL0vK.BGFpPOGUYqATkwBFPDq9h1dyXpDc54.,(620) 444-8594
ObjectId("5e18a2e17c29a56f60fb1d56"),Darion,Miranda,891 Bryan Ln,Vasquez River,DC,74932,darion.miranda@tbeatty.com,$2b$12$bpb43usdypY4cVF1rL0vK.qEJhKjp1uRTVzLa4kiL5QLOm5U9hX1e,(182) 37-2905
ObjectId("5e18a2e17c29a56f60fb1d65"),Tomas,Cobb,898 Goodman St,Patrickburg,MT,17456,tomas.cobb@tbeatty.com,$2b$12$bpb43usdypY4cVF1rL0vK.MzpAB2bK5B.c3x5quFhW0rmfnqPHeEi,(864) 167-3316
ObjectId("5e18a2e17c29a56f60fb1d78"),Kerry,Haynes,346 Fields St,Sutton Springs,MN,51482,kerry.haynes@tbeatty.com,$2b$12$bpb43usdypY4cVF1rL0vK.lY95PkoqSb6P0YLKAlMUpP7HCMaNy7i,(466) 353-5905
ObjectId("5e18a2e17c29a56f60fb1d80"),Dara,Flynn,703 Cole Pass,Leach Springs,OK,99305,dara.flynn@tbeatty.com,$2b$12$bpb43usdypY4cVF1rL0vK.nBWGkhUx0pEDQX19tfDRdTr.NT8MAhe,(712) 304-7775
ObjectId("5e18a2e17c29a56f60fb1d96"),Elaina,Compton,932 Burks Ave,Ortega Lake,DE,41692,elaina.compton@tbeatty.com,$2b$12$bpb43usdypY4cVF1rL0vK.6ELTDN4bTnh5gZdMgGTjY/zvWihtec2,(99) 114-5667
ObjectId("5e18a2e17c29a56f60fb1d98"),Kaley,Hull,860 Briggs Ct,Macdonald River,CA,74969,kaley.hull@tbeatty.com,$2b$12$bpb43usdypY4cVF1rL0vK.luU5sxbgqC.Rj3TYepF82MWs9AzBQgq,(683) 347-5004
ObjectId("5e18a2e17c29a56f60fb1da2"),Madelyn,Mcintosh,857 Rosales St,Gonzales Fork,LA,95253,madelyn.mcintosh@tbeatty.com,$2b$12$bpb43usdypY4cVF1rL0vK.lZdMavfyoVl8drZLUZyMFUPWdL6ZznW,(359) 752-6463
ObjectId("5e18a2e17c29a56f60fb1db5"),Tyree,Rosales,933 Morgan Ct,Owens Bridge,AR,17114,tyree.rosales@tbeatty.com,$2b$12$bpb43usdypY4cVF1rL0vK.86GPttxYcDRlS4DkBc3/0f3eqRZumQu,(42) 506-2862
ObjectId("5e18a2e17c29a56f60fb1dd8"),Jennifer,Brown,429 Gordon Way,Rollins Lake,IN,49434,jennifer.brown@tbeatty.com,$2b$12$bpb43usdypY4cVF1rL0vK..thS3/9qLZrXqcY7yN7SQJ4gDzIcEG6,(90) 102-3033
ObjectId("5e18a2e17c29a56f60fb1e31"),Simone,Johns,872 Morse Dr,Fuentesville,CO,95794,simone.johns@tbeatty.com,$2b$12$bpb43usdypY4cVF1rL0vK.CF6TtKThDqc9ojPpWp1FgP6l2aGCIrS,(358) 42-2083
ObjectId("5e18a2e17c29a56f60fb1e3a"),Dangelo,Newman,76 Mccullough Ave,Baker Fork,WV,10633,dangelo.newman@tbeatty.com,$2b$12$bpb43usdypY4cVF1rL0vK.NojFppi5AajpeCHMc0.8IFaCVhODL66,(763) 35-9724
ObjectId("5e18a2e17c29a56f60fb1e50"),Kaley,Webb,469 Norris Cir,Faulkner Lake,RI,17043,kaley.webb@tbeatty.com,$2b$12$bpb43usdypY4cVF1rL0vK.ZKzrzmN3lmoOfNaddY6xECY7nQlTBRK,(434) 182-3126
ObjectId("5e18a2e17c29a56f60fb1e52"),Cassidy,Joyner,173 Mccall Ave,Fergusonburg,NY,53598,cassidy.joyner@tbeatty.com,$2b$12$bpb43usdypY4cVF1rL0vK.8a/quiRK64TpDmKxp.0g4kH.pW.HPwO,(364) 815-2630
ObjectId("5e18a2e17c29a56f60fb1e5c"),Jamarcus,Graves,763 Mullen Ct,Salazar Creek,TN,55759,jamarcus.graves@tbeatty.com,$2b$12$bpb43usdypY4cVF1rL0vK.VyDxR1NyyP93PFmzWBAzkQHaWcCSBtG,(209) 30-4849
ObjectId("5e18a2e17c29a56f60fb1e8e"),Kelly,Bell,324 Hayden Ave,Caseyburg,PA,78507,kelly.bell@tbeatty.com,$2b$12$bpb43usdypY4cVF1rL0vK.CtvLNpqVf3P182QJ6bPrLPFCz/JO6Oq,(59) 557-1050
ObjectId("5e18a2e17c29a56f60fb1e8f"),Rylee,Page,14 Frazier Pass,Madden Lake,PA,80939,rylee.page@tbeatty.com,$2b$12$bpb43usdypY4cVF1rL0vK.4iXpZ3e1meHxV57HyLU3ccb8eAANCiy,(838) 69-5295
ObjectId("5e18a2e17c29a56f60fb1d3f"),Ruby,Hurst,444 Jacobs Ave,Moreno Pond,ME,56780,ruby.hurst@tbeatty.com,$2b$12$bpb43usdypY4cVF1rL0vK.xoUfqKHaMU4lUE.29ZSC8iwPpvp1JsC,(389) 372-6335
ObjectId("5e18a2e17c29a56f60fb1d52"),Megan,Howell,240 Phillips Way,Beckertown,NE,40417,megan.howell@tbeatty.com,$2b$12$bpb43usdypY4cVF1rL0vK.94z8uD.jLhmyQ14pVKA0DrbpYdDCyr6,(895) 846-8964
ObjectId("5e18a2e17c29a56f60fb1d64"),Kaylie,Witt,932 Mckinney Blvd,Wittburg,RI,98092,kaylie.witt@tbeatty.com,$2b$12$bpb43usdypY4cVF1rL0vK.VT4YaEDOZlA2ZTCL5XtpsY57s85kdfO,(172) 715-9798
ObjectId("5e18a2e17c29a56f60fb1d6b"),Caitlin,Frank,412 Cabrera Ave,Hurstmont,AL,85034,caitlin.frank@tbeatty.com,$2b$12$bpb43usdypY4cVF1rL0vK.WzqIhiOukY2.jA6BVZlgXIZSQ6WIrIu,(640) 839-5512
ObjectId("5e18a2e17c29a56f60fb1d70"),Bruce,Bright,555 Stout Blvd,Williamson River,MD,50723,bruce.bright@tbeatty.com,$2b$12$bpb43usdypY4cVF1rL0vK.avB21OHBPUjZ497HuSv9K7mDMW0no62,(196) 882-4169
ObjectId("5e18a2e17c29a56f60fb1da1"),Alden,Davenport,310 Weber Rd,Ramireztown,WI,39502,alden.davenport@tbeatty.com,$2b$12$bpb43usdypY4cVF1rL0vK.v5JLcSALhOQDSJ9WXFAEMjtJNR4AgWC,(535) 314-9963
ObjectId("5e18a2e17c29a56f60fb1dc7"),Cale,Anthony,737 Trujillo Rd,Claytonburg,MI,99744,cale.anthony@tbeatty.com,$2b$12$bpb43usdypY4cVF1rL0vK.ytO8.X.Di7oRAS2s3ShVy62.yLrMNMK,(501) 497-9638
ObjectId("5e18a2e17c29a56f60fb1dcb"),Darrien,Poole,234 Horton Dr,Mclaughlin City,FL,47845,darrien.poole@tbeatty.com,$2b$12$bpb43usdypY4cVF1rL0vK.OqQPsPFvRhODiQRNrBof7iBo61DNjB2,(904) 920-9045
ObjectId("5e18a2e17c29a56f60fb1dce"),Jamaal,Carrillo,843 Beattie Ave,Wells Island,MA,68989,jamaal.carrillo@tbeatty.com,$2b$12$bpb43usdypY4cVF1rL0vK.dKO3m6gIHxnpraV.n1M7qqPe9A/ywK.,(0) 237-2857
ObjectId("5e18a2e17c29a56f60fb1de5"),Kieran,Martinez,138 Mckee Rd,Parrish City,SC,92229,kieran.martinez@tbeatty.com,$2b$12$bpb43usdypY4cVF1rL0vK.QcYMV55J7zsqXa3KKdl/I7QXYvqWE/G,(174) 318-4852
ObjectId("5e18a2e17c29a56f60fb1df5"),Colleen,Petty,409 Stark Dr,Hamilton Lake,IA,98478,colleen.petty@tbeatty.com,$2b$12$bpb43usdypY4cVF1rL0vK.Q.FK7jpl3prIozQbxUNCixTbywmt13K,(383) 612-6783
ObjectId("5e18a2e17c29a56f60fb1e13"),Arron,Curry,402 Avery Pass,Snowburg,MI,74497,arron.curry@tbeatty.com,$2b$12$bpb43usdypY4cVF1rL0vK.98X1Rez.F9PftU48Uz6MuriQwMLE2t2,(911) 486-8079
ObjectId("5e18a2e17c29a56f60fb1e1b"),Brandyn,Nash,800 Madden Ln,Hunter Springs,MS,35866,brandyn.nash@tbeatty.com,$2b$12$bpb43usdypY4cVF1rL0vK.wAOytPPsGGRg0WwxpZDtN.f6VUnczBy,(219) 74-7661
ObjectId("5e18a2e17c29a56f60fb1e24"),Colleen,Walton,580 Mcdowell Way,Stephenson Valley,VT,25909,colleen.walton@tbeatty.com,$2b$12$bpb43usdypY4cVF1rL0vK.0Xeg3IY1F5CRQh1tAKl9kbPGXDmuQNe,(970) 691-3120
ObjectId("5e18a2e17c29a56f60fb1e54"),Rosemary,Strickland,211 Eaton Ave,Dennismont,NV,91244,rosemary.strickland@tbeatty.com,$2b$12$bpb43usdypY4cVF1rL0vK.ES1g1wI5Pvl9GQgW9B6XJqXWBzWRWUe,(199) 303-3925
ObjectId("5e18a2e17c29a56f60fb1e75"),Sandy,Barton,732 Mckenzie Ave,Everett Springs,ID,48104,sandy.barton@tbeatty.com,$2b$12$bpb43usdypY4cVF1rL0vK..hZCs3GxoUqC0Ees44xvTMpqz4CzkO6,(651) 502-8807
ObjectId("5e18a2e17c29a56f60fb1e88"),Spenser,Cline,431 Berry St,Garnertown,MT,25683,spenser.cline@tbeatty.com,$2b$12$bpb43usdypY4cVF1rL0vK.8uTvsHaQH.BFw.cRwM/xvHoNqX4dajC,(708) 520-5685
ObjectId("5e18a2e17c29a56f60fb1e8a"),Kevon,Mccullough,489 Finch St,Curryville,SD,96740,kevon.mccullough@tbeatty.com,$2b$12$bpb43usdypY4cVF1rL0vK.c44OJuncVkPGROLv8vo6HUn6lCf323m,(357) 653-6497
ObjectId("5e18a2e17c29a56f60fb1d43"),Alysha,Hood,385 Blanchard Cir,Benjaminmont,AZ,59851,alysha.hood@tbeatty.com,$2b$12$bpb43usdypY4cVF1rL0vK.wpeDlaxYhTxClAjBxK7MYLOq47fUmxu,(248) 891-3890
ObjectId("5e18a2e17c29a56f60fb1d4a"),Demetrius,Combs,750 English Dr,Pittman Pond,SC,27679,demetrius.combs@tbeatty.com,$2b$12$bpb43usdypY4cVF1rL0vK.MWf4qQHFCSoWR1y5P7VYeaC8f.hfKhO,(474) 659-5191
ObjectId("5e18a2e17c29a56f60fb1d4b"),Rasheed,Wheeler,400 Garner Ct,Cline Lake,IL,20122,rasheed.wheeler@tbeatty.com,$2b$12$bpb43usdypY4cVF1rL0vK.s0jSDo4bdXETv9bQ6Z3lbGCklAl0CVe,(195) 189-7820
ObjectId("5e18a2e17c29a56f60fb1d54"),Shana,Gardner,735 Daniels Rd,Ingramburg,LA,28630,shana.gardner@tbeatty.com,$2b$12$bpb43usdypY4cVF1rL0vK.5R.lqy1yLNGg2weroAD3nwaknz1SM0O,(817) 396-4648
ObjectId("5e18a2e17c29a56f60fb1d58"),Clinton,Payne,953 Newman St,Gilliam Pond,OK,81649,clinton.payne@tbeatty.com,$2b$12$bpb43usdypY4cVF1rL0vK.NdOsFQRpPcf0xLDtzGYQ/09ORfyLwDS,(273) 632-9836
ObjectId("5e18a2e17c29a56f60fb1d5b"),Jena,Sawyer,196 Nichols Rd,Ayers Bridge,NY,68331,jena.sawyer@tbeatty.com,$2b$12$bpb43usdypY4cVF1rL0vK.hcQlDh1IORL8bkxc0D1AHneaAhGVkRi,(835) 25-6169
ObjectId("5e18a2e17c29a56f60fb1d69"),Rodney,Cash,996 Buckley Cir,Madden Valley,OK,11200,rodney.cash@tbeatty.com,$2b$12$bpb43usdypY4cVF1rL0vK.sBVDx80YD1f3IzjtNUReIr3.1jJt7je,(390) 792-7466
ObjectId("5e18a2e17c29a56f60fb1d8c"),Hallie,Abbott,202 Townsend Way,Mcleanburg,UT,28164,hallie.abbott@tbeatty.com,$2b$12$bpb43usdypY4cVF1rL0vK.uz5THTFNThcu1GPM5VL7mz8jxEnIpVC,(348) 188-3814
ObjectId("5e18a2e17c29a56f60fb1d9e"),Jenna,Donaldson,891 Gray Cir,Morrow Fork,AL,57300,jenna.donaldson@tbeatty.com,$2b$12$bpb43usdypY4cVF1rL0vK.YEEnevKMZp9.vw1vwDY.KSzxj/j18bq,(795) 452-1595
ObjectId("5e18a2e17c29a56f60fb1dc6"),Kelby,Mann,216 Mccray Way,Goff Bridge,AL,62794,kelby.mann@tbeatty.com,$2b$12$bpb43usdypY4cVF1rL0vK.4yJmW64WVSuHs1IhS/T2DPuny42zixO,(759) 305-1794
ObjectId("5e18a2e17c29a56f60fb1dcc"),Jill,Maldonado,313 Barnett Ct,Warren Creek,DE,84799,jill.maldonado@tbeatty.com,$2b$12$bpb43usdypY4cVF1rL0vK.x5tnWm7blWrmv0uqiKx8xsrQD8Q2B1y,(184) 202-5182
ObjectId("5e18a2e17c29a56f60fb1dcf"),Maximilian,Quinn,864 Waller Pass,Navarro Creek,AK,65491,maximilian.quinn@tbeatty.com,$2b$12$bpb43usdypY4cVF1rL0vK.Bz0V72FPzbu0vKKg1WL.zz8fggn7BkK,(407) 81-2659
ObjectId("5e18a2e17c29a56f60fb1dd1"),Sade,Hayden,366 Hodges Cir,Rollinstown,AR,26012,sade.hayden@tbeatty.com,$2b$12$bpb43usdypY4cVF1rL0vK.oNMwgk8z1fsgIe.rUSn5ZaoglUQ7/a6,(740) 784-6859
ObjectId("5e18a2e17c29a56f60fb1ddf"),Carolina,Gamble,404 Love Cir,Henderson Lake,NJ,29762,carolina.gamble@tbeatty.com,$2b$12$bpb43usdypY4cVF1rL0vK.lNtaSbcucCudem8EavP9quBXRRJtqAK,(360) 116-7427
ObjectId("5e18a2e17c29a56f60fb1e51"),Kiara,Best,737 Travis St,Avery Creek,NV,92086,kiara.best@tbeatty.com,$2b$12$bpb43usdypY4cVF1rL0vK.2I9XQoDtubaV9oje1mrEhYHN0JR54bm,(43) 49-9943
ObjectId("5e18a2e17c29a56f60fb1e53"),Caleb,Holder,72 Larson Ave,Maysmont,IA,42983,caleb.holder@tbeatty.com,$2b$12$bpb43usdypY4cVF1rL0vK.mmlNQ8XcsRwMYmKda.GrN5nA7/1Zt/W,(203) 11-4097
ObjectId("5e18a2e17c29a56f60fb1e60"),Kayli,Harrison,30 Cherry St,Wiggins City,NJ,69112,kayli.harrison@tbeatty.com,$2b$12$bpb43usdypY4cVF1rL0vK.LpPLcYpY2ETQKFO1KwD6EbdtfFVO6Y.,(239) 699-6384
ObjectId("5e18a2e17c29a56f60fb1d35"),Krysta,Wilkins,589 Gardner Ln,Battle Creek,RI,11696,krysta.wilkins@tbeatty.com,$2b$12$bpb43usdypY4cVF1rL0vK.7JUVF5IAWXVmdL3VSySVL9JGpLWNdFO,(479) 136-7410
ObjectId("5e18a2e17c29a56f60fb1d45"),Joe,Williamson,554 Long Cir,White Valley,OK,68925,joe.williamson@tbeatty.com,$2b$12$bpb43usdypY4cVF1rL0vK.r5vz.ooUNfk5.dGqgFTUW/kwNH5Gkhe,(472) 377-8423
ObjectId("5e18a2e17c29a56f60fb1d4d"),Nicole,Richards,326 Mathews Ave,Brewer River,KS,97796,nicole.richards@tbeatty.com,$2b$12$bpb43usdypY4cVF1rL0vK.hAucoTRT5DEZ6gaUyiB80LeziKTSkiy,(700) 721-1689
ObjectId("5e18a2e17c29a56f60fb1d5c"),Hazel,Cox,448 Miranda Pass,Delacruz Valley,SD,87777,hazel.cox@tbeatty.com,$2b$12$bpb43usdypY4cVF1rL0vK..kxWV3YQoeHpHYjKO1kV.nx3s9ZeOeC,(611) 175-3171
ObjectId("5e18a2e17c29a56f60fb1d61"),Payton,Mclean,576 Rogers St,Hopper Springs,ME,83122,payton.mclean@tbeatty.com,$2b$12$bpb43usdypY4cVF1rL0vK.Jk6CucRaV11cVGcnmW2tizpcnwNuAja,(112) 8-7598
ObjectId("5e18a2e17c29a56f60fb1d63"),Antoinette,Mercer,757 Huffman Blvd,Arnold Pond,MT,76231,antoinette.mercer@tbeatty.com,$2b$12$bpb43usdypY4cVF1rL0vK.TDfytBgfbn1xJcVuHKkX4xnfNqXPrNu,(723) 23-6804
ObjectId("5e18a2e17c29a56f60fb1d6f"),Theodore,Velasquez,817 Bartlett Pass,Garretttown,NH,55589,theodore.velasquez@tbeatty.com,$2b$12$bpb43usdypY4cVF1rL0vK.NSzTglRWnKZTk6pH0eVtTrQdwt5fnza,(308) 131-5793
ObjectId("5e18a2e17c29a56f60fb1d71"),Tony,Landry,980 Cunningham Dr,Abbott River,VA,47201,tony.landry@tbeatty.com,$2b$12$bpb43usdypY4cVF1rL0vK.IPg/BQSsTJNp6p5hWEObJPRkcIZpqFC,(899) 945-9142
ObjectId("5e18a2e17c29a56f60fb1d8a"),Sergio,Whitehead,555 Price Ln,Farley City,FL,99961,sergio.whitehead@tbeatty.com,$2b$12$bpb43usdypY4cVF1rL0vK.WuTk7s9uxZOG2HV8cJ4ThYmb6hYGoUq,(601) 121-1821
ObjectId("5e18a2e17c29a56f60fb1d9c"),Danielle,Anderson,13 Lancaster Ct,Wilcox Springs,IA,36013,danielle.anderson@tbeatty.com,$2b$12$bpb43usdypY4cVF1rL0vK.MLrVY2DPKlVshgHsJ8W5PgGQR9LhFLm,(411) 389-1756
ObjectId("5e18a2e17c29a56f60fb1d9f"),Moshe,Macdonald,199 Morgan Way,Sanford Pond,MO,70233,moshe.macdonald@tbeatty.com,$2b$12$bpb43usdypY4cVF1rL0vK.dQvEOfbmz.YQORgqLvJMVvCiFVd6wwK,(173) 787-4408
ObjectId("5e18a2e17c29a56f60fb1da9"),Damian,Flynn,956 Buck Ln,Pittman Creek,WA,97809,damian.flynn@tbeatty.com,$2b$12$bpb43usdypY4cVF1rL0vK.N2Wp7sb1WzRE2U.7QfL0HeEOoOcfinu,(158) 823-9712
ObjectId("5e18a2e17c29a56f60fb1daf"),Efrain,Espinoza,357 Howard St,Hull City,TX,91775,efrain.espinoza@tbeatty.com,$2b$12$bpb43usdypY4cVF1rL0vK.r8aHoIsx8tSqnZmpHK7VtCbZSoaFc52,(728) 838-4506
ObjectId("5e18a2e17c29a56f60fb1db4"),Brandyn,Gonzalez,539 Tran Way,Bender Creek,AL,33358,brandyn.gonzalez@tbeatty.com,$2b$12$bpb43usdypY4cVF1rL0vK.wqIgrhPD7bPJGNb4xRKz4arSQsAKVwq,(951) 832-9337
ObjectId("5e18a2e17c29a56f60fb1dba"),Aileen,Kemp,976 Roy Ln,Loganville,AR,43874,aileen.kemp@tbeatty.com,$2b$12$bpb43usdypY4cVF1rL0vK.mY.yd9KW6HXzQ.Xcf2P4PQwZ1fbZ9T.,(113) 931-8660
ObjectId("5e18a2e17c29a56f60fb1dda"),Sierra,Bean,905 Guerrero Cir,Meyer Creek,NJ,52380,sierra.bean@tbeatty.com,$2b$12$bpb43usdypY4cVF1rL0vK.1xTvcQB.zCrG3nw1bOg6eWpRvyPK4ny,(679) 98-1379
ObjectId("5e18a2e17c29a56f60fb1dfc"),Garrison,Gates,772 Dillard Dr,Gaines Springs,VA,92486,garrison.gates@tbeatty.com,$2b$12$bpb43usdypY4cVF1rL0vK.NsSH4R4qQ2lW7JpFU3kyRTu7HeJ49ue,(476) 263-6974
ObjectId("5e18a2e17c29a56f60fb1e01"),George,Blankenship,640 Hood Way,Holland Valley,AK,19245,george.blankenship@tbeatty.com,$2b$12$bpb43usdypY4cVF1rL0vK.AXpTtrrxdrLiiCh9euLNuH3kFEPRkp2,(604) 25-9377
ObjectId("5e18a2e17c29a56f60fb1e0a"),Jaylen,Weeks,834 Massey Cir,Burris Springs,WI,47306,jaylen.weeks@tbeatty.com,$2b$12$bpb43usdypY4cVF1rL0vK.wda8QWhGNYaroFV4oZfJkD.QcZC2LEe,(657) 835-6726
ObjectId("5e18a2e17c29a56f60fb1e0d"),Caitlin,Dillard,569 Terry St,Albertmont,MD,73335,caitlin.dillard@tbeatty.com,$2b$12$bpb43usdypY4cVF1rL0vK.KyKub.5KxCiatk9Qo4T7APqecHCCZM2,(750) 788-9931
ObjectId("5e18a2e17c29a56f60fb1e28"),Eliezer,Mcgowan,84 Mueller Ave,Cochran City,PA,15214,eliezer.mcgowan@tbeatty.com,$2b$12$bpb43usdypY4cVF1rL0vK.TYgyvHfSrLbKqL49Nlmh8o8/p2UG2hq,(847) 625-2960
ObjectId("5e18a2e17c29a56f60fb1e33"),Melvin,Kennedy,946 Castillo Cir,Coleman Pond,CA,76447,melvin.kennedy@tbeatty.com,$2b$12$bpb43usdypY4cVF1rL0vK./BU56tVwZlyktKBHPxE0K1kJrFLde/.,(669) 100-1021
ObjectId("5e18a2e17c29a56f60fb1e42"),Charlie,Callahan,903 Dawson Blvd,Middletonburg,LA,22206,charlie.callahan@tbeatty.com,$2b$12$bpb43usdypY4cVF1rL0vK.cx5HB3tfq0vkCd282wyhfdg5NCs5Ipy,(49) 449-9555
ObjectId("5e18a2e17c29a56f60fb1e5f"),Damaris,Clay,580 Roberts Rd,Tuckerburg,FL,59970,damaris.clay@tbeatty.com,$2b$12$bpb43usdypY4cVF1rL0vK.ICdkND5mIlV2x4PxWuxaAgQpYsPnci.,(182) 622-4145
ObjectId("5e18a2e17c29a56f60fb1e66"),Shay,Boyd,519 Robles Ave,Hoffman Valley,CT,72951,shay.boyd@tbeatty.com,$2b$12$bpb43usdypY4cVF1rL0vK.XXhhbrP5Pw3dmJezULJq5laay7Hv3bi,(169) 36-8169
ObjectId("5e18a2e17c29a56f60fb1e71"),Rickey,Gill,928 Frank Dr,Conway Springs,SD,47217,rickey.gill@tbeatty.com,$2b$12$bpb43usdypY4cVF1rL0vK.6YNa9JZjn2tGHvMFyuSXOB.nx78h3ti,(873) 2-8018
ObjectId("5e18a2e17c29a56f60fb1e7e"),Aidan,Fulton,407 Cruz Cir,Boyle Lake,HI,29027,aidan.fulton@tbeatty.com,$2b$12$bpb43usdypY4cVF1rL0vK.DV27SzBHpn0c7rO0JYTllp.akMi.At2,(574) 156-6659
ObjectId("5e18a2e17c29a56f60fb1e81"),Marquis,Spencer,738 Bray Rd,Richmond Fork,PA,62863,marquis.spencer@tbeatty.com,$2b$12$bpb43usdypY4cVF1rL0vK.PjzesgDjHSXsDhjOoChW6MBsR05J94q,(294) 729-1753
ObjectId("5e18a2e17c29a56f60fb1e87"),Tayler,Flowers,578 Colon Cir,Haydenburg,FL,70005,tayler.flowers@tbeatty.com,$2b$12$bpb43usdypY4cVF1rL0vK.l9lXH7/A2B7ub82JJCXLgpDpLscIAj6,(425) 992-6294
ObjectId("5e18a2e17c29a56f60fb1e92"),Antonia,Koch,695 Delgado Ct,Nievesburg,MD,78823,antonia.koch@tbeatty.com,$2b$12$bpb43usdypY4cVF1rL0vK.ewTozogfWHB8nVnKaFer6cR6MMGre/.,(615) 474-8032
ObjectId("5e18a2e17c29a56f60fb1d50"),Frank,Shields,77 Rogers Dr,Page Fork,GA,19475,frank.shields@tbeatty.com,$2b$12$bpb43usdypY4cVF1rL0vK.xzIHCx4RwCZ2eZotDjUPs.6HhnaBn0q,(207) 648-7396
ObjectId("5e18a2e17c29a56f60fb1d62"),Weston,Mcdonald,286 Hartman Rd,Francis Lake,MN,70586,weston.mcdonald@tbeatty.com,$2b$12$bpb43usdypY4cVF1rL0vK.acMleHgwjUwRlAtoC38QonDmPyoRwrq,(619) 166-7597
ObjectId("5e18a2e17c29a56f60fb1d94"),Omar,Wagner,178 Waters Cir,Gardner River,AL,48980,omar.wagner@tbeatty.com,$2b$12$bpb43usdypY4cVF1rL0vK.yuglTj8jrLH6GNPV/TuKNaiJmzW7zHm,(461) 858-1387
ObjectId("5e18a2e17c29a56f60fb1da0"),Desirae,Kelley,603 Waters St,King Lake,CT,83396,desirae.kelley@tbeatty.com,$2b$12$bpb43usdypY4cVF1rL0vK.7ZUKvVHS1a/yAiQoSACKsAnlIT228oi,(990) 995-4191
ObjectId("5e18a2e17c29a56f60fb1da6"),Alfredo,Burgess,620 Horn Rd,Patrick Lake,FL,64439,alfredo.burgess@tbeatty.com,$2b$12$bpb43usdypY4cVF1rL0vK.6K8iGFDI6XQg2PBED7xEx3Ybyz1hLTy,(426) 937-9110
ObjectId("5e18a2e17c29a56f60fb1dac"),Aliyah,Solomon,45 Pruitt Blvd,Torres Pond,MD,75340,aliyah.solomon@tbeatty.com,$2b$12$bpb43usdypY4cVF1rL0vK.xd2SQf1FNcw.0zedlco5Pe2elYKn3Ci,(211) 706-6888
ObjectId("5e18a2e17c29a56f60fb1dad"),Elise,Waller,934 Orr Way,Mcdaniel River,OK,84736,elise.waller@tbeatty.com,$2b$12$bpb43usdypY4cVF1rL0vK.SavixjdfyLGRb1U04LpdElPStvyJErO,(603) 581-6958
ObjectId("5e18a2e17c29a56f60fb1dbf"),Amelia,Woodward,225 Moses Ct,Blackwell City,KY,51287,amelia.woodward@tbeatty.com,$2b$12$bpb43usdypY4cVF1rL0vK.3wyEnWq7q9SxT1aOuZ1NEJ.p0d6HJDO,(972) 728-7373
ObjectId("5e18a2e17c29a56f60fb1dd3"),Devon,Pacheco,390 Hutchinson Ct,Simpson Creek,NJ,51489,devon.pacheco@tbeatty.com,$2b$12$bpb43usdypY4cVF1rL0vK.Of0MKg3DFraxC.VMplKRP3gSy/n1Yoq,(926) 34-9794
ObjectId("5e18a2e17c29a56f60fb1de0"),Noelle,Cote,864 Underwood Rd,Byrd Creek,VA,24777,noelle.cote@tbeatty.com,$2b$12$bpb43usdypY4cVF1rL0vK.mg2w0oLbcPLTTJHquxMC5.f8wpwDqoG,(358) 581-6759
ObjectId("5e18a2e17c29a56f60fb1dec"),Corbin,Stone,457 Sanders Ave,Pattersonville,MS,27097,corbin.stone@tbeatty.com,$2b$12$bpb43usdypY4cVF1rL0vK.gKxt0.R3ehpoqnITS3fZOWI6MQpI4yG,(167) 61-9094
ObjectId("5e18a2e17c29a56f60fb1e06"),Vicente,Kennedy,968 Blake Way,Bird Island,CO,47209,vicente.kennedy@tbeatty.com,$2b$12$bpb43usdypY4cVF1rL0vK.nFS0sLy7jatZUi.vkIzZQGnfHXkdJWO,(125) 871-7607
ObjectId("5e18a2e17c29a56f60fb1e14"),Aric,Miranda,410 Byrd Cir,Patemont,DE,83559,aric.miranda@tbeatty.com,$2b$12$bpb43usdypY4cVF1rL0vK.uCcbZOv9Bnl6kO/ff7557Owwg6Mtot.,(789) 884-4236
ObjectId("5e18a2e17c29a56f60fb1e61"),Destiney,Gutierrez,665 Bush Blvd,O'donnell Valley,NV,95196,destiney.gutierrez@tbeatty.com,$2b$12$bpb43usdypY4cVF1rL0vK.e5QWndBfYvqAjLZ4WpbV/s0uxF913Aq,(994) 58-3249
ObjectId("5e18a2e17c29a56f60fb1d59"),Ashanti,Ortega,5 Bowman Ave,Hines Fork,MA,67598,ashanti.ortega@tbeatty.com,$2b$12$bpb43usdypY4cVF1rL0vK.hN3f/KXQUfItz//i9QAbKJJ6Q9Qaq7S,(722) 699-1610
ObjectId("5e18a2e17c29a56f60fb1d38"),Sam,Walls,79 Valencia Blvd,Lambert Springs,NV,38778,sam.walls@tbeatty.com,$2b$12$bpb43usdypY4cVF1rL0vK.omApnVwxptmuRUh94xnRjYuxt4iaTie,(554) 960-4206
ObjectId("5e18a2e17c29a56f60fb1d5d"),Ruth,May,763 Slater Ct,Bentontown,AR,92167,ruth.may@tbeatty.com,$2b$12$bpb43usdypY4cVF1rL0vK.56QG0G903jPvtOVYcWl6iG.6XodxUDu,(824) 379-8121
ObjectId("5e18a2e17c29a56f60fb1d7b"),Cori,Farrell,765 Bonner Ln,Searstown,MI,74617,cori.farrell@tbeatty.com,$2b$12$bpb43usdypY4cVF1rL0vK.hqqnuqFyN6DzzFHe5voQuvuBNwmB5nS,(358) 756-7562
ObjectId("5e18a2e17c29a56f60fb1d9b"),Ty,Callahan,254 Myers Dr,Wilcox River,ID,94560,ty.callahan@tbeatty.com,$2b$12$bpb43usdypY4cVF1rL0vK.zrfniAsAQrA7swIrsnEraABVg8vEqpq,(13) 593-3972
ObjectId("5e18a2e17c29a56f60fb1db3"),Karlee,Mcguire,793 Rush Ln,Durham Pond,ID,80528,karlee.mcguire@tbeatty.com,$2b$12$bpb43usdypY4cVF1rL0vK.yDNY78d4e8gAoiY43GBgSRWPEzr/Koy,(175) 779-6116
ObjectId("5e18a2e17c29a56f60fb1db9"),Nicklaus,Pena,370 Morin Ln,Guerra Island,ME,95777,nicklaus.pena@tbeatty.com,$2b$12$bpb43usdypY4cVF1rL0vK.GqHBxL5aAw7vHJNUHCRuITeQGTcfF9.,(398) 117-8317
ObjectId("5e18a2e17c29a56f60fb1dd0"),Bridgette,Houston,674 Dodson Cir,Daugherty Creek,IN,77966,bridgette.houston@tbeatty.com,$2b$12$bpb43usdypY4cVF1rL0vK.ZLnjHTw5/S/jP/g8iscMjXf5zzWE2We,(378) 988-4759
ObjectId("5e18a2e17c29a56f60fb1df0"),Toni,Winters,454 Meadows Ct,Combsmont,DC,64520,toni.winters@tbeatty.com,$2b$12$bpb43usdypY4cVF1rL0vK.u.kDObNoblET0/YvhmyvxIsikd4EbRu,(461) 582-6762
ObjectId("5e18a2e17c29a56f60fb1dff"),Julius,Meyers,66 Melton Pass,Shaw City,NM,29614,julius.meyers@tbeatty.com,$2b$12$bpb43usdypY4cVF1rL0vK.ocsFyg1qhdT4OkkimhXl1KQRwuZucO6,(340) 525-8289
ObjectId("5e18a2e17c29a56f60fb1e00"),Priscilla,Quinn,472 Little St,Head Lake,ME,82685,priscilla.quinn@tbeatty.com,$2b$12$bpb43usdypY4cVF1rL0vK.bLGmWfQnIITQUJHPuWiWBpn2lbjHqk.,(657) 597-9119
ObjectId("5e18a2e17c29a56f60fb1e03"),Nicole,Larson,317 Battle Ave,Sellers Island,MT,77380,nicole.larson@tbeatty.com,$2b$12$bpb43usdypY4cVF1rL0vK.qtjpPZx507mXbCEKiya1KrLbdvMUBWi,(572) 154-1395
ObjectId("5e18a2e17c29a56f60fb1e05"),Joaquin,Pate,352 Rasmussen Pass,Gloverville,AR,40988,joaquin.pate@tbeatty.com,$2b$12$bpb43usdypY4cVF1rL0vK.wfQNjNT.LC5DX5vGsoak5sza8k0THWC,(7) 407-8607
ObjectId("5e18a2e17c29a56f60fb1e17"),Jose,Carver,522 Valdez Cir,Webb Island,VA,18941,jose.carver@tbeatty.com,$2b$12$bpb43usdypY4cVF1rL0vK.ElxKoGhKNao8Bwew.Dvr31Y7UUuoo9S,(670) 959-7376
ObjectId("5e18a2e17c29a56f60fb1e1d"),Ernest,Caldwell,892 Pope Rd,Reeves Island,WV,50419,ernest.caldwell@tbeatty.com,$2b$12$bpb43usdypY4cVF1rL0vK.TDb/X9o4S4.ElMcqanx6hkglNMzjCM6,(278) 279-4534
ObjectId("5e18a2e17c29a56f60fb1e29"),Brea,Goff,96 Foster Cir,Ortiz City,MT,45310,brea.goff@tbeatty.com,$2b$12$bpb43usdypY4cVF1rL0vK.MC.GvhDLxCdPQNQGG9e.gSWdt5hKo5G,(469) 738-7388
ObjectId("5e18a2e17c29a56f60fb1e3f"),William,Brown,372 Everett Dr,Mayer Fork,RI,55088,william.brown@tbeatty.com,$2b$12$bpb43usdypY4cVF1rL0vK.cv9faqlhkiJPH6VpBpXkZwZOGuiRvR6,(888) 835-4378
ObjectId("5e18a2e17c29a56f60fb1e49"),Ayana,O'neal,712 Hart Pass,Tillmanmont,AR,81993,ayana.o'neal@tbeatty.com,$2b$12$bpb43usdypY4cVF1rL0vK.hVgQOFcVtwD3h5DLGpQQgHpNzQ4pyZu,(428) 367-5008
ObjectId("5e18a2e17c29a56f60fb1e4c"),Nicklaus,Bond,288 Lindsey Ave,Hodgeburg,AZ,48385,nicklaus.bond@tbeatty.com,$2b$12$bpb43usdypY4cVF1rL0vK.xeANLN.SJ.735p4Vc3lJxhcKHa3Ue2C,(773) 386-2944
ObjectId("5e18a2e17c29a56f60fb1e55"),Justen,Hines,580 Mcintosh Rd,Conrad Island,DE,70669,justen.hines@tbeatty.com,$2b$12$bpb43usdypY4cVF1rL0vK.kKL9hdDfU1q7fFIzmxMy.Gt1tTKxM9S,(254) 845-7098
ObjectId("5e18a2e17c29a56f60fb1e5b"),Chad,Gaines,594 Eaton St,Vincent Lake,RI,77814,chad.gaines@tbeatty.com,$2b$12$bpb43usdypY4cVF1rL0vK.rioCj5Vw4ZkEcbl.FjHsXYB7l/twHv6,(278) 27-6643
ObjectId("5e18a2e17c29a56f60fb1e5e"),Jerrell,Marquez,832 Curry Way,Barreratown,AL,81617,jerrell.marquez@tbeatty.com,$2b$12$bpb43usdypY4cVF1rL0vK.ZLnqrgoXy659UVehGZ0IDgrHdXyBNRq,(431) 392-8696
ObjectId("5e18a2e17c29a56f60fb1e65"),Nathanial,Campos,260 Villarreal Pass,Bryant Island,VA,29651,nathanial.campos@tbeatty.com,$2b$12$bpb43usdypY4cVF1rL0vK.OCjW8ncf/jsGH0aXmEJCtAS9./WUI0i,(345) 659-4751
ObjectId("5e18a2e17c29a56f60fb1e67"),Kendra,Goff,902 Mcintyre Ct,Jacobs Fork,MN,75010,kendra.goff@tbeatty.com,$2b$12$bpb43usdypY4cVF1rL0vK.JsDnK9bEImyCouqHsBDqHoaKrwGvU.e,(324) 500-5040
ObjectId("5e18a2e17c29a56f60fb1e6f"),Rogelio,Randolph,379 Brady St,Mcgee Bridge,AR,14817,rogelio.randolph@tbeatty.com,$2b$12$bpb43usdypY4cVF1rL0vK.F0y19nHahI//kJxHx9g7AZacRt1860y,(707) 843-5286
ObjectId("5e18a2e17c29a56f60fb1e93"),Ray,Daugherty,490 Chaney Dr,Hart Island,CT,80915,ray.daugherty@tbeatty.com,$2b$12$bpb43usdypY4cVF1rL0vK.I5u0qjtvjfvQXt1rbey2OiBbFgA04Pm,(155) 204-6365
ObjectId("5e18a2e17c29a56f60fb1d3a"),Greg,Atkins,953 Avila Rd,Baird Valley,VA,64134,greg.atkins@tbeatty.com,$2b$12$bpb43usdypY4cVF1rL0vK..eNCjfWStpY3U4vtJLJ0JzDdSzoVccW,(814) 961-2236
ObjectId("5e18a2e17c29a56f60fb1d44"),Jaron,Finley,272 Mcknight St,Vincent Springs,MS,90928,jaron.finley@tbeatty.com,$2b$12$bpb43usdypY4cVF1rL0vK.fxJoN0SmXf0Odkdr4.HhliH8Q7Mw4Sa,(109) 56-8407
ObjectId("5e18a2e17c29a56f60fb1d47"),Cyrus,Dorsey,93 Ford Ct,Suarezmont,VA,57585,cyrus.dorsey@tbeatty.com,$2b$12$bpb43usdypY4cVF1rL0vK.OJ9UxXcBf92lNqMeuRCRDXzgJX5h6yy,(719) 471-1221
ObjectId("5e18a2e17c29a56f60fb1d49"),Karen,Bryan,148 Wiley Way,Church Island,IN,32473,karen.bryan@tbeatty.com,$2b$12$bpb43usdypY4cVF1rL0vK.bOTTKvhr9qMlnrlq10kS9HBsoxSk4x.,(63) 814-6184
ObjectId("5e18a2e17c29a56f60fb1d77"),Lizette,Lawson,551 Graham Pass,Vance Creek,MA,33358,lizette.lawson@tbeatty.com,$2b$12$bpb43usdypY4cVF1rL0vK.GY5XG3cJneMfpVnqj.aNWLn88.n894q,(312) 32-6824
ObjectId("5e18a2e17c29a56f60fb1d7f"),Shanice,Jones,205 Blankenship Ln,Le River,HI,86077,shanice.jones@tbeatty.com,$2b$12$bpb43usdypY4cVF1rL0vK.WxLAqmyKSlrCqhsMYG2feimyr80AplG,(750) 371-4779
ObjectId("5e18a2e17c29a56f60fb1d83"),Jarod,Cobb,182 Stark Rd,Goodwinville,WA,12275,jarod.cobb@tbeatty.com,$2b$12$bpb43usdypY4cVF1rL0vK.rtr/PJGPnG7p24WOAMJZ45qH1pH0RuO,(278) 925-7618
ObjectId("5e18a2e17c29a56f60fb1da8"),Eliseo,Estrada,957 Bray Ct,Spencer Island,NY,77279,eliseo.estrada@tbeatty.com,$2b$12$bpb43usdypY4cVF1rL0vK.1UgZR9.s5T6rEEOyQ3IUHfNLF2Ccgry,(930) 374-7665
ObjectId("5e18a2e17c29a56f60fb1dbe"),Elliott,Mayo,394 Riddle Ln,Woods Pond,NH,29886,elliott.mayo@tbeatty.com,$2b$12$bpb43usdypY4cVF1rL0vK.UwFjPYz.pHK1AERJofBuIIcZ.HiznOO,(83) 796-3220
ObjectId("5e18a2e17c29a56f60fb1dc4"),Abdiel,Pierce,337 Fields Rd,Vaughn Bridge,SC,44662,abdiel.pierce@tbeatty.com,$2b$12$bpb43usdypY4cVF1rL0vK.GxMdTphJO1tSU8vrYf0e0E1zkg2gVaO,(60) 109-5695
ObjectId("5e18a2e17c29a56f60fb1de3"),Jason,Cole,494 Richardson Way,Benson Lake,RI,81642,jason.cole@tbeatty.com,$2b$12$bpb43usdypY4cVF1rL0vK.mrPv4HIfIHW0UuDCnnxw7A47ZG..WLK,(986) 333-3452
ObjectId("5e18a2e17c29a56f60fb1dee"),Marquise,Trujillo,616 Eaton Pass,Barrera Pond,NY,65202,marquise.trujillo@tbeatty.com,$2b$12$bpb43usdypY4cVF1rL0vK.uGx5PIDQZFhwnl.hJVH5QgV.XHyBFHC,(361) 584-1854
ObjectId("5e18a2e17c29a56f60fb1def"),Malia,Herrera,560 Carr Ave,Colon Bridge,ND,29436,malia.herrera@tbeatty.com,$2b$12$bpb43usdypY4cVF1rL0vK.9bu1SOkRrsCuoheyRz6GISD/Y1ZOU.a,(340) 404-6727
ObjectId("5e18a2e17c29a56f60fb1df8"),Brock,Whitehead,653 Schneider Ln,Crawford Springs,FL,69100,brock.whitehead@tbeatty.com,$2b$12$bpb43usdypY4cVF1rL0vK.r9lU99YGf9YNEmfLtTO0P1oXyLPAM4S,(741) 742-7559
ObjectId("5e18a2e17c29a56f60fb1df9"),Hayley,Perez,814 Kirby Ct,Mullen Bridge,MN,28301,hayley.perez@tbeatty.com,$2b$12$bpb43usdypY4cVF1rL0vK.BlPxr5zr2chEhNGGHaTZjO6GALV2dMu,(46) 355-1394
ObjectId("5e18a2e17c29a56f60fb1e02"),Erica,Meyer,739 Hale Ave,Cain Lake,WY,74142,erica.meyer@tbeatty.com,$2b$12$bpb43usdypY4cVF1rL0vK.JO95Hx7xnFXS/FvsmOf3GilQujTWHq2,(197) 933-2010
ObjectId("5e18a2e17c29a56f60fb1e0c"),Wyatt,Lambert,461 Sanford Dr,Adkins Bridge,MN,10711,wyatt.lambert@tbeatty.com,$2b$12$bpb43usdypY4cVF1rL0vK.MCD6No1GAeIa5ZiUpAJ4ouzfG0UgnC2,(664) 923-8454
ObjectId("5e18a2e17c29a56f60fb1e3d"),Caroline,Irwin,122 Glover Ct,Benson Springs,WY,45665,caroline.irwin@tbeatty.com,$2b$12$bpb43usdypY4cVF1rL0vK.D1SSw3o/DubwCTciUK//E2/wWxPbkyO,(876) 367-4466
ObjectId("5e18a2e17c29a56f60fb1e40"),Pablo,Gill,505 Bishop Dr,Fuentes River,MA,94818,pablo.gill@tbeatty.com,$2b$12$bpb43usdypY4cVF1rL0vK.xrerp/LYr3cn7MoAP.8RbROMhoOXzYW,(213) 755-4086
ObjectId("5e18a2e17c29a56f60fb1e6b"),Armando,Poole,29 Foreman Ave,Camposville,ME,68795,armando.poole@tbeatty.com,$2b$12$bpb43usdypY4cVF1rL0vK.hanVdxaZfbTkzqfpuT0.z6lv.hwKpZ6,(595) 98-8987
ObjectId("5e18a2e17c29a56f60fb1e7d"),Pierce,Hensley,921 Shields Blvd,Mcdowelltown,GA,66134,pierce.hensley@tbeatty.com,$2b$12$bpb43usdypY4cVF1rL0vK.puEQPPG842RSI.EMZ1diKfSK.jsTX9e,(473) 879-7286
ObjectId("5e18a2e17c29a56f60fb1e84"),Lukas,Riddle,338 Hahn St,Solomon Lake,MS,37756,lukas.riddle@tbeatty.com,$2b$12$bpb43usdypY4cVF1rL0vK.5eM2Aaxo45.DsiQFzVdpysiF0rJ4Cxi,(274) 494-7039
ObjectId("5e18a2e17c29a56f60fb1e90"),Cole,Burnett,92 Holcomb Cir,Chen Springs,TX,29250,cole.burnett@tbeatty.com,$2b$12$bpb43usdypY4cVF1rL0vK.y2rZQiTa0ApDwLVGrZZhPegsmD5Gez.,(349) 31-4908
ObjectId("5e18a2e17c29a56f60fb1e98"),Chance,Mack,44 Mccarty Blvd,Gilliam Creek,OH,59354,chance.mack@tbeatty.com,$2b$12$bpb43usdypY4cVF1rL0vK.1HeXKiGyJy5GjImPj7ZIqeHW54PucUe,(508) 946-7510
ObjectId("5e18a2e17c29a56f60fb1d36"),Tatyana,Castaneda,633 Weiss Ln,Dillard Bridge,AR,98596,tatyana.castaneda@tbeatty.com,$2b$12$bpb43usdypY4cVF1rL0vK.2C5cQIBSfAJVzHijNorBfeTHvJ3vCfS,(744) 595-2345
ObjectId("5e18a2e17c29a56f60fb1d55"),Trevon,Spence,483 Hopkins Pass,Myers Pond,IL,27317,trevon.spence@tbeatty.com,$2b$12$bpb43usdypY4cVF1rL0vK.g9W7dUATuDjHs3.pfNIbEOHIB6S3xqm,(429) 505-4761
ObjectId("5e18a2e17c29a56f60fb1d6e"),Leila,Washington,968 Berger Way,Haystown,FL,39695,leila.washington@tbeatty.com,$2b$12$bpb43usdypY4cVF1rL0vK.MzDpdjRHYr5p2cbl6ADOcAJVP4PDrgi,(4) 697-9778
ObjectId("5e18a2e17c29a56f60fb1d8e"),Frederick,Manning,740 Giles Ct,Hartman Island,NE,45536,frederick.manning@tbeatty.com,$2b$12$bpb43usdypY4cVF1rL0vK.MJdwEQOX3M5p.AApWMfnMivPGVKuqxa,(862) 638-5867
ObjectId("5e18a2e17c29a56f60fb1da4"),Antonio,Mullins,1 Hebert Pass,Goff City,UT,73069,antonio.mullins@tbeatty.com,$2b$12$bpb43usdypY4cVF1rL0vK.l5SKH.edtdv2yTdB9NUvGmXher/IOBa,(308) 81-5640
ObjectId("5e18a2e17c29a56f60fb1dae"),Mckayla,Kemp,184 Kemp Ln,Kirk Creek,CA,65686,mckayla.kemp@tbeatty.com,$2b$12$bpb43usdypY4cVF1rL0vK.UcpQLzdlL/k0u./f4B4PIEObnQInOsa,(331) 509-9976
ObjectId("5e18a2e17c29a56f60fb1db6"),Jeremiah,Sykes,223 Dudley Cir,Mack Island,NM,27666,jeremiah.sykes@tbeatty.com,$2b$12$bpb43usdypY4cVF1rL0vK.z8hltQBHhi8VtLZPieRmzAbwp3MioFq,(206) 532-9087
ObjectId("5e18a2e17c29a56f60fb1dc3"),Jacqueline,Pitts,395 Vasquez Way,Sellersmont,TX,51041,jacqueline.pitts@tbeatty.com,$2b$12$bpb43usdypY4cVF1rL0vK.NncVfqmC2FLB2b.vLh3R6mqW.p5y2nG,(167) 149-6795
ObjectId("5e18a2e17c29a56f60fb1dca"),Alexa,Andrews,549 Battle Ct,Norris Creek,OK,80721,alexa.andrews@tbeatty.com,$2b$12$bpb43usdypY4cVF1rL0vK.cKHaW3F3vUtb8N8TtWCw6n/lx3Jhlgy,(928) 221-2822
ObjectId("5e18a2e17c29a56f60fb1dd6"),Todd,Hull,172 Puckett Ct,Hudsonmont,NV,78276,todd.hull@tbeatty.com,$2b$12$bpb43usdypY4cVF1rL0vK.q13wLZelxK6YrqGMDmoSlf6/91V0imC,(761) 892-4363
ObjectId("5e18a2e17c29a56f60fb1de4"),Harvey,Coffey,672 Bryan Blvd,Jenkins City,TX,38898,harvey.coffey@tbeatty.com,$2b$12$bpb43usdypY4cVF1rL0vK.YY/DFweka3S2/ycXeiluXpPrxEv.vvy,(165) 630-1522
ObjectId("5e18a2e17c29a56f60fb1e0f"),Sylvia,West,995 Petersen Dr,Prince River,NV,94566,sylvia.west@tbeatty.com,$2b$12$bpb43usdypY4cVF1rL0vK.4vQQyN6E1uXoijBUmMZGaBDyAKkXVd6,(304) 321-6404
ObjectId("5e18a2e17c29a56f60fb1e1c"),Kerri,Barrera,363 Pacheco Ln,Snow Lake,KS,87778,kerri.barrera@tbeatty.com,$2b$12$bpb43usdypY4cVF1rL0vK.ku.rzkskNWS5iC/ncDwze3Q5ubis3NO,(25) 824-3089
ObjectId("5e18a2e17c29a56f60fb1e1e"),Nikolas,Hickman,266 Conrad Ave,Rogersmont,CT,60837,nikolas.hickman@tbeatty.com,$2b$12$bpb43usdypY4cVF1rL0vK.p6ObgoEkcCMac.P5cjtzlEYDs9q.Be6,(743) 872-4017
ObjectId("5e18a2e17c29a56f60fb1e1f"),Astrid,Frost,329 Justice Dr,Baldwinville,DC,50540,astrid.frost@tbeatty.com,$2b$12$bpb43usdypY4cVF1rL0vK.N5QK4LqJr56Vnj952w96O7La3r9in.W,(633) 781-6057
ObjectId("5e18a2e17c29a56f60fb1e27"),Herman,Day,956 Joseph St,Nash Fork,RI,79047,herman.day@tbeatty.com,$2b$12$bpb43usdypY4cVF1rL0vK.LTH9vnDzIYIUg6l0S9IVJaOso7Ibjge,(246) 955-9361
ObjectId("5e18a2e17c29a56f60fb1e2e"),Bryan,Gates,432 House Way,Pollard City,CA,62756,bryan.gates@tbeatty.com,$2b$12$bpb43usdypY4cVF1rL0vK.CyeALzqOaV3cI6xhuMAaWo6n7LZvasm,(211) 501-3677
ObjectId("5e18a2e17c29a56f60fb1e39"),River,Snyder,527 Harris Blvd,Pacheco Island,IN,13315,river.snyder@tbeatty.com,$2b$12$bpb43usdypY4cVF1rL0vK.XExLVHNV6gSZUyiSX6jsuTm5pbT4AT6,(682) 696-8993
ObjectId("5e18a2e17c29a56f60fb1e3e"),Morgan,Bass,771 Holland Pass,Vinson City,IN,30783,morgan.bass@tbeatty.com,$2b$12$bpb43usdypY4cVF1rL0vK.bjqbaQBxE3kopL4pQ5lV7v/A6.QbNLe,(393) 516-9172
ObjectId("5e18a2e17c29a56f60fb1e4a"),Valentin,Howe,661 Compton Dr,Beattie Fork,NJ,41255,valentin.howe@tbeatty.com,$2b$12$bpb43usdypY4cVF1rL0vK.zDgw.QUB/pbxzFsSAT7XbMDdOPEj7ue,(824) 673-5848
ObjectId("5e18a2e17c29a56f60fb1e6d"),Nolan,Rodriguez,377 Calderon Ct,Mccoy Creek,VT,28109,nolan.rodriguez@tbeatty.com,$2b$12$bpb43usdypY4cVF1rL0vK.mWFNU3JW5Bb9FrlKYubeabWbJs26Y42,(644) 366-7184
ObjectId("5e18a2e17c29a56f60fb1e76"),Sebastian,Frank,354 Beattie Way,Mcdonaldburg,AK,24656,sebastian.frank@tbeatty.com,$2b$12$bpb43usdypY4cVF1rL0vK.dGFk2NtnAKkw74JUuqfqd8MmSnb2H4S,(257) 750-9207
ObjectId("5e18a2e17c29a56f60fb1e7c"),Junior,Buchanan,434 Jacobs Dr,Mercer Fork,WI,87209,junior.buchanan@tbeatty.com,$2b$12$bpb43usdypY4cVF1rL0vK./hCjH9MhyJFX3Ayor4jQdgYBm0SDrLS,(475) 422-8346
ObjectId("5e18a2e17c29a56f60fb1e86"),Jean,Walker,158 Lindsay Way,Pricetown,OK,93284,jean.walker@tbeatty.com,$2b$12$bpb43usdypY4cVF1rL0vK.6p.lbko95JScI0W57b4ezNCOMnezWhe,(920) 344-5014
ObjectId("5e18a2e17c29a56f60fb1d3d"),Johnathon,Mcbride,440 Brennan St,Justice Island,MI,40936,johnathon.mcbride@tbeatty.com,$2b$12$bpb43usdypY4cVF1rL0vK.krYbOg1iJIYa9FcQle4NY5RwVjUbtWG,(32) 627-2412
ObjectId("5e18a2e17c29a56f60fb1d33"),Elyse,Hoover,529 Howe Blvd,Butler Pond,MT,39610,elyse.hoover@tbeatty.com,$2b$12$bpb43usdypY4cVF1rL0vK.aVmtEA/ICvSM.TXN89baRAG1rdK0b.2,(118) 197-2272
ObjectId("5e18a2e17c29a56f60fb1d3c"),Kaylin,Gilliam,140 Snow Ct,Holt Island,OK,86970,kaylin.gilliam@tbeatty.com,$2b$12$bpb43usdypY4cVF1rL0vK.6QbZ9hniwHkFKiJYYNBHWGbOHYqCMna,(341) 831-9954
ObjectId("5e18a2e17c29a56f60fb1d46"),Riley,Donovan,667 Downs Way,Valenzuela Fork,OH,45453,riley.donovan@tbeatty.com,$2b$12$bpb43usdypY4cVF1rL0vK.MtMkEuOQp8d/9CrKVkhX.akgCFycczi,(733) 495-7389
ObjectId("5e18a2e17c29a56f60fb1d53"),Raphael,Gentry,238 Le Ave,Brucetown,GA,77730,raphael.gentry@tbeatty.com,$2b$12$bpb43usdypY4cVF1rL0vK.wrT5N27ILlGIBz8nrRxD/g4.YVLhjpO,(926) 143-3741
ObjectId("5e18a2e17c29a56f60fb1d66"),Rusty,Wyatt,157 Kidd St,Bryantown,PA,19614,rusty.wyatt@tbeatty.com,$2b$12$bpb43usdypY4cVF1rL0vK.vAoo8Tpz8DuWnRCaEmGsITZyk1B3RWy,(381) 209-5916
ObjectId("5e18a2e17c29a56f60fb1d6c"),Allan,Velazquez,566 Jenkins Way,Patrick Island,AK,74035,allan.velazquez@tbeatty.com,$2b$12$bpb43usdypY4cVF1rL0vK.AbpypOMdrtaBsGeL30EQ.UB0QbAHQb2,(338) 752-9218
ObjectId("5e18a2e17c29a56f60fb1d74"),Aron,Owens,891 Huber Pass,Wilkinson River,NH,11044,aron.owens@tbeatty.com,$2b$12$bpb43usdypY4cVF1rL0vK.FNtj7M0X.36iDphm05naxTHpO9ylZXe,(359) 909-5779
ObjectId("5e18a2e17c29a56f60fb1d76"),Isabella,Wynn,650 Young St,Parrishtown,NE,42805,isabella.wynn@tbeatty.com,$2b$12$bpb43usdypY4cVF1rL0vK.wNnJUqlTM30OimoL0ps16BCRyBAmo3i,(197) 846-3088
ObjectId("5e18a2e17c29a56f60fb1d7d"),Raven,Roach,274 Snow Pass,Harrisburg,GA,44189,raven.roach@tbeatty.com,$2b$12$bpb43usdypY4cVF1rL0vK.kvlEJwXu4aCuLalqOxjhMGGZTbLqJxu,(541) 557-8548
ObjectId("5e18a2e17c29a56f60fb1d88"),Ricky,Avery,865 Hurst Way,Douglas City,DC,43051,ricky.avery@tbeatty.com,$2b$12$bpb43usdypY4cVF1rL0vK.4MtLIk5Ji2qZJBipzEF7AjXEjxWtiK6,(900) 825-8726
ObjectId("5e18a2e17c29a56f60fb1d89"),Otis,Bruce,137 Vang Ln,Lambtown,IA,32446,otis.bruce@tbeatty.com,$2b$12$bpb43usdypY4cVF1rL0vK.j7I4hy1UGXcyX3al5SXanjXaZNsuCVO,(328) 188-5427
ObjectId("5e18a2e17c29a56f60fb1db7"),Magdalena,Mayer,400 Whitfield Cir,Franks Bridge,NE,19001,magdalena.mayer@tbeatty.com,$2b$12$bpb43usdypY4cVF1rL0vK.naH4HnIXwQuST9AY.sGs9AAukVbZBgS,(828) 117-4539
ObjectId("5e18a2e17c29a56f60fb1dc0"),James,Burgess,558 Wagner Blvd,Powers River,NV,20409,james.burgess@tbeatty.com,$2b$12$bpb43usdypY4cVF1rL0vK.IH0DeGRX1y7h9u4zNiPqi0F1XQvQJz.,(602) 511-7222
ObjectId("5e18a2e17c29a56f60fb1df3"),Priscilla,Albert,353 Pittman Pass,Dudleytown,MS,14587,priscilla.albert@tbeatty.com,$2b$12$bpb43usdypY4cVF1rL0vK.fq3BJV1jO17o3A4kcYV1L0R1TQVuNcO,(312) 271-2622
ObjectId("5e18a2e17c29a56f60fb1df4"),Santos,Sellers,31 Kline Cir,Ingram Springs,CO,17430,santos.sellers@tbeatty.com,$2b$12$bpb43usdypY4cVF1rL0vK.m.XrWDTfbRQH5ox6aUcx0LfVgza7Okm,(93) 703-3582
ObjectId("5e18a2e17c29a56f60fb1e09"),Shelby,Silva,39 O'neil Blvd,Wallace City,AZ,25429,shelby.silva@tbeatty.com,$2b$12$bpb43usdypY4cVF1rL0vK.J3Mz7uHKL/l/qZaIvCk66z67eKhz8iK,(772) 8-6694
ObjectId("5e18a2e17c29a56f60fb1e0b"),Ulysses,Hudson,313 Price Dr,Lester River,SC,94572,ulysses.hudson@tbeatty.com,$2b$12$bpb43usdypY4cVF1rL0vK.vs8xpsGC8mKuihLtChsnaHKnTGURu4K,(114) 104-5970
ObjectId("5e18a2e17c29a56f60fb1e19"),Kaylie,Singleton,24 Santiago Dr,Roman Creek,FL,89975,kaylie.singleton@tbeatty.com,$2b$12$bpb43usdypY4cVF1rL0vK.imXhTHBq5D4fNa2mD5.DSANKBOP6FaS,(417) 159-9920
ObjectId("5e18a2e17c29a56f60fb1e23"),Taylor,Vargas,545 Rich Cir,Powell Pond,OK,69219,taylor.vargas@tbeatty.com,$2b$12$bpb43usdypY4cVF1rL0vK.SwVlcdfi6vGShgAo1VToiSxkH.OCYiu,(41) 643-7856
ObjectId("5e18a2e17c29a56f60fb1e34"),Thomas,Bowers,771 Guzman Ln,Conrad Bridge,NJ,63885,thomas.bowers@tbeatty.com,$2b$12$bpb43usdypY4cVF1rL0vK.1nT3/cx7u2hykkADDYJykyKn2Cw56r2,(679) 120-1103
ObjectId("5e18a2e17c29a56f60fb1e3c"),Remington,Dyer,789 Avery Way,Townsend Creek,IN,57175,remington.dyer@tbeatty.com,$2b$12$bpb43usdypY4cVF1rL0vK.EmzQe34tRrneV8n.GFYpPjb0X1od8GW,(446) 423-2925
ObjectId("5e18a2e17c29a56f60fb1e45"),Mohammed,Blackwell,929 Park Ct,Johns Springs,DE,36409,mohammed.blackwell@tbeatty.com,$2b$12$bpb43usdypY4cVF1rL0vK.yHIe3PkPocW5bBxIg.HOwyyIKeRMt9S,(682) 135-2430
ObjectId("5e18a2e17c29a56f60fb1e56"),Jaylen,Ochoa,432 Barnes Dr,Pacheco Island,DE,44261,jaylen.ochoa@tbeatty.com,$2b$12$bpb43usdypY4cVF1rL0vK.Jy8ptXe/Dg3Rz4xiOqC/SSp7nyV0ofq,(416) 186-9843
ObjectId("5e18a2e17c29a56f60fb1e5a"),Forest,Levy,300 Elliott Ave,Shortville,IN,51652,forest.levy@tbeatty.com,$2b$12$bpb43usdypY4cVF1rL0vK.KWL1xM1RkIYHc.RYArmEtX4sn12ySSy,(445) 31-8072
ObjectId("5e18a2e17c29a56f60fb1e74"),Quinten,Farrell,688 Delgado Rd,Potterville,MT,68429,quinten.farrell@tbeatty.com,$2b$12$bpb43usdypY4cVF1rL0vK.ocfpvKNl597fowyanihubddbUlv//4i,(65) 696-5578
ObjectId("5e18a2e17c29a56f60fb1e7a"),Carlee,Klein,674 Diaz Ct,Holloway Valley,FL,96196,carlee.klein@tbeatty.com,$2b$12$bpb43usdypY4cVF1rL0vK.TEhe4amf3mghPZe9COklohwawVqHd3.,(202) 828-4720
ObjectId("5e18a2e17c29a56f60fb1e96"),Chloe,Walsh,877 Hicks Way,Galloway River,MS,59044,chloe.walsh@tbeatty.com,$2b$12$bpb43usdypY4cVF1rL0vK.KMnl3epP5825SO8y317aNV69tlUZiny,(118) 64-6167
ObjectId("5e18a2e17c29a56f60fb1e97"),August,Harrell,802 Hanson Rd,O'connorburg,CT,63999,august.harrell@tbeatty.com,$2b$12$bpb43usdypY4cVF1rL0vK.hO3c63dxDP8/4nhNGqMazVLZBUlawKq,(508) 951-5830
ObjectId("5e18a2e17c29a56f60fb1d4c"),Natalia,Castro,748 Cummings Cir,Sheppardburg,WI,33910,natalia.castro@tbeatty.com,$2b$12$bpb43usdypY4cVF1rL0vK.FB5vn5St91AyGNKWKsh0LNw6Fa4XQV.,(138) 793-3539
ObjectId("5e18a2e17c29a56f60fb1d51"),Jerome,Mcclain,199 Galloway St,Savage Pond,NE,22884,jerome.mcclain@tbeatty.com,$2b$12$bpb43usdypY4cVF1rL0vK.JlbTmbVe5808PsMqIr6O3iH9W1oDj3a,(683) 60-6906
ObjectId("5e18a2e17c29a56f60fb1d7c"),Lacey,Mcbride,369 Daniels Dr,Whitfield Bridge,MN,25740,lacey.mcbride@tbeatty.com,$2b$12$bpb43usdypY4cVF1rL0vK.mmnDZFwhs6j4dy2u0h4VB8SVY5LSODa,(129) 163-8128
ObjectId("5e18a2e17c29a56f60fb1d8b"),Kimberlee,England,654 Underwood Ct,Head Lake,IN,99603,kimberlee.england@tbeatty.com,$2b$12$bpb43usdypY4cVF1rL0vK.XKZRX3VmdNScgUGYxupksTeXeBbzrcS,(542) 825-4021
ObjectId("5e18a2e17c29a56f60fb1d8f"),Nikhil,Mercer,882 Solomon St,Jenkins Fork,IL,89065,nikhil.mercer@tbeatty.com,$2b$12$bpb43usdypY4cVF1rL0vK.YCRSpHPQ6ZE9uphwPG3DLSbnnuiqGtS,(443) 795-8984
ObjectId("5e18a2e17c29a56f60fb1d95"),Joyce,Morales,241 Allison Pass,Kentmont,NE,19801,joyce.morales@tbeatty.com,$2b$12$bpb43usdypY4cVF1rL0vK.UAmwLnB3GrJwZL47N5USnqSI0SeCtcm,(314) 171-9199
ObjectId("5e18a2e17c29a56f60fb1d99"),Ebony,Neal,209 Glass Ave,Good Creek,AL,79968,ebony.neal@tbeatty.com,$2b$12$bpb43usdypY4cVF1rL0vK.bGLWpSKl3QldGLBNtpquWC7XzTKY77C,(155) 226-5559
ObjectId("5e18a2e17c29a56f60fb1da3"),Annmarie,Webb,846 Hansen Ln,Barker Lake,AR,36369,annmarie.webb@tbeatty.com,$2b$12$bpb43usdypY4cVF1rL0vK.42N/YZT8KNPvqCeq.esYRz0u5iXtbmO,(374) 536-4526
ObjectId("5e18a2e17c29a56f60fb1dcd"),Lazaro,Russo,872 Wells Ct,Park Creek,MO,23588,lazaro.russo@tbeatty.com,$2b$12$bpb43usdypY4cVF1rL0vK.gZrGjD9vLT803dtnkESHLUmtEBpQYMa,(891) 412-2182
ObjectId("5e18a2e17c29a56f60fb1dd5"),Tammy,Decker,328 Larson Ave,Weisstown,AK,47420,tammy.decker@tbeatty.com,$2b$12$bpb43usdypY4cVF1rL0vK.VpkAceQj4C360UEc78FSvejwgRRTrYO,(306) 96-1131
ObjectId("5e18a2e17c29a56f60fb1dd9"),Shay,Joyner,121 Sherman Pass,Andrews Creek,KY,81861,shay.joyner@tbeatty.com,$2b$12$bpb43usdypY4cVF1rL0vK.YBWZEnoNjrKZXpe.1phZ4Cf0cBX763C,(144) 728-8848
ObjectId("5e18a2e17c29a56f60fb1dfb"),Susan,Alston,626 Chavez Rd,Acostaville,OH,49237,susan.alston@tbeatty.com,$2b$12$bpb43usdypY4cVF1rL0vK.bwlurzTFftHa0fS.coS6wrrJ14XdyOS,(56) 788-8282
ObjectId("5e18a2e17c29a56f60fb1dfd"),Audra,Carrillo,103 Contreras Way,Patel Lake,MO,58992,audra.carrillo@tbeatty.com,$2b$12$bpb43usdypY4cVF1rL0vK.xs53vXgHmcECFowye.mjF4TFxlS8BM6,(773) 242-5015
ObjectId("5e18a2e17c29a56f60fb1dfe"),Joey,Gaines,748 Downs Cir,Mcmahon Island,ME,12914,joey.gaines@tbeatty.com,$2b$12$bpb43usdypY4cVF1rL0vK.0RtltrZO0KIJcmQiZneD7Ukb/.9/QQu,(57) 926-9343
ObjectId("5e18a2e17c29a56f60fb1e18"),Elvis,Mckinney,134 Burt Ln,Kochburg,RI,52236,elvis.mckinney@tbeatty.com,$2b$12$bpb43usdypY4cVF1rL0vK.a.jehvjiNki.AT8RZ24PQ/YkWrW8ML.,(181) 402-3065
ObjectId("5e18a2e17c29a56f60fb1e35"),Tiana,Stevens,655 Buckley Pass,Caldwell Pond,NC,46375,tiana.stevens@tbeatty.com,$2b$12$bpb43usdypY4cVF1rL0vK.O/a8UXQ09c.oDbXkSSqCm7Wa7km2Ucy,(585) 756-7600
ObjectId("5e18a2e17c29a56f60fb1e48"),Julie,Sykes,406 Bright St,Porter Creek,MI,37572,julie.sykes@tbeatty.com,$2b$12$bpb43usdypY4cVF1rL0vK.BxxO5u4GI8r2MRETbGpHxZE88wiKzNe,(760) 715-6597
ObjectId("5e18a2e17c29a56f60fb1e70"),Robert,Mcpherson,762 Hewitt Ct,Norris Lake,NJ,44119,robert.mcpherson@tbeatty.com,$2b$12$bpb43usdypY4cVF1rL0vK.z62PrgUjWnRM83dshYjWfvhZ37kn7B2,(926) 422-6384
ObjectId("5e18a2e17c29a56f60fb1e72"),Erin,Holmes,414 Gutierrez Way,Pace City,NV,59157,erin.holmes@tbeatty.com,$2b$12$bpb43usdypY4cVF1rL0vK.etEAe7NkM.85qAYKNQ9c67RUW8O2nOW,(88) 596-1098
ObjectId("5e18a2e17c29a56f60fb1d67"),Rex,Joyce,671 Cain Rd,Byers Bridge,AR,24182,rex.joyce@tbeatty.com,$2b$12$bpb43usdypY4cVF1rL0vK.FuccmiNpov5ogrY1.utyYwxE16EVk4O,(607) 609-7769
ObjectId("5e18a2e17c29a56f60fb1d39"),Sarai,Spence,381 Holder Dr,Mckaytown,CT,71724,sarai.spence@tbeatty.com,$2b$12$bpb43usdypY4cVF1rL0vK.i2lIO56QI3xUmNp5Hx3jqYf5PP/r6ie,(33) 534-6948
ObjectId("5e18a2e17c29a56f60fb1d75"),Valentin,Patel,288 Merritt Ln,Cooke River,GA,74305,valentin.patel@tbeatty.com,$2b$12$bpb43usdypY4cVF1rL0vK.3rbI7FSDL.3rjUy7HjsAY7dnof/zB4K,(381) 398-3779
ObjectId("5e18a2e17c29a56f60fb1d79"),Lucy,Mcclure,839 Abbott Ct,Allisonville,UT,25748,lucy.mcclure@tbeatty.com,$2b$12$bpb43usdypY4cVF1rL0vK.726FFTtAU0AfHCOlqefr0VhtT66./wW,(862) 113-1174
ObjectId("5e18a2e17c29a56f60fb1d7a"),Cierra,Kemp,297 Henderson Ave,England Pond,TN,92603,cierra.kemp@tbeatty.com,$2b$12$bpb43usdypY4cVF1rL0vK.4.hWPLdNK5FVovWpqgdu17dhAq1mpMi,(916) 104-6920
ObjectId("5e18a2e17c29a56f60fb1d93"),Karli,Cabrera,975 Navarro Blvd,Guyburg,IL,26669,karli.cabrera@tbeatty.com,$2b$12$bpb43usdypY4cVF1rL0vK.fnLjhEKHdHfAQ1XnLzTImwMAWbz.1ui,(572) 149-9844
ObjectId("5e18a2e17c29a56f60fb1da7"),Broderick,Mitchell,758 Solomon Rd,Bell Island,LA,58612,broderick.mitchell@tbeatty.com,$2b$12$bpb43usdypY4cVF1rL0vK.BAIsu7t5JFPO1wOUIcQXRDuvcoVgv42,(225) 882-1837
ObjectId("5e18a2e17c29a56f60fb1db0"),Eliana,Zimmerman,805 Day Ave,Wright Springs,PA,80840,eliana.zimmerman@tbeatty.com,$2b$12$bpb43usdypY4cVF1rL0vK.ndXrzGEM2ye.JtPkCJXmdEgMaRwrrMS,(92) 243-4757
ObjectId("5e18a2e17c29a56f60fb1dc1"),Lizbeth,Frank,998 Ellis Ln,Meyer Fork,FL,51244,lizbeth.frank@tbeatty.com,$2b$12$bpb43usdypY4cVF1rL0vK.YKZ3HFeV5knNKPSjjvtSnTLrLbpcCs2,(94) 579-8434
ObjectId("5e18a2e17c29a56f60fb1dc5"),Alex,Cabrera,600 Davis Ln,Duran Valley,NH,47772,alex.cabrera@tbeatty.com,$2b$12$bpb43usdypY4cVF1rL0vK.tTiTwIlFI4mCx/kjclunE9TuN978n/a,(883) 6-9613
ObjectId("5e18a2e17c29a56f60fb1dd2"),Francesca,Buckner,174 Adkins Way,Mooney Pond,CO,17571,francesca.buckner@tbeatty.com,$2b$12$bpb43usdypY4cVF1rL0vK.boFhrsn3GtnEha8gCr54K3KbALJD5Jq,(456) 230-2083
ObjectId("5e18a2e17c29a56f60fb1de1"),Johanna,Mclaughlin,584 Vaughan Ave,Tannerburg,NY,13146,johanna.mclaughlin@tbeatty.com,$2b$12$bpb43usdypY4cVF1rL0vK.TFL1MjFHIX6JWUyTHyE/A/m9CNSZ45i,(421) 833-8365
ObjectId("5e18a2e17c29a56f60fb1de8"),Maranda,Craft,722 Durham Cir,Fleming Lake,PA,83890,maranda.craft@tbeatty.com,$2b$12$bpb43usdypY4cVF1rL0vK.I56Zth8lpBY7mihbrZKXay6b4jt0g9q,(478) 944-8163
ObjectId("5e18a2e17c29a56f60fb1deb"),Devin,Shields,81 Johnston Blvd,Butler Valley,TX,96776,devin.shields@tbeatty.com,$2b$12$bpb43usdypY4cVF1rL0vK.cwyxLjbZG4YoVXdYIfHcm9ozBb1.f7G,(301) 25-2216
ObjectId("5e18a2e17c29a56f60fb1e07"),Kaycee,Gibbs,888 Mckinney St,Hillburg,NE,99260,kaycee.gibbs@tbeatty.com,$2b$12$bpb43usdypY4cVF1rL0vK.UW3qhje.GA.7EPn9OlWiXl0cS0/bvxe,(179) 893-8583
ObjectId("5e18a2e17c29a56f60fb1e12"),Dulce,Hubbard,793 Mullins Ct,Floyd Creek,DC,52437,dulce.hubbard@tbeatty.com,$2b$12$bpb43usdypY4cVF1rL0vK.ZFonGeURxf2ZNbRZ7tmgqxxVfmYl.fe,(79) 182-4226
ObjectId("5e18a2e17c29a56f60fb1e25"),Devontae,Forbes,129 Daniels Blvd,Marsh Island,ME,71266,devontae.forbes@tbeatty.com,$2b$12$bpb43usdypY4cVF1rL0vK.qeDa9Squ7N7GBbFkhfVBHkUhuooZXdq,(212) 395-3800
ObjectId("5e18a2e17c29a56f60fb1e2c"),Gunner,Holder,984 Mccoy St,Barrett Valley,NJ,61994,gunner.holder@tbeatty.com,$2b$12$bpb43usdypY4cVF1rL0vK.Mq/WeNjMghe3PXnX.7vDLgESphuZD4m,(91) 562-3000
ObjectId("5e18a2e17c29a56f60fb1e37"),Devyn,Whitfield,436 Contreras Rd,Gonzaleztown,MO,76366,devyn.whitfield@tbeatty.com,$2b$12$bpb43usdypY4cVF1rL0vK.KDliZz0xhJfpWfd2xHyYGLA.cq77ouK,(590) 731-7980
ObjectId("5e18a2e17c29a56f60fb1e47"),Edgar,Harris,497 Lynch Ln,Brooks Lake,WI,98851,edgar.harris@tbeatty.com,$2b$12$bpb43usdypY4cVF1rL0vK.i3zVszfXrzcutaWotqs2CIU8eRh6hh2,(773) 747-5388
ObjectId("5e18a2e17c29a56f60fb1e68"),Dianna,Rodgers,933 Cash Blvd,Foreman Fork,MD,70749,dianna.rodgers@tbeatty.com,$2b$12$bpb43usdypY4cVF1rL0vK.t/eKHqbAPFUdWWOI60FvpmM2SgjRS3W,(353) 853-5859
ObjectId("5e18a2e17c29a56f60fb1e69"),Terry,Mathis,886 Norris Rd,Ortega Fork,PA,98132,terry.mathis@tbeatty.com,$2b$12$bpb43usdypY4cVF1rL0vK.WS4NeNQkuZIPKbU/LEspqAJ9bGyureS,(992) 985-3032
ObjectId("5e18a2e17c29a56f60fb1e7f"),Kiley,Reyes,876 Sargent Ln,Tyler Creek,MO,34196,kiley.reyes@tbeatty.com,$2b$12$bpb43usdypY4cVF1rL0vK.L0dUSkj7VnmaUIh4AQ3snfsUDSQ4FCu,(539) 593-9689
ObjectId("5e18a2e17c29a56f60fb1e8d"),Blaine,Jenkins,33 Boone Way,Chaney Pond,DC,77169,blaine.jenkins@tbeatty.com,$2b$12$bpb43usdypY4cVF1rL0vK.7FJ02twvH0hSxxB1mkSYQKYd7GFGcfW,(191) 505-6450
ObjectId("5e18a2e17c29a56f60fb1e91"),Patrick,Powell,427 O'brien Blvd,Nash Pond,WA,20793,patrick.powell@tbeatty.com,$2b$12$bpb43usdypY4cVF1rL0vK.wnPNXfUXaoxGCOOy7fRkf43kKQPn2BW,(86) 268-5767
ObjectId("5e18a2e17c29a56f60fb1d40"),Aubree,Hoffman,535 Justice Dr,Wise Creek,VA,83727,aubree.hoffman@tbeatty.com,$2b$12$bpb43usdypY4cVF1rL0vK.Hq4Z/jg4zh2aGtfjYaolGXlJBDfTJMi,(239) 467-6587
ObjectId("5e18a2e17c29a56f60fb1d60"),Clara,Knapp,590 Sherman Ct,Marks Pond,FL,74506,clara.knapp@tbeatty.com,$2b$12$bpb43usdypY4cVF1rL0vK.9JKcCBYuS/nfNRKewioQCpprHb9OI/e,(27) 112-8941
ObjectId("5e18a2e17c29a56f60fb1d73"),Tavon,Burke,438 Scott Dr,Odom Valley,MT,59818,tavon.burke@tbeatty.com,$2b$12$bpb43usdypY4cVF1rL0vK.j/GWoW7xAsoPEylMUiCcic3xx7DiIgm,(362) 891-8377
ObjectId("5e18a2e17c29a56f60fb1d7e"),Alina,Lyons,570 Haney Blvd,Peterson Springs,IL,14088,alina.lyons@tbeatty.com,$2b$12$bpb43usdypY4cVF1rL0vK.mzy6tRC.P8BM2PkQX6zEFv8hQlM2/hi,(627) 86-3373
ObjectId("5e18a2e17c29a56f60fb1d82"),Darrien,Foley,689 Wilcox Rd,Roman Creek,IN,41140,darrien.foley@tbeatty.com,$2b$12$bpb43usdypY4cVF1rL0vK.GPsbRRS8Htevly7JnprI8tE32Asxth.,(507) 351-8882
ObjectId("5e18a2e17c29a56f60fb1d9d"),Allyson,Fitzpatrick,687 Shields St,Gregory Springs,WI,37764,allyson.fitzpatrick@tbeatty.com,$2b$12$bpb43usdypY4cVF1rL0vK.ZkmuStt2dTvgdmVqlGibD5JK.Q/f36y,(115) 904-3705
ObjectId("5e18a2e17c29a56f60fb1da5"),Herman,Roth,174 Day Pass,Boyd Island,ID,64260,herman.roth@tbeatty.com,$2b$12$bpb43usdypY4cVF1rL0vK.lAb.wsA6aqnuD05Br1wxer/N.4Nlg5y,(190) 979-5776
ObjectId("5e18a2e17c29a56f60fb1ddd"),Lloyd,Henson,499 Farmer Ct,Brock Fork,NH,97421,lloyd.henson@tbeatty.com,$2b$12$bpb43usdypY4cVF1rL0vK.UgnZErEO5d3HFtpDb27lv8eSqOUDnK2,(216) 706-9523
ObjectId("5e18a2e17c29a56f60fb1de2"),Lesly,Mckinney,322 Andrews Dr,Patterson Fork,NM,92159,lesly.mckinney@tbeatty.com,$2b$12$bpb43usdypY4cVF1rL0vK..WJRTN02wENLrQW7VDe4HwJanuy.eGe,(937) 881-8353
ObjectId("5e18a2e17c29a56f60fb1ded"),Erick,Garza,924 Wong Rd,Knight Creek,SC,23968,erick.garza@tbeatty.com,$2b$12$bpb43usdypY4cVF1rL0vK.BgkzBDDFyw7lJ.aeAmMwshlXKGgFGtq,(174) 541-4690
ObjectId("5e18a2e17c29a56f60fb1df6"),Melinda,Jefferson,652 Underwood Ave,Wallace Bridge,VA,47751,melinda.jefferson@tbeatty.com,$2b$12$bpb43usdypY4cVF1rL0vK.fn.Yz3H43AeHt1BcxllhEx.LxejBJ02,(975) 558-6337
ObjectId("5e18a2e17c29a56f60fb1e41"),Katlin,Shaffer,204 Washington Ave,Mcfadden Pond,MT,99876,katlin.shaffer@tbeatty.com,$2b$12$bpb43usdypY4cVF1rL0vK.urVDINR1/XFyepacEht4dblx6WCm6/i,(616) 702-7365
ObjectId("5e18a2e17c29a56f60fb1e46"),Aimee,Bauer,112 Huffman St,Crane Valley,ME,87871,aimee.bauer@tbeatty.com,$2b$12$bpb43usdypY4cVF1rL0vK.uBjkQNR579a9fJz8xw/A7wj2r68/GNq,(192) 666-3294
ObjectId("5e18a2e17c29a56f60fb1e63"),Carmen,Buckley,472 Faulkner Ave,Carlson Springs,ID,53783,carmen.buckley@tbeatty.com,$2b$12$bpb43usdypY4cVF1rL0vK.08QyBWLRgsPs/KQXo9x8Ud5iiQE4Cam,(491) 847-8023
ObjectId("5e18a2e17c29a56f60fb1e6e"),Marina,Wooten,621 Park Ave,Sharpe Lake,MI,61948,marina.wooten@tbeatty.com,$2b$12$bpb43usdypY4cVF1rL0vK.9FH3kYuvALr1Mh7X6kLa0M9NEcfq11G,(56) 909-3093
ObjectId("5e18a2e17c29a56f60fb1e89"),Brian,Kline,20 Cabrera Ct,Wynntown,UT,89598,brian.kline@tbeatty.com,$2b$12$bpb43usdypY4cVF1rL0vK.xNrx6w.iAiTHHieEOcY6Omxy.chn7.e,(658) 250-8424
ObjectId("5e18a2e17c29a56f60fb1e8c"),Hayden,Blackwell,76 Hudson Ct,Mcmahon Creek,TX,73756,hayden.blackwell@tbeatty.com,$2b$12$bpb43usdypY4cVF1rL0vK.1ZmPd21ncz1hpV7oSI1aUdSXfvcPtp6,(341) 303-2645
ObjectId("5e18a2e17c29a56f60fb1ec9"),Jaquan,Holcomb,892 Hernandez Ln,Mcclure Lake,CO,49881,jaquan.holcomb@tbeatty.com,$2b$12$bpb43usdypY4cVF1rL0vK.NzoHNwyVdNJfdRdW8v9zBRqHvqGi9n2,(223) 366-3511
ObjectId("5e18a2e17c29a56f60fb1e9b"),Sherry,O'neil,782 Bass Pass,Preston River,NV,86235,sherry.o'neil@tbeatty.com,$2b$12$bpb43usdypY4cVF1rL0vK.k3Yh.mGU26aa5lniddE3eEa8E69.gUq,(336) 496-9906
ObjectId("5e18a2e17c29a56f60fb1eb0"),Alexander,Stuart,410 Moran Ln,Jordanburg,VA,52116,alexander.stuart@tbeatty.com,$2b$12$bpb43usdypY4cVF1rL0vK.OZ26tzDZs2jZowJQQB7vPJ8MsDJzfYq,(235) 889-3324
ObjectId("5e18a2e17c29a56f60fb1eb8"),Tia,Mcdonald,350 Pate Cir,Ayala Fork,WV,71226,tia.mcdonald@tbeatty.com,$2b$12$bpb43usdypY4cVF1rL0vK..KV1ex4aeIYqExIoHxRAwU3dRFzXI56,(25) 352-7333
ObjectId("5e18a2e17c29a56f60fb1ec2"),Sharon,Sheppard,213 Wyatt Blvd,Grant Fork,OR,42235,sharon.sheppard@tbeatty.com,$2b$12$bpb43usdypY4cVF1rL0vK.F1zb8sr9cWGdglK7pAo4ChK1D7RRQGC,(937) 575-3646
ObjectId("5e18a2e17c29a56f60fb1eb7"),Genaro,Byrd,604 Glover Dr,Aguilar Fork,PA,53972,genaro.byrd@tbeatty.com,$2b$12$bpb43usdypY4cVF1rL0vK.35RXBAo2EnMBXleJvTaDOJybKxLvSW.,(131) 531-7990
ObjectId("5e18a2e17c29a56f60fb1ec5"),Celine,Salas,656 Chambers Way,Nelson City,MS,34921,celine.salas@tbeatty.com,$2b$12$bpb43usdypY4cVF1rL0vK.TO1uP8AtGOLxdhw/gT9YlLHFQIBf5WG,(626) 766-4040
ObjectId("5e18a2e17c29a56f60fb1e99"),Dennis,Haynes,723 Pruitt Ave,Mann Pond,UT,60016,dennis.haynes@tbeatty.com,$2b$12$bpb43usdypY4cVF1rL0vK.5qff.0IqTAgp6x1WXrOcxfZyJRD.53O,(749) 51-6106
ObjectId("5e18a2e17c29a56f60fb1ea0"),Arianna,Molina,298 Puckett Dr,Sears Creek,MO,14892,arianna.molina@tbeatty.com,$2b$12$bpb43usdypY4cVF1rL0vK.WiCsjtV8yojFbLa5b6I6pDZl4jfzmhy,(873) 42-3745
ObjectId("5e18a2e17c29a56f60fb1eaf"),Lazaro,Bright,750 Fernandez Dr,Walker Fork,KS,80171,lazaro.bright@tbeatty.com,$2b$12$bpb43usdypY4cVF1rL0vK.GOTU4.yKNfEKIeIxh9L.745SlCbnCm6,(82) 352-5988
ObjectId("5e18a2e17c29a56f60fb1eb1"),Armando,Bradshaw,280 Parsons St,Rivers Island,SD,51676,armando.bradshaw@tbeatty.com,$2b$12$bpb43usdypY4cVF1rL0vK.Y4O2ebRSMgQyrdgvhwoQLnn0aTG5ZD2,(96) 837-4208
ObjectId("5e18a2e17c29a56f60fb1ebd"),Moses,Whitney,753 Campos Pass,Solis Bridge,OH,56412,moses.whitney@tbeatty.com,$2b$12$bpb43usdypY4cVF1rL0vK.qC311wgxG7RXtcRjMQS.xJxdWneIpzW,(663) 404-3495
ObjectId("5e18a2e17c29a56f60fb1ea2"),Dimitri,Newton,233 Martinez Ct,Donaldsonmont,RI,91669,dimitri.newton@tbeatty.com,$2b$12$bpb43usdypY4cVF1rL0vK.3FPMIVM.G5wyGavm5LoZzmOp06ISBZa,(945) 53-1687
ObjectId("5e18a2e17c29a56f60fb1ed6"),Shanna,Lott,457 Francis Ln,Joyce Valley,DC,33861,shanna.lott@tbeatty.com,$2b$12$bpb43usdypY4cVF1rL0vK.QXKGy9JAN.cxW7/7pZRX/sYbczh8u9q,(505) 305-9082
ObjectId("5e18a2e17c29a56f60fb1eae"),Ramiro,Carver,214 Greer St,Schwartz River,ND,66995,ramiro.carver@tbeatty.com,$2b$12$bpb43usdypY4cVF1rL0vK.lyglTmYqreaag8K5c3x8dwaQQ5Xegp6,(301) 698-4624
ObjectId("5e18a2e17c29a56f60fb1eb4"),Julianna,Golden,737 Daniel Ave,Barr River,OH,47322,julianna.golden@tbeatty.com,$2b$12$bpb43usdypY4cVF1rL0vK.YsZsFLX/kbN9bNbG10vzFtpOyhPljQS,(63) 83-7404
ObjectId("5e18a2e17c29a56f60fb1ed2"),Keanu,Burris,833 Barrera Blvd,Stoneburg,ME,67206,keanu.burris@tbeatty.com,$2b$12$bpb43usdypY4cVF1rL0vK.JkAvt0dOhyWrLDqk/Jv4LC0B/qzN9L6,(549) 410-3276
ObjectId("5e18a2e17c29a56f60fb1ea1"),Sheena,Paul,473 Orr Ct,Farrell River,ID,55875,sheena.paul@tbeatty.com,$2b$12$bpb43usdypY4cVF1rL0vK.SvuLnOGu6P7lEkxAifL5i4eOBYAXWA.,(454) 724-8560
ObjectId("5e18a2e17c29a56f60fb1eac"),Tory,Beard,382 House Rd,Sweeney Springs,GA,69682,tory.beard@tbeatty.com,$2b$12$bpb43usdypY4cVF1rL0vK.HP3mYVOm5vuyvUv8/WiVzh6ycCeuGz.,(124) 112-7742
ObjectId("5e18a2e17c29a56f60fb1ea7"),Isidro,Reid,957 Patrick Ct,Flynn Valley,WY,45537,isidro.reid@tbeatty.com,$2b$12$bpb43usdypY4cVF1rL0vK.HggXml6.gp/waksKAM24lPW25Bd42cW,(275) 160-1853
ObjectId("5e18a2e17c29a56f60fb1eb5"),Stuart,Conway,370 Colon Blvd,Roach Island,IA,85787,stuart.conway@tbeatty.com,$2b$12$bpb43usdypY4cVF1rL0vK./pDZoP2oqxr3e8pHR0mpVAOAy9GRTna,(591) 277-8864
ObjectId("5e18a2e17c29a56f60fb1ed3"),Mason,Fletcher,900 Knowles St,Cantu River,NE,40428,mason.fletcher@tbeatty.com,$2b$12$bpb43usdypY4cVF1rL0vK.M4bHzlC6PXxo7lzqfTZ9rCMEbxBPace,(590) 727-4017
ObjectId("5e18a2e17c29a56f60fb1ec3"),Forest,Mclean,698 Henry Dr,Jennings Valley,IL,95989,forest.mclean@tbeatty.com,$2b$12$bpb43usdypY4cVF1rL0vK.Vyw8xbcynpTDgzvVt7On6T/1gqxhOLe,(605) 755-2713
ObjectId("5e18a2e17c29a56f60fb1ed0"),Dimitri,Hart,5 Bass Rd,Gonzaleztown,NH,51591,dimitri.hart@tbeatty.com,$2b$12$bpb43usdypY4cVF1rL0vK.ieC3cvm98zG1KeVzJ14IBMwXoJ3mbbG,(396) 339-9640
ObjectId("5e18a2e17c29a56f60fb1ecd"),Silvia,Stevens,753 Lyons Ln,Gardner Creek,MO,56032,silvia.stevens@tbeatty.com,$2b$12$bpb43usdypY4cVF1rL0vK.id4JktlfJ1R4f3ViHwIql//ONDzjYxO,(610) 309-5407
ObjectId("5e18a2e17c29a56f60fb1ed4"),Dominique,Woodward,282 Evans Ln,Spencer River,KS,47421,dominique.woodward@tbeatty.com,$2b$12$bpb43usdypY4cVF1rL0vK.Tpkntgbs.jX.NpP1ZP1zavLgufwyVTi,(455) 766-4534
ObjectId("5e18a2e17c29a56f60fb1e9f"),Roxanne,Diaz,975 Gray Dr,Santana Springs,ME,52409,roxanne.diaz@tbeatty.com,$2b$12$bpb43usdypY4cVF1rL0vK.Gh6kSlt58Xi8uMCsBdbpDOOn6xsnL9K,(600) 681-8430
ObjectId("5e18a2e17c29a56f60fb1ea6"),Latoya,Flowers,724 Morrow St,Whitney Bridge,MT,96572,latoya.flowers@tbeatty.com,$2b$12$bpb43usdypY4cVF1rL0vK.AjJmD8tF97dJKiXV6uM1Qb5x1AR7UxK,(252) 548-4006
ObjectId("5e18a2e17c29a56f60fb1ebb"),Kaylie,Kemp,59 Swanson Rd,Mack City,NM,71970,kaylie.kemp@tbeatty.com,$2b$12$bpb43usdypY4cVF1rL0vK.6S6eo..V1Cyd3tQNN46hAGn6.GPcRNC,(216) 781-6328
ObjectId("5e18a2e17c29a56f60fb1ebf"),Rochelle,Wiley,635 England Ct,Kim Valley,MA,38407,rochelle.wiley@tbeatty.com,$2b$12$bpb43usdypY4cVF1rL0vK.4XHsQCdS3.sPI8wp4WnKPgHEUePclcC,(67) 829-2422
ObjectId("5e18a2e17c29a56f60fb1ec0"),Clarence,Whitfield,286 Dixon Cir,Pickett River,CA,69423,clarence.whitfield@tbeatty.com,$2b$12$bpb43usdypY4cVF1rL0vK.U/UbtyLWFfdXl/2g4zSojVJVmNswTYe,(139) 25-3783
ObjectId("5e18a2e17c29a56f60fb1ec4"),Genaro,Ratliff,228 Shelton Way,Paul River,MT,79534,genaro.ratliff@tbeatty.com,$2b$12$bpb43usdypY4cVF1rL0vK.O.ceRtfkP5EXR8lM2HZrnd26g2gmEXS,(726) 495-4534
ObjectId("5e18a2e17c29a56f60fb1eca"),Ayla,Mullins,953 Buchanan Blvd,Small River,SD,66480,ayla.mullins@tbeatty.com,$2b$12$bpb43usdypY4cVF1rL0vK.svm9vCtifPxLt9InDoOdAPRNLbXjApS,(848) 471-6852
ObjectId("5e18a2e17c29a56f60fb1ed1"),Suzette,Vampire,570 Herrera Blvd,Richmond Valley,VT,33395,bloodsucker@tbeatty.com,$2b$12$bpb43usdypY4cVF1rL0vK.Hhe9OTnQpLIZk4vHXmWiFMLKr4RoEKu,(801) 555-1212
ObjectId("5e18a2e17c29a56f60fb1eb9"),Malia,Stevenson,213 Pratt Blvd,Dawson Springs,NH,59025,malia.stevenson@tbeatty.com,$2b$12$bpb43usdypY4cVF1rL0vK.qtVfTARY5CqrI9Qnz5yu9nGy..QAUxq,(328) 914-8982
ObjectId("5e18a2e17c29a56f60fb1eb2"),Jack,Buchanan,960 Martinez Dr,Ewing Bridge,OH,17288,jack.buchanan@tbeatty.com,$2b$12$bpb43usdypY4cVF1rL0vK.8gGZLq1UvkxzJmYQkuBo3g544hBfXUO,(121) 111-7186
ObjectId("5e18a2e17c29a56f60fb1ebc"),Marques,Beattie,843 Riggs Ct,O'neill Pond,AR,38180,marques.beattie@tbeatty.com,$2b$12$bpb43usdypY4cVF1rL0vK.3uhOYodX57.iq9doysm/dP6VdVaBnMS,(138) 702-2134
ObjectId("5e18a2e17c29a56f60fb1ebe"),Paloma,Baker,199 Foley Ct,Hester Creek,TN,73519,paloma.baker@tbeatty.com,$2b$12$bpb43usdypY4cVF1rL0vK.bYS6bHDH0pYnboJ1Q117PZQrTuD5mdO,(701) 342-9004
ObjectId("5e18a2e17c29a56f60fb1ecc"),Lisa,Lee,715 Pruitt Way,Salinas River,WY,64537,lisa.lee@tbeatty.com,$2b$12$bpb43usdypY4cVF1rL0vK.Als6G2bLHQeO1ZwCMN8lBaqnvsr0SRu,(856) 171-3342
ObjectId("5e18a2e17c29a56f60fb1ec6"),Sara,Russo,542 Luna Way,Hensley Island,RI,24085,sara.russo@tbeatty.com,$2b$12$bpb43usdypY4cVF1rL0vK.uMe7IpN4qrfCWe/bZjm21jZMxpKN1Vq,(167) 306-5051
ObjectId("5e18a2e17c29a56f60fb1ec8"),Rhett,Sheppard,404 Alvarez St,Boyle River,ND,18393,rhett.sheppard@tbeatty.com,$2b$12$bpb43usdypY4cVF1rL0vK.6yLqDraz.A8ZTd6Lf8vpE9ZQvBGmlF6,(285) 853-7999
ObjectId("5e18a2e17c29a56f60fb1ead"),Jalisa,Allison,898 Sosa Ave,Pratt City,VT,69951,jalisa.allison@tbeatty.com,$2b$12$bpb43usdypY4cVF1rL0vK.ueyjSGWY2oDapv5d21s05NcyN/hx6M2,(752) 234-2807
ObjectId("5e18a2e17c29a56f60fb1ec7"),Aric,Moreno,921 Wise Ct,Little Lake,SD,31447,aric.moreno@tbeatty.com,$2b$12$bpb43usdypY4cVF1rL0vK.v0c/VU/Dq5eTAi1sqW0DOgI6/oZefvy,(183) 561-1787
ObjectId("5e18a2e17c29a56f60fb1ecf"),Tracy,Riddle,349 Wolfe Ct,Atkinsmont,IN,13028,tracy.riddle@tbeatty.com,$2b$12$bpb43usdypY4cVF1rL0vK.9Yh7a7WgZGSeE2JtVZoh97cAZFMk5Oi,(51) 43-8472
ObjectId("5e18a2e17c29a56f60fb1e9a"),Susana,Mayo,530 Cabrera Ln,Travis Fork,WV,61767,susana.mayo@tbeatty.com,$2b$12$bpb43usdypY4cVF1rL0vK.bR09OA75w38fvIK94JVWkHZ73r6WBqG,(19) 753-8750
ObjectId("5e18a2e17c29a56f60fb1eaa"),Cade,Mack,261 Cross Way,Chase Springs,NV,61628,cade.mack@tbeatty.com,$2b$12$bpb43usdypY4cVF1rL0vK.yBYJGc7mjbLxYHgm1wX940JY7QaYhDK,(333) 665-9993
ObjectId("5e18a2e17c29a56f60fb1eab"),Kaitlin,Richards,887 Gross St,Holden Island,NH,50315,kaitlin.richards@tbeatty.com,$2b$12$bpb43usdypY4cVF1rL0vK.5m.w/FSYXhkSIh.VDbCmuz/tdg.MDPq,(185) 709-6821
ObjectId("5e18a2e17c29a56f60fb1ed5"),Stefan,Terrell,225 Russell Way,Sparks Fork,KS,10826,stefan.terrell@tbeatty.com,$2b$12$bpb43usdypY4cVF1rL0vK.ANmv86owcbPDMOn34n3GiSNPy0yO0/e,(486) 321-8513
ObjectId("5e18a2e17c29a56f60fb1e9d"),Ellis,Hall,751 Griffith Ln,Wall Pond,MA,14520,ellis.hall@tbeatty.com,$2b$12$bpb43usdypY4cVF1rL0vK.nYg4QYFmq/UpKc1onVDXxTktXw1B2xe,(25) 399-6001
ObjectId("5e18a2e17c29a56f60fb1e9e"),Gianna,Mccullough,572 Zamora Dr,Schmidtburg,ID,17806,gianna.mccullough@tbeatty.com,$2b$12$bpb43usdypY4cVF1rL0vK.YCh7vrdLs4QRBhoN/zoiN42TXtCAxBi,(389) 928-4075
ObjectId("5e18a2e17c29a56f60fb1ea9"),Skylar,Woodward,337 Pugh Ct,Rhodes Island,ND,25779,skylar.woodward@tbeatty.com,$2b$12$bpb43usdypY4cVF1rL0vK.DlTSRPEb..VDXtQCFkTnkYDQA3LnErm,(504) 134-7055
ObjectId("5e18a2e17c29a56f60fb1eb3"),Xavier,Trevino,340 Rush Way,Jacobson Bridge,MN,68138,xavier.trevino@tbeatty.com,$2b$12$bpb43usdypY4cVF1rL0vK.9L/xkHCm72mMWazTrs3oi5ob95J40o6,(64) 991-6991
ObjectId("5e18a2e17c29a56f60fb1ecb"),Jenny,Durham,339 Terry Cir,Burton City,MD,43173,jenny.durham@tbeatty.com,$2b$12$bpb43usdypY4cVF1rL0vK.UgV5zZGXff9PhU44LzlBnWOlX3urYMW,(462) 994-2847
ObjectId("5e18a2e17c29a56f60fb1ece"),Ellen,Cameron,953 Glass Pass,Clay Valley,WA,99596,ellen.cameron@tbeatty.com,$2b$12$bpb43usdypY4cVF1rL0vK.8uBmA1l.u9YlH/TgoOBS1RVOegj0GQu,(581) 459-4142
ObjectId("5e18a2e17c29a56f60fb1ed7"),Michael,Duke,233 Villarreal Ct,Orr City,RI,56836,michael.duke@tbeatty.com,$2b$12$bpb43usdypY4cVF1rL0vK.49uteuzQO4/T6KCePpRyCm8Z.kBCwk2,(611) 454-4010
ObjectId("5e18a2e17c29a56f60fb1ed8"),Gunner,Osborn,584 Pace Ct,Perez Valley,UT,26157,gunner.osborn@tbeatty.com,$2b$12$bpb43usdypY4cVF1rL0vK.3FOCvA1pJ5nphsphXh25Chx9sjZmWgi,(895) 111-5835
ObjectId("5e18a2e17c29a56f60fb1ea4"),Erik,Wiley,854 Sexton Blvd,Wiggins Pond,AR,63553,erik.wiley@tbeatty.com,$2b$12$bpb43usdypY4cVF1rL0vK.BT2EB1yaxR2Wb9n1eQqGTwMPcc6KQse,(90) 933-1964
ObjectId("5e18a2e17c29a56f60fb1ea5"),Arianna,Estrada,506 Wheeler Blvd,Sawyermont,WI,45201,arianna.estrada@tbeatty.com,$2b$12$bpb43usdypY4cVF1rL0vK.t1euz/2iowgvHi.ta6Z1FOQbv0N1jjO,(559) 972-1410
ObjectId("5e18a2e17c29a56f60fb1ea8"),Madalyn,Pennington,157 Craft Ave,Woodard Lake,WV,56856,madalyn.pennington@tbeatty.com,$2b$12$bpb43usdypY4cVF1rL0vK.lOB0SZgnKc3gU90DtxtbtWbWnfxiwQm,(17) 836-7453
ObjectId("5e18a2e17c29a56f60fb1eb6"),Lester,Powell,531 Cooley Pass,Caldwell Creek,ID,99045,lester.powell@tbeatty.com,$2b$12$bpb43usdypY4cVF1rL0vK.wk9qDp96qgZuuWNTIuwwE0dJEuvgBdG,(543) 769-3716
ObjectId("5e18a2e17c29a56f60fb1eba"),Noe,Malone,970 Barry Blvd,Combstown,CA,67721,noe.malone@tbeatty.com,$2b$12$bpb43usdypY4cVF1rL0vK.Ujqp.UQ9F3IxKE8R8WWMjBbfeznq6r6,(507) 26-7856
ObjectId("5e18a2e17c29a56f60fb1e9c"),Aisha,Klein,300 Delgado Dr,Ortega Lake,IA,18411,aisha.klein@tbeatty.com,$2b$12$bpb43usdypY4cVF1rL0vK.MQC0FhUzvJZcNAJ.cHyyFb1QN/59.Iq,(940) 156-2078
ObjectId("5e18a2e17c29a56f60fb1ea3"),Tristen,West,717 Walter Cir,Hancock Lake,NV,64774,tristen.west@tbeatty.com,$2b$12$bpb43usdypY4cVF1rL0vK.ZeFBmcPYYALOzNry7BFjTt2O2Ek0d7a,(998) 87-3923
ObjectId("5e18a2e17c29a56f60fb1ec1"),Krista,Wiley,58 Mayer Pass,Winters City,KY,79307,krista.wiley@tbeatty.com,$2b$12$bpb43usdypY4cVF1rL0vK.398YdyNLDopVCiqG7nV59pFH8woAeVe,(361) 757-9421
ObjectId("5e18a2e17c29a56f60fb1efe"),Trisha,Mcclure,748 Reid Ave,Tyler Island,WV,76562,trisha.mcclure@tbeatty.com,$2b$12$bpb43usdypY4cVF1rL0vK.y.Q09BVKplFv5Vxx0w3RsRcH6n3ErFG,(608) 267-4355
ObjectId("5e18a2e17c29a56f60fb1ed9"),Carter,Haney,435 Lawrence Ct,Arnold Pond,RI,16161,carter.haney@tbeatty.com,$2b$12$bpb43usdypY4cVF1rL0vK.Vf5J8MbSYWmtdL/5PWVYva7BpT4aDtK,(381) 100-2112
ObjectId("5e18a2e17c29a56f60fb1f03"),Sage,Mckee,272 Howard Ln,Brown Island,FL,36251,sage.mckee@tbeatty.com,$2b$12$bpb43usdypY4cVF1rL0vK.NAPJpSDxu9i7Zz7I95BTbaSJ1gBWxy6,(629) 0-5834
ObjectId("5e18a2e17c29a56f60fb1f1c"),Shea,Shields,285 Downs Dr,Hoover Creek,PA,82085,shea.shields@tbeatty.com,$2b$12$bpb43usdypY4cVF1rL0vK.8p30RzOSOCjfcADYaBGUUHbfV/Fvswe,(231) 388-9203
ObjectId("5e18a2e17c29a56f60fb1f2d"),Jerod,Avila,910 Buchanan Rd,Hinton Bridge,IN,53377,jerod.avila@tbeatty.com,$2b$12$bpb43usdypY4cVF1rL0vK.65VKulBEeRL8wmfS.LazV5VEKTJVE6q,(955) 281-6143
ObjectId("5e18a2e17c29a56f60fb1f3c"),Terrence,Shannon,703 Sharpe Dr,Holdenmont,AL,93808,terrence.shannon@tbeatty.com,$2b$12$bpb43usdypY4cVF1rL0vK.jrGv3Ai8lseEjjOfjKzi0/Ii5AN36rW,(56) 408-6446
ObjectId("5e18a2e17c29a56f60fb1f5e"),Kaden,Fleming,903 Duke Rd,Flowersmont,MD,88103,kaden.fleming@tbeatty.com,$2b$12$bpb43usdypY4cVF1rL0vK.c61mlPBtw6ZadWepsdWnCXDSPUk5j8G,(625) 89-1845
ObjectId("5e18a2e17c29a56f60fb1f9c"),Esteban,Estrada,279 Terry Ct,Price River,WY,41297,esteban.estrada@tbeatty.com,$2b$12$bpb43usdypY4cVF1rL0vK.G6VBDpFkJRhxvJtL9lW1b2p5Tite2.u,(131) 675-4719
ObjectId("5e18a2e17c29a56f60fb1f9f"),Jamal,Serrano,613 Sykes Ct,Coffey Lake,AL,15695,jamal.serrano@tbeatty.com,$2b$12$bpb43usdypY4cVF1rL0vK.eTniJqg4Dv.XB5wSo0z0uV33g5nm5/K,(791) 510-1871
ObjectId("5e18a2e17c29a56f60fb1fab"),Whitney,Mueller,589 Sykes Rd,Simpson Bridge,MS,63565,whitney.mueller@tbeatty.com,$2b$12$bpb43usdypY4cVF1rL0vK.kXXrHBmqGm2SkEtosgRXH3thnJ0p2cu,(955) 678-2864
ObjectId("5e18a2e17c29a56f60fb1fb5"),Angelina,Cash,399 Ratliff Dr,Weissmont,GA,71116,angelina.cash@tbeatty.com,$2b$12$bpb43usdypY4cVF1rL0vK.kLepkokDwckbVGV35EpuhXQHgoiSBy6,(76) 465-9187
ObjectId("5e18a2e17c29a56f60fb1fc1"),Laurie,Prince,171 Colon Way,Hammond Fork,NH,81263,laurie.prince@tbeatty.com,$2b$12$bpb43usdypY4cVF1rL0vK.qM1wiUKhwLo/DL0xg6qqegFc7lHWbQy,(780) 195-1500
ObjectId("5e18a2e17c29a56f60fb1fc4"),Antoine,Miller,678 Hogan Ct,Burkeville,MN,27230,antoine.miller@tbeatty.com,$2b$12$bpb43usdypY4cVF1rL0vK.TniW/hy/Qo/xiua/i05m0DtfAaeVcbO,(79) 975-2197
ObjectId("5e18a2e17c29a56f60fb1fcc"),Mikayla,Miller,664 Myers Dr,Carlson Springs,MT,45386,mikayla.miller@tbeatty.com,$2b$12$bpb43usdypY4cVF1rL0vK.neo7GEU65d.3McpwqhlExIom0Qzu83G,(982) 394-2173
ObjectId("5e18a2e17c29a56f60fb1ee4"),Clarissa,Crosby,953 O'neil Cir,Jackson Creek,WY,10674,clarissa.crosby@tbeatty.com,$2b$12$bpb43usdypY4cVF1rL0vK.Xw44EJwOmi0RZAjDtvZQzA3WRBxdzA6,(478) 441-7063
ObjectId("5e18a2e17c29a56f60fb1eea"),Karissa,Mcneil,791 Parks Rd,Pollardville,MA,91525,karissa.mcneil@tbeatty.com,$2b$12$bpb43usdypY4cVF1rL0vK.aEPnfZj9hss0XSSZOvDKOhx1cWYhZGO,(108) 270-5750
ObjectId("5e18a2e17c29a56f60fb1f06"),Isai,Burch,12 Howell Ct,Leblanc Pond,NV,69873,isai.burch@tbeatty.com,$2b$12$bpb43usdypY4cVF1rL0vK.JSpCuhBTp2ptKoUsyvqKaC/tCi2U59i,(84) 565-8170
ObjectId("5e18a2e17c29a56f60fb1f18"),Lyle,Gould,401 Collins Way,Ramseytown,KY,81468,lyle.gould@tbeatty.com,$2b$12$bpb43usdypY4cVF1rL0vK.I7mHtvS.iQU99pU5pKfa1bAYgfwR9BS,(303) 783-4527
ObjectId("5e18a2e17c29a56f60fb1f28"),Oliver,Hines,594 Randall Ct,Estesburg,MD,42384,oliver.hines@tbeatty.com,$2b$12$bpb43usdypY4cVF1rL0vK.m5XhrGHtKXOq9UehefwX0WYDrB84zce,(960) 404-9353
ObjectId("5e18a2e17c29a56f60fb1f2a"),Kayla,Head,758 Randolph Cir,Keymont,DE,35893,kayla.head@tbeatty.com,$2b$12$bpb43usdypY4cVF1rL0vK.QjHhO3xhwa/vqOWqFD9n0o7Oqh5QWZ2,(530) 85-2847
ObjectId("5e18a2e17c29a56f60fb1f36"),Racheal,Benjamin,427 Patterson Way,Goodwinmont,CO,22176,racheal.benjamin@tbeatty.com,$2b$12$bpb43usdypY4cVF1rL0vK.A35eglbhNzOOAWIelJLYzMI/iw.PBxG,(10) 610-3799
ObjectId("5e18a2e17c29a56f60fb1f43"),Desirae,Barber,675 Munoz Ct,Kelley Springs,WV,43105,desirae.barber@tbeatty.com,$2b$12$bpb43usdypY4cVF1rL0vK.QbZE6qpl4UoYZA2rQo1TQhBB/GmH8XK,(232) 412-5899
ObjectId("5e18a2e17c29a56f60fb1f51"),Darrien,Gill,754 Roberson St,Trantown,AL,89280,darrien.gill@tbeatty.com,$2b$12$bpb43usdypY4cVF1rL0vK.j1Qy6bGe3LGwHekpxGmG.ZvXKgvWhsC,(808) 976-4651
ObjectId("5e18a2e17c29a56f60fb1f53"),Maira,Cash,224 Cameron Pass,Burt Springs,WY,80696,maira.cash@tbeatty.com,$2b$12$bpb43usdypY4cVF1rL0vK.TzTllVndDbBIKk50tmoElPUgqSNZkje,(808) 166-4956
ObjectId("5e18a2e17c29a56f60fb1f61"),Sofia,Dominguez,119 Jarvis Blvd,Lucasville,TN,17735,sofia.dominguez@tbeatty.com,$2b$12$bpb43usdypY4cVF1rL0vK.JvBPexoFBpC7JMYSHREcjwFOHG.OkzG,(303) 523-1798
ObjectId("5e18a2e17c29a56f60fb1f6f"),Kierra,Ramos,491 Gilbert Blvd,Kelly River,CO,25669,kierra.ramos@tbeatty.com,$2b$12$bpb43usdypY4cVF1rL0vK.coDOaWTbeJH8j/ijpwZ.pM6nfl5ExRm,(585) 209-2585
ObjectId("5e18a2e17c29a56f60fb1f7e"),Griffin,Mcdowell,536 Duke Ct,Phillips Island,CO,94110,griffin.mcdowell@tbeatty.com,$2b$12$bpb43usdypY4cVF1rL0vK.wS6tE.7JZVa.EwFfl6lhJFj0SvW4qDG,(928) 547-5157
ObjectId("5e18a2e17c29a56f60fb1f82"),Avery,Burt,204 Murray Ln,Hornmont,OR,96303,avery.burt@tbeatty.com,$2b$12$bpb43usdypY4cVF1rL0vK.MgR947SgxO/f1aseK6uewiHBXzbr/le,(645) 85-3563
ObjectId("5e18a2e17c29a56f60fb1f95"),Nickolas,Blake,48 Forbes Cir,Brockville,SD,18969,nickolas.blake@tbeatty.com,$2b$12$bpb43usdypY4cVF1rL0vK.dS1PaJJG4mT5vP/sfbQii31OQxIY6Vu,(652) 158-8289
ObjectId("5e18a2e17c29a56f60fb1fa0"),Bernard,Snow,555 Cervantes Pass,Jenkins Creek,ID,88582,bernard.snow@tbeatty.com,$2b$12$bpb43usdypY4cVF1rL0vK.itQEKalBeempOo1W1XCsmoYAZldZVg.,(743) 798-3422
ObjectId("5e18a2e17c29a56f60fb1fa2"),Bonnie,Morrow,881 Williams Dr,Craig Fork,NY,81288,bonnie.morrow@tbeatty.com,$2b$12$bpb43usdypY4cVF1rL0vK.FG4DWR7d/mmlNfaATi6Fny59LARvvf2,(342) 384-7987
ObjectId("5e18a2e17c29a56f60fb1fae"),Tyson,Mullins,189 Vargas Way,Paul Fork,KS,40975,tyson.mullins@tbeatty.com,$2b$12$bpb43usdypY4cVF1rL0vK.pZT4l/CWn4Zkrffo2Xcz9YMMkaF/bjW,(321) 843-7031
ObjectId("5e18a2e17c29a56f60fb1fc5"),Marcos,Gamble,386 Molina Ln,Spencer Pond,AL,49587,marcos.gamble@tbeatty.com,$2b$12$bpb43usdypY4cVF1rL0vK.gXgh1A2v1fRp2iVavoMZFdY59U2dLfi,(290) 325-5707
ObjectId("5e18a2e17c29a56f60fb1ee2"),Shaun,Brock,945 Clay Rd,Holman Creek,WI,74405,shaun.brock@tbeatty.com,$2b$12$bpb43usdypY4cVF1rL0vK.fOHlv2bOJcD7uxszZJik5jaUo12GGEy,(634) 749-8515
ObjectId("5e18a2e17c29a56f60fb1ee6"),Lena,Scott,295 Boyle Ave,Spenceville,LA,87353,lena.scott@tbeatty.com,$2b$12$bpb43usdypY4cVF1rL0vK.EiRML819laDYElGUXLFRWZl93gx14Mm,(874) 179-5196
ObjectId("5e18a2e17c29a56f60fb1f0c"),Alisa,Christian,726 Mckenzie Blvd,Bruce Bridge,NV,83176,alisa.christian@tbeatty.com,$2b$12$bpb43usdypY4cVF1rL0vK.23FLYx9uIHSma6qyseONMiWFh0G30py,(457) 718-5447
ObjectId("5e18a2e17c29a56f60fb1f11"),Deanna,Macias,962 Joseph Ln,Harper Pond,WY,80623,deanna.macias@tbeatty.com,$2b$12$bpb43usdypY4cVF1rL0vK.f/MEukYjsNYixiWxBDxuYnVAvCsMqHy,(560) 932-9244
ObjectId("5e18a2e17c29a56f60fb1f38"),Noemi,Underwood,844 Olsen Ct,Trujillo Creek,NE,23361,noemi.underwood@tbeatty.com,$2b$12$bpb43usdypY4cVF1rL0vK.fNya2aYDqK1kFHnwB/JGnCKBl17OrJ2,(919) 385-8605
ObjectId("5e18a2e17c29a56f60fb1f41"),Athena,Prince,237 Mitchell Ave,Macdonald Creek,NE,37526,athena.prince@tbeatty.com,$2b$12$bpb43usdypY4cVF1rL0vK.cdG8ZsFIty/6gyWwbi2y8X1C/1Jbbn6,(706) 211-6338
ObjectId("5e18a2e17c29a56f60fb1f69"),Donnie,Lopez,234 Day Blvd,Love Springs,MA,53168,donnie.lopez@tbeatty.com,$2b$12$bpb43usdypY4cVF1rL0vK.7zEOlc5dxsFn2rThcPaa3Z14lNPua1C,(863) 846-9843
ObjectId("5e18a2e17c29a56f60fb1f70"),Ramon,Doyle,863 Guerra Way,Olsen Springs,VT,72462,ramon.doyle@tbeatty.com,$2b$12$bpb43usdypY4cVF1rL0vK.HyiDCda/sZuYvkN130wT9I2/vT5Fz4e,(54) 237-5107
ObjectId("5e18a2e17c29a56f60fb1f72"),Roderick,Warren,846 Hooper St,Warner Fork,TN,33510,roderick.warren@tbeatty.com,$2b$12$bpb43usdypY4cVF1rL0vK.HLoa.r4GPeNctc0VuCk3q1Wd3f8ozde,(438) 800-3071
ObjectId("5e18a2e17c29a56f60fb1f7d"),Juanita,Trevino,418 Patton Way,Mcneilburg,PA,11938,juanita.trevino@tbeatty.com,$2b$12$bpb43usdypY4cVF1rL0vK.vzpkFirZC4MsoxYZScYdRUAXV41g/16,(288) 758-9543
ObjectId("5e18a2e17c29a56f60fb1f8c"),Hans,Cleveland,672 Bartlett Cir,Keith Bridge,WV,68160,hans.cleveland@tbeatty.com,$2b$12$bpb43usdypY4cVF1rL0vK.ZOHDJFClXM1LOxMLcQF0x1wegSAYHRG,(606) 216-2420
ObjectId("5e18a2e17c29a56f60fb1fb0"),Gabriel,Tillman,305 Patel Blvd,Beach Fork,VA,24425,gabriel.tillman@tbeatty.com,$2b$12$bpb43usdypY4cVF1rL0vK.pKaUAWDqh4t7QR1VUP66QTKGu07Gg5u,(524) 616-4963
ObjectId("5e18a2e17c29a56f60fb1fb7"),Kristine,Collier,94 Mckinney Ln,Rocha City,MA,72200,kristine.collier@tbeatty.com,$2b$12$bpb43usdypY4cVF1rL0vK.LpO/oG8Kl5PJZVWIoyxtxyC1HY1V6m6,(253) 634-7594
ObjectId("5e18a2e17c29a56f60fb1eff"),Arthur,Pate,555 Blair Pass,Olsen Island,TN,27112,arthur.pate@tbeatty.com,$2b$12$bpb43usdypY4cVF1rL0vK.IVK.GlymreoX9txxSIGdMoI.Mg6NIZu,(63) 427-9744
ObjectId("5e18a2e17c29a56f60fb1f02"),Stephan,Bishop,788 Hatfield Cir,Harrington Fork,NE,29922,stephan.bishop@tbeatty.com,$2b$12$bpb43usdypY4cVF1rL0vK.SBcsnox9Sy91xH8ae4nx1rp/pQ71KIG,(537) 39-6648
ObjectId("5e18a2e17c29a56f60fb1f14"),Alyson,Mcfadden,154 Sexton Ct,Powersville,VA,74788,alyson.mcfadden@tbeatty.com,$2b$12$bpb43usdypY4cVF1rL0vK.MDjVM1dgGPvdDiqi6A2qLdt1ouRjGaW,(423) 739-7938
ObjectId("5e18a2e17c29a56f60fb1f2e"),Mathew,Phelps,8 Barnett Way,Nicholson Valley,HI,92398,mathew.phelps@tbeatty.com,$2b$12$bpb43usdypY4cVF1rL0vK.yzPVRyBrTv3bPYF5hdFVWkgm.BxaH2G,(133) 930-8821
ObjectId("5e18a2e17c29a56f60fb1f39"),Samson,Ellis,492 Decker Ct,Blackwellburg,MT,53517,samson.ellis@tbeatty.com,$2b$12$bpb43usdypY4cVF1rL0vK.SS03zTvXM.njaNsk65Y6dG2ifRuuPxu,(508) 436-6453
ObjectId("5e18a2e17c29a56f60fb1f54"),Katherine,Cote,941 Boone Cir,Workman Valley,WV,50908,katherine.cote@tbeatty.com,$2b$12$bpb43usdypY4cVF1rL0vK.jS5hNnc//IiSu3xR4fx1jNe1TO2BZnC,(86) 34-9750
ObjectId("5e18a2e17c29a56f60fb1f84"),Neal,Mueller,333 Campbell Cir,Ramos River,KY,98076,neal.mueller@tbeatty.com,$2b$12$bpb43usdypY4cVF1rL0vK.9rLIwqSYiO0Vox4wSayxOFtoQyDP6dK,(45) 100-9363
ObjectId("5e18a2e17c29a56f60fb1fa6"),Angela,Suarez,108 Rivers Dr,Reynolds Fork,ME,78803,angela.suarez@tbeatty.com,$2b$12$bpb43usdypY4cVF1rL0vK.qT5YDco7veQ7Dh3DuyB63LNE4uwDEgy,(90) 554-3125
ObjectId("5e18a2e17c29a56f60fb1fbd"),Hakeem,Bush,143 Valenzuela Ln,Mercado Creek,CO,79909,hakeem.bush@tbeatty.com,$2b$12$bpb43usdypY4cVF1rL0vK.A/DlSJBT/TiSrBS4KeGz82UeF1frbYe,(502) 553-5713
ObjectId("5e18a2e17c29a56f60fb1fc0"),Dulce,Vega,49 Pope Ave,Parker Island,MD,87489,dulce.vega@tbeatty.com,$2b$12$bpb43usdypY4cVF1rL0vK.wLTgO/oM3ASkRf4vMNx7mQjGG7.92cG,(443) 696-5028
ObjectId("5e18a2e17c29a56f60fb1fc9"),Keishla,Stout,933 Graves St,Grant Fork,MN,89522,keishla.stout@tbeatty.com,$2b$12$bpb43usdypY4cVF1rL0vK.498u2L418AoWrpWs1OK.zujAUXMdpmC,(400) 202-2121
ObjectId("5e18a2e17c29a56f60fb1fce"),Anais,Mcguire,78 Stewart Ave,Gutierrez Bridge,OR,13017,anais.mcguire@tbeatty.com,$2b$12$bpb43usdypY4cVF1rL0vK.uhaW70Vwl3DR0kxH5OOLVUJsLfQuoi2,(465) 182-9594
ObjectId("5e18a2e17c29a56f60fb1fd0"),Jaylon,Mcpherson,969 Talley Pass,Hahn Lake,LA,73935,jaylon.mcpherson@tbeatty.com,$2b$12$bpb43usdypY4cVF1rL0vK.JD0v5xWN2CMsiP4KbSr.f/YjZV4/QFS,(630) 930-1146
ObjectId("5e18a2e17c29a56f60fb1ee5"),Colten,Baird,558 Newton Ct,Deanville,SC,52692,colten.baird@tbeatty.com,$2b$12$bpb43usdypY4cVF1rL0vK.HyqCLAeeOJCsD4o2TD.oBcu3HbzSMRi,(875) 363-5184
ObjectId("5e18a2e17c29a56f60fb1ee8"),Nikita,Slater,978 Carney Dr,Shields River,TX,42104,nikita.slater@tbeatty.com,$2b$12$bpb43usdypY4cVF1rL0vK.6HMJRpuIc9TXECrxAD1/AbEej7OrMje,(613) 904-5500
ObjectId("5e18a2e17c29a56f60fb1ef3"),Antwon,Moore,333 Shields St,Hartman Bridge,NV,26999,antwon.moore@tbeatty.com,$2b$12$bpb43usdypY4cVF1rL0vK.Z4W3mj4KKU3hwXfLQdL6kx1Y/YtTN/q,(967) 104-3080
ObjectId("5e18a2e17c29a56f60fb1ef6"),Gustavo,Juarez,728 Rosario Cir,James Springs,VA,15078,gustavo.juarez@tbeatty.com,$2b$12$bpb43usdypY4cVF1rL0vK.ZmvoR33eTBc0HR7NjHEaGk4yhSJji.a,(605) 401-7722
ObjectId("5e18a2e17c29a56f60fb1efd"),Trace,Williamson,460 Maynard Ct,Vargastown,TN,82487,trace.williamson@tbeatty.com,$2b$12$bpb43usdypY4cVF1rL0vK.BrZeldFgHm8VYFPDjqdl7dziVfic0Fi,(329) 766-6888
ObjectId("5e18a2e17c29a56f60fb1f25"),Georgia,Dawson,743 Torres Cir,Hurst River,KS,35573,georgia.dawson@tbeatty.com,$2b$12$bpb43usdypY4cVF1rL0vK.mWeVWFuS/qcVTW79d3ZIOWe9uyjBG9i,(600) 501-9047
ObjectId("5e18a2e17c29a56f60fb1f35"),Marcus,Torres,649 Rivers Pass,Tyler Springs,DC,40032,marcus.torres@tbeatty.com,$2b$12$bpb43usdypY4cVF1rL0vK.JWIS7y5SJtuux1vBpyZH..LF/BnZf7e,(534) 423-9662
ObjectId("5e18a2e17c29a56f60fb1f44"),Bradley,Hess,776 Salinas Way,Wynn River,NY,41883,bradley.hess@tbeatty.com,$2b$12$bpb43usdypY4cVF1rL0vK.uMA61m9L9COULkpwBFqqrcXzylUOc/2,(344) 794-3244
ObjectId("5e18a2e17c29a56f60fb1f47"),Garret,Baker,100 Gay Ln,Fry Lake,LA,26090,garret.baker@tbeatty.com,$2b$12$bpb43usdypY4cVF1rL0vK.D6aDpxFRYeXf2ppSWxavRiRFmhk8xpi,(413) 51-9722
ObjectId("5e18a2e17c29a56f60fb1f4b"),Jesus,Moran,644 Rowe Ln,Holtburg,MD,50282,jesus.moran@tbeatty.com,$2b$12$bpb43usdypY4cVF1rL0vK.CRjxV9BFju863DMxRBQEc5HB8kOJzrG,(56) 824-2447
ObjectId("5e18a2e17c29a56f60fb1f55"),Melinda,Berry,281 Hoffman Blvd,Howard Fork,MA,83616,melinda.berry@tbeatty.com,$2b$12$bpb43usdypY4cVF1rL0vK.uadUO7lEwMXO0jep0YfEeMAjjszJ.9S,(234) 697-6480
ObjectId("5e18a2e17c29a56f60fb1f5b"),Arturo,Joyner,693 Christian Blvd,Nash Pond,NV,77933,arturo.joyner@tbeatty.com,$2b$12$bpb43usdypY4cVF1rL0vK.CJsLhE11VMMbEGx4jsXSyAmXr4RTQXO,(740) 923-6501
ObjectId("5e18a2e17c29a56f60fb1f79"),Lizbeth,Burton,485 Maynard Cir,Howemont,LA,38002,lizbeth.burton@tbeatty.com,$2b$12$bpb43usdypY4cVF1rL0vK.41eOX2nRRT09qboRH.FdXfGU0MuhgT6,(211) 599-2473
ObjectId("5e18a2e17c29a56f60fb1f7b"),Madison,Bright,635 Serrano Way,Stein Valley,KY,55130,madison.bright@tbeatty.com,$2b$12$bpb43usdypY4cVF1rL0vK.q7Fguc.MVTu1CWbgayuODkLomxM54hq,(639) 690-5215
ObjectId("5e18a2e17c29a56f60fb1f94"),Jerald,Gonzales,250 Bean Ln,Maynard Creek,MO,61072,jerald.gonzales@tbeatty.com,$2b$12$bpb43usdypY4cVF1rL0vK./VBYTvt6eHFpWz7WaUpESlgG88u1zY6,(301) 948-5897
ObjectId("5e18a2e17c29a56f60fb1f97"),Dwight,England,67 Carson Way,Ellis Creek,FL,24416,dwight.england@tbeatty.com,$2b$12$bpb43usdypY4cVF1rL0vK.W95iSBophCU85GHYB6WN60XUEl0gatW,(523) 94-3968
ObjectId("5e18a2e17c29a56f60fb1fb4"),Keri,Hicks,16 Mcbride Way,Bradfordburg,RI,56361,keri.hicks@tbeatty.com,$2b$12$bpb43usdypY4cVF1rL0vK.dgnNcaMbr03mIDjs6uTwBm3S0voq.0m,(608) 259-9912
ObjectId("5e18a2e17c29a56f60fb1fbe"),Chantel,Pollard,242 Tran St,Daugherty Bridge,GA,85344,chantel.pollard@tbeatty.com,$2b$12$bpb43usdypY4cVF1rL0vK.FCS32l7QUi41HyRd9amAmlCPAOYfnvu,(38) 323-8494
ObjectId("5e18a2e17c29a56f60fb1fcb"),Riley,Knapp,261 Barrett Pass,Conwayville,MS,74073,riley.knapp@tbeatty.com,$2b$12$bpb43usdypY4cVF1rL0vK.qTSVWF2EmGQoOlsLsQ3NI7etwf0z6cm,(313) 170-6816
ObjectId("5e18a2e17c29a56f60fb1fd4"),Katerina,Skinner,267 Francis Way,Freemantown,NV,90802,katerina.skinner@tbeatty.com,$2b$12$bpb43usdypY4cVF1rL0vK.iDKqP.H4Ai7H3.E.P8ZIKo5oCP/stEi,(611) 715-4214
ObjectId("5e18a2e17c29a56f60fb1eda"),Stephan,Foreman,319 Mercer Pass,Poole Island,RI,68481,stephan.foreman@tbeatty.com,$2b$12$bpb43usdypY4cVF1rL0vK.FFezloAabTW1n/mcoFX9aMyVmic8WEi,(558) 61-1393
ObjectId("5e18a2e17c29a56f60fb1ee3"),Lesley,Monroe,649 Ferrell Rd,Mcdaniel City,ND,57250,lesley.monroe@tbeatty.com,$2b$12$bpb43usdypY4cVF1rL0vK.DulJZvcXYnvQ2Af6q2BL4dmMicoNnFG,(320) 942-9161
ObjectId("5e18a2e17c29a56f60fb1ee9"),Kegan,Crawford,458 Mccarthy Blvd,Moran Bridge,SC,17983,kegan.crawford@tbeatty.com,$2b$12$bpb43usdypY4cVF1rL0vK.yx4yd9fqOrUVREkavuFM5/Te2NIDMUq,(725) 986-2471
ObjectId("5e18a2e17c29a56f60fb1f07"),Pablo,Langley,734 Knapp Blvd,Osborne Lake,IA,21374,pablo.langley@tbeatty.com,$2b$12$bpb43usdypY4cVF1rL0vK.7rA3b3U9T9VYCucTyvSB5UQseX84IDq,(140) 302-2139
ObjectId("5e18a2e17c29a56f60fb1f1d"),Sarai,Maynard,629 Harvey Ct,Popeburg,SC,97281,sarai.maynard@tbeatty.com,$2b$12$bpb43usdypY4cVF1rL0vK.F2Li6QG4yZrNxes9q7oUuy2xGj8sS3a,(917) 440-9248
ObjectId("5e18a2e17c29a56f60fb1f21"),Kenneth,Huffman,139 Winters Ln,Booker Pond,WA,72770,kenneth.huffman@tbeatty.com,$2b$12$bpb43usdypY4cVF1rL0vK.h2r5Wjp5SnDvEFa9PD4n4JMsI4xjSGi,(95) 890-2488
ObjectId("5e18a2e17c29a56f60fb1f2b"),Jaqueline,Wolfe,663 Fry Rd,Bond Valley,UT,21349,jaqueline.wolfe@tbeatty.com,$2b$12$bpb43usdypY4cVF1rL0vK.16dzxr4yyWu54d.1dyRRH8lCJRkHnH2,(336) 483-7469
ObjectId("5e18a2e17c29a56f60fb1f4a"),Katherine,Hammond,144 Casey Cir,Browning Lake,WI,41232,katherine.hammond@tbeatty.com,$2b$12$bpb43usdypY4cVF1rL0vK.EVz7B/zVkPoUVtK4TDui8bLwaf08t6O,(154) 439-1238
ObjectId("5e18a2e17c29a56f60fb1f58"),Aaliyah,Barber,295 Chase Ave,Hammond Bridge,CO,28576,aaliyah.barber@tbeatty.com,$2b$12$bpb43usdypY4cVF1rL0vK.56qcI3xgwcfg4OzBjz3l/V47lmlHAba,(669) 327-5325
ObjectId("5e18a2e17c29a56f60fb1f5d"),Melisa,Stevens,597 Davis Dr,Stokes Bridge,WI,85421,melisa.stevens@tbeatty.com,$2b$12$bpb43usdypY4cVF1rL0vK.lYw8evi.EvBxk9IF1vP7fKOUjTipsOe,(861) 225-8176
ObjectId("5e18a2e17c29a56f60fb1f71"),Ivan,Bartlett,314 Perez Cir,Hardingville,KS,73323,ivan.bartlett@tbeatty.com,$2b$12$bpb43usdypY4cVF1rL0vK.52WKzayDz3WW8pmYEsGShdTjHMuFWI2,(769) 96-1665
ObjectId("5e18a2e17c29a56f60fb1f99"),Dexter,Byrd,753 Acevedo St,Maddox Fork,ME,75294,dexter.byrd@tbeatty.com,$2b$12$bpb43usdypY4cVF1rL0vK.ljyTtJaMnFTmznT6bdqGDmhdJdngCuS,(653) 51-7725
ObjectId("5e18a2e17c29a56f60fb1fad"),Kwame,White,301 Ross Pass,Kirkburg,NJ,65640,kwame.white@tbeatty.com,$2b$12$bpb43usdypY4cVF1rL0vK.HCE3CbLkY4mb/9Fe4ZHGCMapvF5UNGq,(229) 948-5918
ObjectId("5e18a2e17c29a56f60fb1faf"),Cassidy,Mcclain,659 Rivas Ave,Brewer Valley,FL,79813,cassidy.mcclain@tbeatty.com,$2b$12$bpb43usdypY4cVF1rL0vK..GYwWMmdueeZRNhtk2PPanrB/Vr0j7W,(800) 333-9931
ObjectId("5e18a2e17c29a56f60fb1fc7"),Kelby,Dickerson,79 Ball Dr,Mcintosh Pond,NV,77361,kelby.dickerson@tbeatty.com,$2b$12$bpb43usdypY4cVF1rL0vK.nHUXbiLkRuZufRuilAvEU2e47rsMu/q,(583) 65-6880
ObjectId("5e18a2e17c29a56f60fb1fd7"),Tess,Keller,329 Mendez Ln,Livingstontown,MO,93439,tess.keller@tbeatty.com,$2b$12$bpb43usdypY4cVF1rL0vK.a8G.qAvTQX1/bJxSVfM7pjrGtff9DIu,(975) 733-4322
ObjectId("5e18a2e17c29a56f60fb1eee"),Timothy,Bullock,367 Compton St,Coletown,RI,85928,timothy.bullock@tbeatty.com,$2b$12$bpb43usdypY4cVF1rL0vK.Me4J0xxx1.BdAGgnIWIRz/AgXG4f2Ry,(668) 753-6658
ObjectId("5e18a2e17c29a56f60fb1f0a"),Kori,Welch,255 Montoya Dr,Whitley Island,NE,51602,kori.welch@tbeatty.com,$2b$12$bpb43usdypY4cVF1rL0vK.UhYAwSvkDvb/f3pKJOoW.MP.bvDtRwK,(285) 286-8725
ObjectId("5e18a2e17c29a56f60fb1f0b"),Jesus,Barron,50 Carrillo Ave,Raymond Island,VT,10480,jesus.barron@tbeatty.com,$2b$12$bpb43usdypY4cVF1rL0vK.bx/NE0IH2n752h2TLrrWhMiH8Rj1Tpu,(924) 458-5704
ObjectId("5e18a2e17c29a56f60fb1f2c"),Caden,Frost,642 Berry Cir,Church Lake,DC,59704,caden.frost@tbeatty.com,$2b$12$bpb43usdypY4cVF1rL0vK.Ry9rnLD1ns5nw9QHO6CzbAQHNwnOD0S,(100) 797-2268
ObjectId("5e18a2e17c29a56f60fb1f2f"),Lorraine,Ball,675 Valencia Blvd,Hall Lake,NH,39656,lorraine.ball@tbeatty.com,$2b$12$bpb43usdypY4cVF1rL0vK.Nl2jasRlZQ/qgwAPQkvOgXKqpx2LRDy,(30) 881-4388
ObjectId("5e18a2e17c29a56f60fb1f30"),Madelyn,Cole,187 Shaw Cir,Perry Creek,NE,35109,madelyn.cole@tbeatty.com,$2b$12$bpb43usdypY4cVF1rL0vK.PUrEEQnxru4qECuNy5wd1TzcHKzzaYG,(531) 562-2586
ObjectId("5e18a2e17c29a56f60fb1f40"),Jairo,Dominguez,256 Mccray Way,Levinemont,NH,79131,jairo.dominguez@tbeatty.com,$2b$12$bpb43usdypY4cVF1rL0vK.m6pwyj.dlp.SN7abmnXIfOT9RKqx5YO,(27) 127-5415
ObjectId("5e18a2e17c29a56f60fb1f65"),Lacey,Wall,213 Alvarez Way,Diazmont,IN,53967,lacey.wall@tbeatty.com,$2b$12$bpb43usdypY4cVF1rL0vK.zmWuw6G9tgGHbCONSHq/zs7FQT1P00.,(365) 426-3409
ObjectId("5e18a2e17c29a56f60fb1f6e"),Monique,Wilson,838 Leblanc Rd,Alvarez Valley,MO,15903,monique.wilson@tbeatty.com,$2b$12$bpb43usdypY4cVF1rL0vK.eTFNG7HY8rLYhlwGNF8J/B0fmqKclyG,(48) 345-6913
ObjectId("5e18a2e17c29a56f60fb1f8b"),Caitlyn,Wooten,866 Lawrence St,Hines Creek,MA,51776,caitlyn.wooten@tbeatty.com,$2b$12$bpb43usdypY4cVF1rL0vK.DYlpG0qBF2FDtAxg/GOjgz5b04dLlPG,(260) 547-8974
ObjectId("5e18a2e17c29a56f60fb1fa4"),Rory,England,543 Zimmerman St,Joycemont,NC,23769,rory.england@tbeatty.com,$2b$12$bpb43usdypY4cVF1rL0vK.FChIsNBJtX45dd9bc9H/i/ACtdeZ6De,(429) 985-5840
ObjectId("5e18a2e17c29a56f60fb1fc2"),Christopher,Castro,396 Guzman St,Hudson Pond,DE,30875,christopher.castro@tbeatty.com,$2b$12$bpb43usdypY4cVF1rL0vK.tnDx7CDCFsVgbkUlGCMZtctIOIc5kWC,(627) 119-6452
ObjectId("5e18a2e17c29a56f60fb1fcd"),Aliyah,Bowen,555 Wolf St,Huber Creek,MN,12799,aliyah.bowen@tbeatty.com,$2b$12$bpb43usdypY4cVF1rL0vK.p9/DJVrr3PcqXOmzu4WCR7Otsbyzl.q,(480) 272-9313
ObjectId("5e18a2e17c29a56f60fb1edd"),Darrien,Douglas,69 Wong Rd,Grant Island,NC,74400,darrien.douglas@tbeatty.com,$2b$12$bpb43usdypY4cVF1rL0vK.KWY3sVP00AsfOBMYQfEYZvi5NJ4fcSi,(429) 654-5971
ObjectId("5e18a2e17c29a56f60fb1ef7"),Westley,Perry,546 Howell Ave,Becker Bridge,WI,14900,westley.perry@tbeatty.com,$2b$12$bpb43usdypY4cVF1rL0vK.WMpk5MbKqj3EikykwTFAYykAqibyU9K,(84) 809-5674
ObjectId("5e18a2e17c29a56f60fb1efc"),Edgardo,Patrick,566 Owens Ln,Frederick Bridge,NV,47985,edgardo.patrick@tbeatty.com,$2b$12$bpb43usdypY4cVF1rL0vK.y64YJyrPlCxIZ2RrXmytD4KV5a5BaFi,(987) 737-6080
ObjectId("5e18a2e17c29a56f60fb1f05"),Astrid,Green,928 Schultz Dr,Aguirreburg,IN,80586,astrid.green@tbeatty.com,$2b$12$bpb43usdypY4cVF1rL0vK.SRdZgyVVh7RQr8pySlo7aQ96Uu.M.o6,(884) 982-3781
ObjectId("5e18a2e17c29a56f60fb1f1a"),Kristen,Bullock,825 Johns Blvd,Crawford River,MO,82845,kristen.bullock@tbeatty.com,$2b$12$bpb43usdypY4cVF1rL0vK.249QoZoCX2FOxolG2lIM3/1kHF72dRS,(624) 889-4854
ObjectId("5e18a2e17c29a56f60fb1f20"),Destin,Carpenter,291 Nguyen Way,Rochaville,MO,17506,destin.carpenter@tbeatty.com,$2b$12$bpb43usdypY4cVF1rL0vK.Dust8E14auYwggb51CqoX//y3HfX1Lu,(805) 985-5000
ObjectId("5e18a2e17c29a56f60fb1f87"),Antonia,Case,300 Barker Rd,Mason City,IA,62777,antonia.case@tbeatty.com,$2b$12$bpb43usdypY4cVF1rL0vK.o/QbtxtMXzA8WEyrtz4ctNdLYJxBZBK,(709) 769-1632
ObjectId("5e18a2e17c29a56f60fb1f8a"),Lane,Meyer,75 Gallagher Cir,Hogan Pond,IL,50780,lane.meyer@tbeatty.com,$2b$12$bpb43usdypY4cVF1rL0vK.prlyWpayI2.spwypeuhvZEwdK771HhO,(908) 692-9256
ObjectId("5e18a2e17c29a56f60fb1f9b"),Calvin,Smith,831 Buckley Ln,Joseph Bridge,WY,80981,calvin.smith@tbeatty.com,$2b$12$bpb43usdypY4cVF1rL0vK.m92PVivdvbdFtpF7JFRwF68OPqS5QD.,(470) 945-6169
ObjectId("5e18a2e17c29a56f60fb1fa1"),Dillan,Stanley,934 Hawkins Way,Hood River,UT,80774,dillan.stanley@tbeatty.com,$2b$12$bpb43usdypY4cVF1rL0vK.KDy3jssGw.1A7tVTYar6ZZdY/okE/z.,(866) 671-4363
ObjectId("5e18a2e17c29a56f60fb1fa5"),Dwight,Aguirre,933 Montgomery Way,Howe Valley,VA,87807,dwight.aguirre@tbeatty.com,$2b$12$bpb43usdypY4cVF1rL0vK.pgRQPJzEVEJrC4iOut26oEorf0y0ql2,(861) 369-9609
ObjectId("5e18a2e17c29a56f60fb1fa9"),Sidney,Wall,147 Blake Ct,Hoffman Pond,OR,41055,sidney.wall@tbeatty.com,$2b$12$bpb43usdypY4cVF1rL0vK.xF3mpKvdTEmgqQ1tboqc01hhwNrd/Aq,(704) 612-6906
ObjectId("5e18a2e17c29a56f60fb1fb3"),Araceli,Duke,27 Lawrence Cir,Mortonville,AL,86841,araceli.duke@tbeatty.com,$2b$12$bpb43usdypY4cVF1rL0vK.Wxud2Lt63qUbUwzWyphd2O3AwznL8Ti,(137) 110-5557
ObjectId("5e18a2e17c29a56f60fb1fd8"),Gerard,Palmer,692 Hendrix Dr,Chanburg,WI,19186,gerard.palmer@tbeatty.com,$2b$12$bpb43usdypY4cVF1rL0vK.cWSfrR1CXfhWqdWavckj0cANco7UNn6,(176) 970-3432
ObjectId("5e18a2e17c29a56f60fb1efa"),Allen,Benjamin,445 Dyer Pass,Leach Valley,LA,42759,allen.benjamin@tbeatty.com,$2b$12$bpb43usdypY4cVF1rL0vK.kGDl6t7uX3k1rRTUWCL9sK0PZ1YgePG,(634) 760-7927
ObjectId("5e18a2e17c29a56f60fb1efb"),Stone,Lester,750 Rogers Ave,Lara Pond,NC,90544,stone.lester@tbeatty.com,$2b$12$bpb43usdypY4cVF1rL0vK.hleyXtV7YtjuocS9lmSvDnifmutGFcK,(322) 359-3500
ObjectId("5e18a2e17c29a56f60fb1f01"),Kierra,Townsend,962 Noel St,Rivers Pond,MS,84801,kierra.townsend@tbeatty.com,$2b$12$bpb43usdypY4cVF1rL0vK.PwZF0lc1fmYiX386UFFp00GK6vzLxKi,(635) 723-1479
ObjectId("5e18a2e17c29a56f60fb1f04"),Sergio,Abbott,106 Willis St,Garcia Lake,HI,54983,sergio.abbott@tbeatty.com,$2b$12$bpb43usdypY4cVF1rL0vK.MkV/qDJmEscmpKDdMnbzk2i5Z/WeH6W,(760) 858-5027
ObjectId("5e18a2e17c29a56f60fb1f17"),Lexi,Phillips,925 Charles St,Kennedy Lake,RI,97550,lexi.phillips@tbeatty.com,$2b$12$bpb43usdypY4cVF1rL0vK.SKnSvP1y0n.eLTZYapoaz31ClTRzgC2,(271) 812-7722
ObjectId("5e18a2e17c29a56f60fb1f23"),Bryce,Ratliff,189 Taylor Blvd,Gonzales Valley,ID,18361,bryce.ratliff@tbeatty.com,$2b$12$bpb43usdypY4cVF1rL0vK.bLaQ7l0ZAF2DlLMSxt.gvLy1d0R9sH6,(87) 499-7365
ObjectId("5e18a2e17c29a56f60fb1f26"),Francesco,Lopez,423 Levy Rd,Stein Fork,IL,42370,francesco.lopez@tbeatty.com,$2b$12$bpb43usdypY4cVF1rL0vK.IpGTgdZCdNkmBLPXwyY77YL91NZBZv6,(726) 812-7754
ObjectId("5e18a2e17c29a56f60fb1f60"),Kacie,Hood,737 Bishop Way,Summers Pond,GA,59203,kacie.hood@tbeatty.com,$2b$12$bpb43usdypY4cVF1rL0vK.SWrF/2j/gKQOehVEpN42P81hJMAVIAW,(309) 966-4843
ObjectId("5e18a2e17c29a56f60fb1f73"),Ted,Palmer,750 Fischer Ave,Booker Fork,ME,83008,ted.palmer@tbeatty.com,$2b$12$bpb43usdypY4cVF1rL0vK.lzApfD5BhyCNzj8L0ROwvIaKxousn1q,(691) 667-1895
ObjectId("5e18a2e17c29a56f60fb1f74"),Makayla,Todd,398 Spence Blvd,Roweville,SC,89417,makayla.todd@tbeatty.com,$2b$12$bpb43usdypY4cVF1rL0vK..W8UKFKVDKZovyrIfeAzicf0FxC1MW6,(81) 437-9620
ObjectId("5e18a2e17c29a56f60fb1f7f"),Mary,Anderson,345 Green Cir,Ochoa City,CO,63950,mary.anderson@tbeatty.com,$2b$12$bpb43usdypY4cVF1rL0vK.g8cmp8BXcEFtKqJgu8gGkk9OmOn6ESy,(350) 954-5742
ObjectId("5e18a2e17c29a56f60fb1f85"),Eunice,Galloway,365 Whitley Ln,Contreras Springs,WY,88482,eunice.galloway@tbeatty.com,$2b$12$bpb43usdypY4cVF1rL0vK.wX1HZxetvqkLCtxAbGq8VD88SsgN3qq,(594) 720-7501
ObjectId("5e18a2e17c29a56f60fb1f8d"),Roxana,Peterson,355 Holland Ct,Luna Lake,TX,19091,roxana.peterson@tbeatty.com,$2b$12$bpb43usdypY4cVF1rL0vK.NsalsL1aq1P5U.CTu7O4pVynl3ME5Sq,(874) 664-8300
ObjectId("5e18a2e17c29a56f60fb1f90"),Keaton,Morrow,454 Coleman Ln,Trujillo Springs,MD,29748,keaton.morrow@tbeatty.com,$2b$12$bpb43usdypY4cVF1rL0vK.dSjOw3j2paMpFy5HbWWY3TXJD/Mw0jy,(48) 964-4680
ObjectId("5e18a2e17c29a56f60fb1f9a"),Conor,Griffith,946 Walter Blvd,Doyle Lake,LA,45641,conor.griffith@tbeatty.com,$2b$12$bpb43usdypY4cVF1rL0vK.7lBU3jU83eKSpuQ54PNUapDioFXDuQS,(718) 710-9435
ObjectId("5e18a2e17c29a56f60fb1fa7"),Scott,Miles,730 Berg Ln,Trantown,MO,39433,scott.miles@tbeatty.com,$2b$12$bpb43usdypY4cVF1rL0vK.MazmBk0Kv/hTnPPSqw8qHOcuAXdK5f6,(213) 511-5133
ObjectId("5e18a2e17c29a56f60fb1fb2"),Dusty,Foster,196 Wise St,Burke Bridge,VT,45448,dusty.foster@tbeatty.com,$2b$12$bpb43usdypY4cVF1rL0vK.dmpb4lZuNE1LY4sctGZHwbkW3RZrnaG,(495) 652-1328
ObjectId("5e18a2e17c29a56f60fb1edb"),Giovanni,Freeman,516 Walker Dr,Morris Lake,CT,10817,giovanni.freeman@tbeatty.com,$2b$12$bpb43usdypY4cVF1rL0vK.BTestw4D7LEgwE8njADDCpa8k2vXUAy,(1) 380-1902
ObjectId("5e18a2e17c29a56f60fb1ef1"),Kali,Mcclure,728 Shelton St,Holcombtown,MN,12811,kali.mcclure@tbeatty.com,$2b$12$bpb43usdypY4cVF1rL0vK.KCkHbRPg/WAYUEjkHdLo3aOcNuo4Bw.,(34) 322-5644
ObjectId("5e18a2e17c29a56f60fb1ef5"),Jessika,Gallegos,254 Mayer St,Glenn Bridge,AZ,84297,jessika.gallegos@tbeatty.com,$2b$12$bpb43usdypY4cVF1rL0vK.n8fq/KiO.kLb.HxmKRNOM/77t.mNXYW,(553) 328-4917
ObjectId("5e18a2e17c29a56f60fb1f10"),Bronson,Joseph,889 William Way,Jenkinstown,MA,24419,bronson.joseph@tbeatty.com,$2b$12$bpb43usdypY4cVF1rL0vK.4DbutsKr58Q/mRHcBtZ8YH1SkrjEKUi,(423) 73-6459
ObjectId("5e18a2e17c29a56f60fb1f1e"),Devonta,Mccall,815 Rhodes Cir,Washington City,MA,25247,devonta.mccall@tbeatty.com,$2b$12$bpb43usdypY4cVF1rL0vK.EcCkN2oNpFqCies.vbMQbLEXnYs2E22,(930) 467-8822
ObjectId("5e18a2e17c29a56f60fb1f1f"),Juliana,Kramer,362 Jacobs Pass,Miller River,AR,50133,juliana.kramer@tbeatty.com,$2b$12$bpb43usdypY4cVF1rL0vK.qZPFZEdopN2bpmXCCIjfTGZ/KQjs0VC,(392) 600-3453
ObjectId("5e18a2e17c29a56f60fb1f37"),Charlotte,Kinney,188 Sweet Ln,Barreramont,ME,64340,charlotte.kinney@tbeatty.com,$2b$12$bpb43usdypY4cVF1rL0vK.VwH56uZoVjg/KQzO4Gl8bierkWQeQJe,(116) 238-3907
ObjectId("5e18a2e17c29a56f60fb1f3e"),Katelin,Munoz,577 Gill Pass,Cervantes Fork,NE,81263,katelin.munoz@tbeatty.com,$2b$12$bpb43usdypY4cVF1rL0vK.RCyWr9uo4iq/DtaZu01YTdxVHX3MNSC,(98) 434-3931
ObjectId("5e18a2e17c29a56f60fb1f3f"),Kaitlin,Silva,824 Clayton Rd,Mcfarlandmont,SC,92069,kaitlin.silva@tbeatty.com,$2b$12$bpb43usdypY4cVF1rL0vK.X7ARAjlYXqC7mQX3rUgA5Ie9rRjpn4i,(308) 403-8253
ObjectId("5e18a2e17c29a56f60fb1f4e"),Bailee,Stone,897 Gonzalez Pass,Bridges Lake,NC,22060,bailee.stone@tbeatty.com,$2b$12$bpb43usdypY4cVF1rL0vK.scoSDQFSH4D2TX5NpTE.Ord0pC5CF/S,(847) 471-7728
ObjectId("5e18a2e17c29a56f60fb1f67"),Madison,Mcdonald,539 Weiss Dr,Christensen Springs,AR,89238,madison.mcdonald@tbeatty.com,$2b$12$bpb43usdypY4cVF1rL0vK.05E8kd0pcu7LsZ0vClnh065Dog0d37W,(752) 398-8692
ObjectId("5e18a2e17c29a56f60fb1fa8"),Sandra,Pearson,816 Sharpe Ln,Maynard Valley,CA,21546,sandra.pearson@tbeatty.com,$2b$12$bpb43usdypY4cVF1rL0vK.qEgnAkjkfkEtfWI0z9stgBdtn5iGhUS,(946) 836-1371
ObjectId("5e18a2e17c29a56f60fb1faa"),Alysha,Sanders,243 Rosales Ave,Saunders City,TN,38065,alysha.sanders@tbeatty.com,$2b$12$bpb43usdypY4cVF1rL0vK.u5dZkD3FNkD6mITLu4mGzP8Slo83dJm,(710) 548-8778
ObjectId("5e18a2e17c29a56f60fb1fb9"),Lauryn,Baird,903 Burton St,Mccarty Island,VT,62034,lauryn.baird@tbeatty.com,$2b$12$bpb43usdypY4cVF1rL0vK.fdGUyHFCiSc.77O3WzdM56EYStoqMUC,(381) 219-8605
ObjectId("5e18a2e17c29a56f60fb1fbb"),Leanne,Bartlett,386 Moss Way,Blanchardmont,NM,71042,leanne.bartlett@tbeatty.com,$2b$12$bpb43usdypY4cVF1rL0vK.yFZzpiJyzByr8hOuyUevXkNkfp/n1Ua,(723) 234-7685
ObjectId("5e18a2e17c29a56f60fb1fc6"),Otis,Valdez,735 Garcia Ct,Hickman River,ND,14714,otis.valdez@tbeatty.com,$2b$12$bpb43usdypY4cVF1rL0vK.J1uPBS0l2nk/nXi9bGIsUZFfnA6fGJe,(579) 662-3593
ObjectId("5e18a2e17c29a56f60fb1fc8"),Micaela,Slater,663 Velasquez Ave,Poole Creek,NM,72731,micaela.slater@tbeatty.com,$2b$12$bpb43usdypY4cVF1rL0vK.vavfm24.ZLbnbfevNtXv6qYmUvJiZjG,(139) 417-9354
ObjectId("5e18a2e17c29a56f60fb1fd2"),Deon,Cross,419 Cameron Ave,Sanford Pond,WI,30725,deon.cross@tbeatty.com,$2b$12$bpb43usdypY4cVF1rL0vK.NeOF4KvB.igFQHLlwKV/jkvc0OPtWqi,(303) 4-5511
ObjectId("5e18a2e17c29a56f60fb1ede"),Robert,Rodriquez,466 Blevins Rd,Miranda Springs,SC,53550,robert.rodriquez@tbeatty.com,$2b$12$bpb43usdypY4cVF1rL0vK.rwZx7s0fhXTx9J/uDkAWWXenOhiP4T6,(30) 357-2205
ObjectId("5e18a2e17c29a56f60fb1ef9"),Alisha,Gibson,47 Burks Cir,Fletcher City,OR,77575,alisha.gibson@tbeatty.com,$2b$12$bpb43usdypY4cVF1rL0vK.29qnKiZY16FQnJ74p.oE1kRE0XjjSly,(334) 560-3922
ObjectId("5e18a2e17c29a56f60fb1f00"),Moises,Stephenson,512 Stafford St,Hodgeville,RI,47354,moises.stephenson@tbeatty.com,$2b$12$bpb43usdypY4cVF1rL0vK.fNWg0JtpKVe0JumFkp51WTfZZyuuU9S,(625) 373-5811
ObjectId("5e18a2e17c29a56f60fb1f0d"),Ezequiel,Holden,309 Lynch Cir,Evans Lake,TN,50822,ezequiel.holden@tbeatty.com,$2b$12$bpb43usdypY4cVF1rL0vK.9DmLlLV0IXih6hW1xzL0.xBENOBrO7y,(220) 482-1176
ObjectId("5e18a2e17c29a56f60fb1f16"),Brielle,Henderson,919 Dunlap Pass,Herring Pond,KY,50093,brielle.henderson@tbeatty.com,$2b$12$bpb43usdypY4cVF1rL0vK.2/VDh3V/oPr7MHhZvVqhoEpWgO2fqm.,(160) 183-2321
ObjectId("5e18a2e17c29a56f60fb1f49"),Keisha,Burgess,89 Velazquez Dr,Gonzalez Fork,TX,86411,keisha.burgess@tbeatty.com,$2b$12$bpb43usdypY4cVF1rL0vK.RKxNpfW4Em0d3FY1FoK5cBKQZlI1BYa,(173) 519-5015
ObjectId("5e18a2e17c29a56f60fb1f4c"),Lisa,Miles,322 Perez Dr,William Springs,MS,87859,lisa.miles@tbeatty.com,$2b$12$bpb43usdypY4cVF1rL0vK.4oI7baOPcGx8SkAZ28zdog2q4M1bDYu,(470) 842-1412
ObjectId("5e18a2e17c29a56f60fb1f52"),Max,Sanford,832 Rocha Ave,Davidson Creek,RI,23245,max.sanford@tbeatty.com,$2b$12$bpb43usdypY4cVF1rL0vK.5wb3Mq5gNASifYD3Y.DjHMuFod0JvSe,(629) 796-8445
ObjectId("5e18a2e17c29a56f60fb1f66"),Braydon,Mcgowan,560 Fox Ave,Houston Pond,AK,76857,braydon.mcgowan@tbeatty.com,$2b$12$bpb43usdypY4cVF1rL0vK.SU0AELa.IIaZ738DbQN6j5I9sEvQSdy,(342) 906-2340
ObjectId("5e18a2e17c29a56f60fb1f68"),Angelo,Lindsey,443 Terrell Way,Fisher Fork,HI,75196,angelo.lindsey@tbeatty.com,$2b$12$bpb43usdypY4cVF1rL0vK.4dok0q5BftnYq0umr2V.NG4/W3HsULC,(197) 820-3375
ObjectId("5e18a2e17c29a56f60fb1f6a"),Zackary,Newton,573 Ballard Cir,Mitchell Island,OH,73961,zackary.newton@tbeatty.com,$2b$12$bpb43usdypY4cVF1rL0vK.JjFy.jYOHuR3Qsrki1r6Kc1Xq/eOetC,(837) 421-3550
ObjectId("5e18a2e17c29a56f60fb1f81"),Marc,Moses,631 Jenkins Ave,Riley Pond,DC,79213,marc.moses@tbeatty.com,$2b$12$bpb43usdypY4cVF1rL0vK.XKpX.rWNAA5xfD5R2JsowoB9G4Eb2q2,(918) 492-7552
ObjectId("5e18a2e17c29a56f60fb1f86"),Hector,Tyson,707 Alvarez St,Russo City,KY,82188,hector.tyson@tbeatty.com,$2b$12$bpb43usdypY4cVF1rL0vK.R6cgA4U8mO9QhoU6XoWvKgEjOxa2P3C,(352) 58-2884
ObjectId("5e18a2e17c29a56f60fb1f8f"),Emilia,Adams,87 Cobb Cir,Perry Island,CT,81354,emilia.adams@tbeatty.com,$2b$12$bpb43usdypY4cVF1rL0vK.zXkKRkC2e537xFCs7YXiQzDh/ZNYToi,(48) 544-2269
ObjectId("5e18a2e17c29a56f60fb1f9d"),Tiffany,Heath,978 Dean Rd,Kaufmanmont,AL,27921,tiffany.heath@tbeatty.com,$2b$12$bpb43usdypY4cVF1rL0vK.jgwXN0PqkeGXV2Lrmrfs2T0wiaQqjs2,(347) 913-2073
ObjectId("5e18a2e17c29a56f60fb1fa3"),Forrest,Frederick,242 Logan St,Goffmont,MO,58977,forrest.frederick@tbeatty.com,$2b$12$bpb43usdypY4cVF1rL0vK.U.8/QG9qFRXKDfA9uxEI6FN.lM4Ik5C,(244) 184-3617
ObjectId("5e18a2e17c29a56f60fb1fac"),Trace,Pacheco,501 O'brien Rd,Pearson Creek,OR,87327,trace.pacheco@tbeatty.com,$2b$12$bpb43usdypY4cVF1rL0vK.NSfo/.fRXZf6210PFfpYfN9b0wrT4uG,(281) 562-3875
ObjectId("5e18a2e17c29a56f60fb1fb8"),Annika,Roman,541 Ross St,Dalton Valley,PA,92078,annika.roman@tbeatty.com,$2b$12$bpb43usdypY4cVF1rL0vK.yk295yzr6JmE9daun32iscg.c3SA5Vu,(194) 468-8342
ObjectId("5e18a2e17c29a56f60fb1fd3"),Krystal,Baird,27 Mann Ln,Thornton Bridge,KS,40189,krystal.baird@tbeatty.com,$2b$12$bpb43usdypY4cVF1rL0vK.RkjxcRxwEhoVXZVPXAz4sAl5R1fCnkm,(843) 582-1837
ObjectId("5e18a2e17c29a56f60fb1ef0"),Westley,Love,981 Cummings Dr,Harper Springs,NJ,99342,westley.love@tbeatty.com,$2b$12$bpb43usdypY4cVF1rL0vK.N72/J7jjNxn0fhBhanXH7AijGpuR3yq,(243) 91-5968
ObjectId("5e18a2e17c29a56f60fb1edc"),Leigh,Good,50 Rivers St,Park Creek,NE,62284,leigh.good@tbeatty.com,$2b$12$bpb43usdypY4cVF1rL0vK.n5.kbLhODEYYQcTWE3SI0sx2ZEs5iaK,(114) 436-1542
ObjectId("5e18a2e17c29a56f60fb1f0f"),Joanne,Luna,586 Preston St,Lester Pond,IN,23666,joanne.luna@tbeatty.com,$2b$12$bpb43usdypY4cVF1rL0vK.z9m85EtAt1euXhfVjvHKoARFgXyYQJe,(243) 529-6978
ObjectId("5e18a2e17c29a56f60fb1f24"),Katherine,Rios,598 Miranda Way,Barnettmont,TX,13825,katherine.rios@tbeatty.com,$2b$12$bpb43usdypY4cVF1rL0vK.LWf7V6yziXxcM4YtgvPiOh3ilVfd73i,(742) 462-3103
ObjectId("5e18a2e17c29a56f60fb1f29"),Gavin,Rollins,533 Johnston Ave,Hardin Island,FL,14744,gavin.rollins@tbeatty.com,$2b$12$bpb43usdypY4cVF1rL0vK.79DuieaXgrn7HP4pEXffGvT8den1CV2,(662) 277-7948
ObjectId("5e18a2e17c29a56f60fb1f31"),Issac,Gentry,843 Browning Blvd,Franks River,KS,29924,issac.gentry@tbeatty.com,$2b$12$bpb43usdypY4cVF1rL0vK.Y2tTEM7zWmHXJrOivkuTuWw/Kgcm3.W,(633) 341-2156
ObjectId("5e18a2e17c29a56f60fb1f33"),Betty,Dale,973 Wong St,Davis Bridge,IL,28705,betty.dale@tbeatty.com,$2b$12$bpb43usdypY4cVF1rL0vK.rAxvF1myFOWsWRsk4X705hmku7jDaJC,(466) 994-9004
ObjectId("5e18a2e17c29a56f60fb1f34"),Lincoln,Noble,22 Vincent Pass,Howell Lake,TN,71373,lincoln.noble@tbeatty.com,$2b$12$bpb43usdypY4cVF1rL0vK.3MtG48sPdC9ni67TGKmhMCnGXS0SU86,(204) 27-7849
ObjectId("5e18a2e17c29a56f60fb1f42"),Frank,Mosley,388 Conley Blvd,Thomasville,PA,87119,frank.mosley@tbeatty.com,$2b$12$bpb43usdypY4cVF1rL0vK.IY5Ov7ioCEz1TwxLByk2Ohp7WZ.uvbe,(128) 790-3773
ObjectId("5e18a2e17c29a56f60fb1f45"),Breana,Manning,619 Norton Dr,Larsen Springs,WV,49031,breana.manning@tbeatty.com,$2b$12$bpb43usdypY4cVF1rL0vK.Y1qYTs.NI9JxjtFtiaWQHhZzaJmBvoO,(32) 434-8938
ObjectId("5e18a2e17c29a56f60fb1f48"),Kailyn,Farrell,902 Solis Ct,Sextonmont,FL,98630,kailyn.farrell@tbeatty.com,$2b$12$bpb43usdypY4cVF1rL0vK.lyXOl0IhHQkdGQ/0oMkre564uly08Vi,(176) 70-7403
ObjectId("5e18a2e17c29a56f60fb1f59"),Liliana,Hudson,330 Rollins Dr,Nash Island,MN,79811,liliana.hudson@tbeatty.com,$2b$12$bpb43usdypY4cVF1rL0vK.biAD2dU9KGoPPnB4qMuGjHyazH.qYS6,(861) 722-7612
ObjectId("5e18a2e17c29a56f60fb1f62"),Reece,Cotton,488 Rutledge Ct,Wooten City,MI,31731,reece.cotton@tbeatty.com,$2b$12$bpb43usdypY4cVF1rL0vK.rOb.sGUX0eg3gplg5uHi5WljoVdyYMO,(172) 791-6488
ObjectId("5e18a2e17c29a56f60fb1f77"),Sally,Human,786 Booker Ln,Deanmont,UT,93523,sally123@tbeatty.com,$2b$12$bpb43usdypY4cVF1rL0vK.M98j5k6tMfEmDrhNMA11wvkBuk/y4jW,(135) 22-3285
ObjectId("5e18a2e17c29a56f60fb1fb6"),Brianne,Fry,220 Montgomery Ave,Roachburg,OH,63642,brianne.fry@tbeatty.com,$2b$12$bpb43usdypY4cVF1rL0vK.lq9q9iR81XBf4z8qU3/GvhPu1cLJP1G,(304) 778-6017
ObjectId("5e18a2e17c29a56f60fb1fd6"),Luciano,Burke,551 Bennett Blvd,Lloyd Fork,FL,25462,luciano.burke@tbeatty.com,$2b$12$bpb43usdypY4cVF1rL0vK.FFqjcAU5eWC4cKMyxSKH3KEwLbEZkg2,(217) 34-4036
ObjectId("5e18a2e17c29a56f60fb1ee0"),Maribel,Potts,520 Coffey St,Walton Springs,AZ,48552,maribel.potts@tbeatty.com,$2b$12$bpb43usdypY4cVF1rL0vK.g27/tuc.CnXs3mJAMIyFHCrqQIIm2SS,(28) 359-1345
ObjectId("5e18a2e17c29a56f60fb1eeb"),Lucy,Payne,135 Berger Cir,Sandoval River,ND,81653,lucy.payne@tbeatty.com,$2b$12$bpb43usdypY4cVF1rL0vK.XD3TTbKZQ8gACWcH0duOjZBswTO6.tu,(981) 637-7152
ObjectId("5e18a2e17c29a56f60fb1ef2"),Lyle,Cooper,139 Ramsey Cir,Gentry Bridge,NV,54111,lyle.cooper@tbeatty.com,$2b$12$bpb43usdypY4cVF1rL0vK.kPhYnICzAkAYM3o7uM7raBjcCkI2zY6,(334) 33-1527
ObjectId("5e18a2e17c29a56f60fb1f12"),Sergio,Benson,553 David St,Newton Island,WA,66658,sergio.benson@tbeatty.com,$2b$12$bpb43usdypY4cVF1rL0vK.uTkpwnVG2Vd1p/9RUU8I9g3IzKFFL5S,(214) 214-1971
ObjectId("5e18a2e17c29a56f60fb1f3d"),Reggie,Bishop,662 Welch Cir,Gilmore Creek,ID,77542,reggie.bishop@tbeatty.com,$2b$12$bpb43usdypY4cVF1rL0vK.w3ercwT2Q6uQTTmg46Wm3jBhSErPNuW,(292) 52-5351
ObjectId("5e18a2e17c29a56f60fb1f5c"),Emerald,Rios,539 Bruce Rd,Chan Creek,IL,56439,emerald.rios@tbeatty.com,$2b$12$bpb43usdypY4cVF1rL0vK.PMbEVnoYagtSzrVlFPHS.DgCCfa8zQO,(391) 152-6806
ObjectId("5e18a2e17c29a56f60fb1f64"),Iesha,Vaughan,776 Sharpe Ct,Dickersonville,ID,39423,iesha.vaughan@tbeatty.com,$2b$12$bpb43usdypY4cVF1rL0vK.Zu7Jr6WQB4gc5YYskfLvces7q8UAMBW,(235) 9-7312
ObjectId("5e18a2e17c29a56f60fb1f6b"),Hugh,Carney,118 Lawson St,Sawyer Fork,OH,30235,hugh.carney@tbeatty.com,$2b$12$bpb43usdypY4cVF1rL0vK.OwqVIJuttLKTMRLMX0fc0glAw6NujIK,(55) 481-6537
ObjectId("5e18a2e17c29a56f60fb1f75"),Janie,Stuart,288 Harding Ave,Howell Springs,DE,74385,janie.stuart@tbeatty.com,$2b$12$bpb43usdypY4cVF1rL0vK.5vG/mlkNHM6TQVCwmx7dI6vrkHO/fIq,(835) 828-1758
ObjectId("5e18a2e17c29a56f60fb1f89"),Mackenzie,Roberts,270 Butler Pass,Meadows Fork,ID,45512,mackenzie.roberts@tbeatty.com,$2b$12$bpb43usdypY4cVF1rL0vK.CrrZu5kMc3AIFkcHkkkehI2eLLUjESG,(410) 984-2041
ObjectId("5e18a2e17c29a56f60fb1f96"),Emanuel,Delgado,521 Taylor Pass,Avila Bridge,WA,26781,emanuel.delgado@tbeatty.com,$2b$12$bpb43usdypY4cVF1rL0vK.NhjD6fdiyqqhiOBJtwKf9rmp2Sz1De6,(988) 172-7976
ObjectId("5e18a2e17c29a56f60fb1fca"),Ernest,Mccray,910 Allison St,Gentry Creek,VT,33118,ernest.mccray@tbeatty.com,$2b$12$bpb43usdypY4cVF1rL0vK.6liWzP.fvJWpO.U4QHECDnsnha9auFS,(315) 958-9161
ObjectId("5e18a2e17c29a56f60fb1eed"),Scott,Crosby,192 Gibson Pass,Peck Creek,VT,51198,scott.crosby@tbeatty.com,$2b$12$bpb43usdypY4cVF1rL0vK.PXc4hwt/SCO1k4m09u41Q1MoQBAJ.Fe,(872) 665-5434
ObjectId("5e18a2e17c29a56f60fb1edf"),Summer,Hays,277 Maddox Ave,Beckerville,DE,78382,summer.hays@tbeatty.com,$2b$12$bpb43usdypY4cVF1rL0vK.jpRuEX824YSmMcfAgmgrA/ffvJBYj82,(913) 510-3599
ObjectId("5e18a2e17c29a56f60fb1f0e"),Walker,Flynn,224 Stephens Blvd,Ramosburg,NC,32868,walker.flynn@tbeatty.com,$2b$12$bpb43usdypY4cVF1rL0vK.klJikYz75FpJDjBq5EDkeT1j2VrmdbS,(956) 655-7989
ObjectId("5e18a2e17c29a56f60fb1f1b"),Marisela,Fisher,905 Gonzales Dr,Simpson Bridge,DE,15415,marisela.fisher@tbeatty.com,$2b$12$bpb43usdypY4cVF1rL0vK.Blhs/OyN09xWPJo8I2Jcj0CINem1ivu,(82) 708-8241
ObjectId("5e18a2e17c29a56f60fb1f3a"),Keon,Dixon,193 Mcguire Way,Burt Pond,OH,88093,keon.dixon@tbeatty.com,$2b$12$bpb43usdypY4cVF1rL0vK.zuAflcjOS0MzJ0gwA7VZEPt6GoOUbf2,(407) 675-9337
ObjectId("5e18a2e17c29a56f60fb1f3b"),Damien,Boone,816 Ray Blvd,Munoz Valley,MA,55149,damien.boone@tbeatty.com,$2b$12$bpb43usdypY4cVF1rL0vK.7mzMHbCItlfc77OGBGQfeD4PftMYIUC,(702) 410-9326
ObjectId("5e18a2e17c29a56f60fb1f4d"),Trisha,Roth,767 Wilkinson Ct,Christian City,NH,55323,trisha.roth@tbeatty.com,$2b$12$bpb43usdypY4cVF1rL0vK.dT3DOmHJc9/sNsoewIEIJyyzwZAL46u,(232) 691-1526
ObjectId("5e18a2e17c29a56f60fb1f56"),Macy,Livingston,9 Dotson Ct,Walls Fork,DC,54896,macy.livingston@tbeatty.com,$2b$12$bpb43usdypY4cVF1rL0vK.zYedS7W1BkZDQmZYo4pLXOwHei4QZKm,(721) 200-4975
ObjectId("5e18a2e17c29a56f60fb1f5a"),Estevan,Aguirre,541 Nelson Way,Swanson Pond,TX,49000,estevan.aguirre@tbeatty.com,$2b$12$bpb43usdypY4cVF1rL0vK.CSIDHKlF0PCfjCZ6pnVGMzqIJRs97XG,(857) 218-4206
ObjectId("5e18a2e17c29a56f60fb1f5f"),Meaghan,Velasquez,264 Mcclain Ct,Mercadoville,MT,54585,meaghan.velasquez@tbeatty.com,$2b$12$bpb43usdypY4cVF1rL0vK.MAIBmNTtr1MynbjyMWcLX2z6cKXN0a2,(894) 459-5269
ObjectId("5e18a2e17c29a56f60fb1f6c"),Diamond,Benson,198 Lang Cir,Williamstown,ME,18808,diamond.benson@tbeatty.com,$2b$12$bpb43usdypY4cVF1rL0vK.jHZ5C.M0kCO1X2wWiadhi5g/CJLRpkC,(119) 635-5527
ObjectId("5e18a2e17c29a56f60fb1f6d"),Alfonso,Jefferson,971 Leon Cir,Hessmont,PA,22335,alfonso.jefferson@tbeatty.com,$2b$12$bpb43usdypY4cVF1rL0vK.1aZVnw04FBt.eNF/EknIU1DArRsbb/G,(866) 588-1456
ObjectId("5e18a2e17c29a56f60fb1f8e"),Jazmine,Farrell,771 Marsh St,Stevens Lake,WI,27960,jazmine.farrell@tbeatty.com,$2b$12$bpb43usdypY4cVF1rL0vK.d/0Dy2Rj3T7y4pKpJrG/aiRzUcIUF/W,(543) 529-5462
ObjectId("5e18a2e17c29a56f60fb1f91"),Douglas,Galloway,792 Strickland Ave,Holt City,DE,78460,douglas.galloway@tbeatty.com,$2b$12$bpb43usdypY4cVF1rL0vK.TNMXk9LQbMK0G90m0ROAaLmSKChhDqW,(563) 973-2118
ObjectId("5e18a2e17c29a56f60fb1fba"),Jeanette,Baird,817 Blankenship Ave,Munoz Fork,NY,39037,jeanette.baird@tbeatty.com,$2b$12$bpb43usdypY4cVF1rL0vK.RITlhlojXwUlfaIMtZlOjmtn0UZbsn6,(805) 213-8920
ObjectId("5e18a2e17c29a56f60fb1fbc"),Alvin,Sims,92 Craig Ct,Popetown,ME,91483,alvin.sims@tbeatty.com,$2b$12$bpb43usdypY4cVF1rL0vK.HPT2jB3wNFwFLFE4HklLbslzq84QYEi,(592) 327-5241
ObjectId("5e18a2e17c29a56f60fb1fbf"),Manuel,Owen,306 Shaw Rd,Shepherdville,NE,54503,manuel.owen@tbeatty.com,$2b$12$bpb43usdypY4cVF1rL0vK.xs5MIhuIYLHws2kXQq04ep/sPaPT63W,(972) 921-7507
ObjectId("5e18a2e17c29a56f60fb1eec"),Manuel,Caldwell,963 Guerrero Ln,Walter Island,FL,37916,manuel.caldwell@tbeatty.com,$2b$12$bpb43usdypY4cVF1rL0vK.2sMHHbq.TVgqHiy7FPz/lhq1C75enim,(595) 818-1000
ObjectId("5e18a2e17c29a56f60fb1ef8"),Thomas,Rivers,549 Reeves Ct,Mills Bridge,GA,23776,thomas.rivers@tbeatty.com,$2b$12$bpb43usdypY4cVF1rL0vK.UhAQUWXN0Vn4skJjAsIyla.e3/YiUCi,(467) 281-6949
ObjectId("5e18a2e17c29a56f60fb1f15"),Dylan,Landry,800 Ingram Blvd,Duke Springs,WY,65833,dylan.landry@tbeatty.com,$2b$12$bpb43usdypY4cVF1rL0vK.RTS8WRdG0oNLnq9mrrPGX88P6SfRMB.,(573) 96-2343
ObjectId("5e18a2e17c29a56f60fb1f19"),Eliana,Marsh,252 Cortez St,Duke Fork,PA,64487,eliana.marsh@tbeatty.com,$2b$12$bpb43usdypY4cVF1rL0vK.l9yinUFFrFWYw372puCaGHxdhaI75zy,(300) 312-8850
ObjectId("5e18a2e17c29a56f60fb1f27"),Carrie,Barrera,35 Farrell Ave,Padilla Fork,WA,66474,carrie.barrera@tbeatty.com,$2b$12$bpb43usdypY4cVF1rL0vK.6hao0KllQStPcqrtjBXMvAQfzzXLrdm,(513) 871-8381
ObjectId("5e18a2e17c29a56f60fb1f63"),Ibrahim,Snow,636 Holman Ave,Bishopburg,CO,29684,ibrahim.snow@tbeatty.com,$2b$12$bpb43usdypY4cVF1rL0vK.whvXY6UAHPc6DkSgACxQt0vLjdFKyae,(584) 599-4553
ObjectId("5e18a2e17c29a56f60fb1f78"),Jana,Raymond,731 James Blvd,Rodriquezburg,WV,63525,jana.raymond@tbeatty.com,$2b$12$bpb43usdypY4cVF1rL0vK.y/DslZcfIy1Vdil6UIX0mMaIE6mvrSO,(997) 567-6412
ObjectId("5e18a2e17c29a56f60fb1f7a"),Angelique,Ayala,348 Harrington Dr,Hendricks Lake,OR,58460,angelique.ayala@tbeatty.com,$2b$12$bpb43usdypY4cVF1rL0vK.Z5Ib8VKBFO0MAmwcTcB8AeCJFdK3p6O,(441) 16-1689
ObjectId("5e18a2e17c29a56f60fb1f92"),Keven,Campos,161 Savage Blvd,Domingueztown,AK,15151,keven.campos@tbeatty.com,$2b$12$bpb43usdypY4cVF1rL0vK.mEoKl4pCXq0a46r5XX4vJxRgi9pKbDG,(977) 259-1782
ObjectId("5e18a2e17c29a56f60fb1f93"),Mia,Olson,546 Chambers Cir,Mayoville,SD,99211,mia.olson@tbeatty.com,$2b$12$bpb43usdypY4cVF1rL0vK.MmyjZcUH.NKH1BaoF7bODzZEVascnUm,(79) 851-6323
ObjectId("5e18a2e17c29a56f60fb1f98"),Tylor,Summers,668 Guerra Pass,Kim Lake,NE,12297,tylor.summers@tbeatty.com,$2b$12$bpb43usdypY4cVF1rL0vK.AaV./vj5jczx8UyWNwsHSbHtUrSaPmm,(263) 696-1275
ObjectId("5e18a2e17c29a56f60fb1fb1"),Astrid,Fox,909 Washington St,Fieldsmont,NC,73642,astrid.fox@tbeatty.com,$2b$12$bpb43usdypY4cVF1rL0vK.9tTOhvuGWzFhzuXw3JgmjmFpaSjb8Mi,(216) 528-2169
ObjectId("5e18a2e17c29a56f60fb1ee1"),Terrence,Mcdonald,702 Sharp St,Mason River,FL,79097,terrence.mcdonald@tbeatty.com,$2b$12$bpb43usdypY4cVF1rL0vK.sZVPi6YPmqR6zXlA5BRadSXBvtfqH0y,(284) 686-3327
ObjectId("5e18a2e17c29a56f60fb1ee7"),Jaleel,Chase,465 Hicks Ave,Meadowsburg,OH,12324,jaleel.chase@tbeatty.com,$2b$12$bpb43usdypY4cVF1rL0vK.esDKIXc6XolS39W5PlS3tqTSxRgZxNe,(128) 17-6398
ObjectId("5e18a2e17c29a56f60fb1eef"),Destinee,Salazar,528 Clements Rd,Guerreroville,OR,50255,destinee.salazar@tbeatty.com,$2b$12$bpb43usdypY4cVF1rL0vK.RldmfQc5Vy07k9uBxfcyWAwe55ufGG6,(670) 444-8627
ObjectId("5e18a2e17c29a56f60fb1ef4"),Otis,Manning,208 Collins Ct,English City,MD,48620,otis.manning@tbeatty.com,$2b$12$bpb43usdypY4cVF1rL0vK.qaj8/cS.tbU7mJDV2IzloFxrEzsor/u,(657) 726-7030
ObjectId("5e18a2e17c29a56f60fb1f08"),Spencer,Camacho,349 Wiley Cir,Bass Pond,MO,27527,spencer.camacho@tbeatty.com,$2b$12$bpb43usdypY4cVF1rL0vK.PAAjxa7zP3aUM./Ua3zJsSH.p/DFWpS,(106) 870-9087
ObjectId("5e18a2e17c29a56f60fb1f09"),Daniella,Lane,191 Hensley St,Wheeler Pond,OR,94366,daniella.lane@tbeatty.com,$2b$12$bpb43usdypY4cVF1rL0vK.lgDXmZi21SQ/O2pnabagYuNq4ZIlR2i,(904) 289-4634
ObjectId("5e18a2e17c29a56f60fb1f13"),Lindsey,Whitney,37 Workman Blvd,Quinn Lake,SD,93901,lindsey.whitney@tbeatty.com,$2b$12$bpb43usdypY4cVF1rL0vK.MR7FfXOy7rXm77w4W3QC.bQvs/apq2m,(972) 44-7357
ObjectId("5e18a2e17c29a56f60fb1f22"),Daniela,Flowers,789 Johnson Way,Soto Island,DE,63106,daniela.flowers@tbeatty.com,$2b$12$bpb43usdypY4cVF1rL0vK.GW5bzVJ7aqijWBLXsZGRgXBvrSideYe,(507) 568-1105
ObjectId("5e18a2e17c29a56f60fb1f32"),Travis,Parsons,828 Sanford Blvd,Duran Lake,LA,51717,travis.parsons@tbeatty.com,$2b$12$bpb43usdypY4cVF1rL0vK.yEkg26FsOpGcp2mz01iQ7pJ26g9Rv0y,(731) 357-8175
ObjectId("5e18a2e17c29a56f60fb1f46"),Savanah,Craft,322 Barlow Pass,Cox Springs,OR,28518,savanah.craft@tbeatty.com,$2b$12$bpb43usdypY4cVF1rL0vK.OKXWjm8xlwZFsYKQQbPbuw2Le4lLyuK,(105) 920-9495
ObjectId("5e18a2e17c29a56f60fb1f4f"),Trey,Burke,191 Montgomery Cir,Ray Springs,MI,32870,trey.burke@tbeatty.com,$2b$12$bpb43usdypY4cVF1rL0vK.Mmg0eAhnWa5QJdwLgJwRfjxebpD4EvO,(62) 879-3813
ObjectId("5e18a2e17c29a56f60fb1f50"),Jacquelyn,Rojas,852 Harper Rd,Mendoza Bridge,OK,33885,jacquelyn.rojas@tbeatty.com,$2b$12$bpb43usdypY4cVF1rL0vK.V95SkJ.VH4BYsaSwEXhcQLtRlq0mnk6,(413) 192-7840
ObjectId("5e18a2e17c29a56f60fb1f57"),Celine,Vargas,246 Camacho Ct,Barrmont,NE,93308,celine.vargas@tbeatty.com,$2b$12$bpb43usdypY4cVF1rL0vK.PIvieHoU6lmZi.aa4XE0EoYy2OTsEHa,(877) 129-6267
ObjectId("5e18a2e17c29a56f60fb1f76"),Celeste,Howe,929 Aguilar Rd,Perezmont,SC,34033,celeste.howe@tbeatty.com,$2b$12$bpb43usdypY4cVF1rL0vK.Vz4.HOvFChO7j6LrUQ0fqSrPpGZFLg.,(74) 521-3828
ObjectId("5e18a2e17c29a56f60fb1f7c"),Athena,Glover,617 Poole Ct,Carey City,RI,95529,athena.glover@tbeatty.com,$2b$12$bpb43usdypY4cVF1rL0vK.MZP.bPjLW.93sW.8zTJpmjxTUFug56C,(676) 105-8932
ObjectId("5e18a2e17c29a56f60fb1f80"),Yesenia,Puckett,643 Smith Pass,Smallburg,VA,50273,yesenia.puckett@tbeatty.com,$2b$12$bpb43usdypY4cVF1rL0vK.qItp0g9F52clz6MbjW4HULIbuiRs4P2,(445) 759-3489
ObjectId("5e18a2e17c29a56f60fb1f83"),Jessenia,Ayala,217 Gonzalez Way,Cain River,LA,83138,jessenia.ayala@tbeatty.com,$2b$12$bpb43usdypY4cVF1rL0vK.kNAEwuKYF/OKzyrkEDCiKEqf9X0vzG.,(101) 795-5737
ObjectId("5e18a2e17c29a56f60fb1f88"),Caleb,Hood,896 Espinoza Blvd,Booth Bridge,CO,87191,caleb.hood@tbeatty.com,$2b$12$bpb43usdypY4cVF1rL0vK.Pa7lJ4tIMqchv5bqemxdQj7VbGsm7Y6,(969) 179-2541
ObjectId("5e18a2e17c29a56f60fb1f9e"),Cortney,Gibbs,410 Salinas Pass,Shelton City,ND,86754,cortney.gibbs@tbeatty.com,$2b$12$bpb43usdypY4cVF1rL0vK.XlRJ99XuXkceS08DGmQR0la6cZ/6fq.,(619) 109-8227
ObjectId("5e18a2e17c29a56f60fb1fc3"),Dexter,Bowen,659 Jarvis Way,Rose Fork,NE,42200,dexter.bowen@tbeatty.com,$2b$12$bpb43usdypY4cVF1rL0vK.G4Z8SJ.iLLzUxN3Noxta6DF4Twun3nu,(385) 161-8261
ObjectId("5e18a2e17c29a56f60fb1fcf"),Sydnie,Orr,700 Puckett Pass,Roth Fork,WY,21040,sydnie.orr@tbeatty.com,$2b$12$bpb43usdypY4cVF1rL0vK.OPNI7A9ZSeiWR0ZyUbPzEJmSkFuxeAW,(222) 100-6150
ObjectId("5e18a2e17c29a56f60fb1fd1"),Chad,Petersen,50 Dorsey Cir,Allen Fork,SD,93848,chad.petersen@tbeatty.com,$2b$12$bpb43usdypY4cVF1rL0vK.c6rtjlN3c3p9p1U.5DAmuJMWjZlOpRW,(343) 15-9254
ObjectId("5e18a2e17c29a56f60fb1fd5"),Kaela,Roach,170 House Blvd,Chaney Valley,UT,56370,kaela.roach@tbeatty.com,$2b$12$bpb43usdypY4cVF1rL0vK.h6PoCmnAjVSwpuYqFy660KIwZwe/Cmu,(351) 778-4504
ObjectId("5e18a2e17c29a56f60fb1fde"),Kalie,Doyle,683 Ayala Ave,Powell Island,DC,18239,kalie.doyle@tbeatty.com,$2b$12$bpb43usdypY4cVF1rL0vK.te13yIqthsmkEeIUUnclKtdIpYvdCw6,(423) 786-2211
ObjectId("5e18a2e17c29a56f60fb1fff"),Jesse,Nash,225 Sanders Blvd,Bradshawmont,AZ,63454,jesse.nash@tbeatty.com,$2b$12$bpb43usdypY4cVF1rL0vK.1aGyraP7XzOKZbK9TVgun7oxmvED.dy,(884) 881-6757
ObjectId("5e18a2e17c29a56f60fb2001"),Deon,Snow,844 Pena Pass,Knowles Island,AZ,15495,deon.snow@tbeatty.com,$2b$12$bpb43usdypY4cVF1rL0vK.ssMOxXL0VGtTosr8AhC0JtfCYQCQZru,(872) 542-7668
ObjectId("5e18a2e17c29a56f60fb2006"),Jordan,Richard,569 Weeks Ave,Valdezburg,WI,47669,jordan.richard@tbeatty.com,$2b$12$bpb43usdypY4cVF1rL0vK.S1hVbEP8.KKdI4pkacTX279Llp2epli,(421) 511-7385
ObjectId("5e18a2e17c29a56f60fb2007"),Joselyn,Lawson,992 Hayden Blvd,Petersenmont,CA,59946,joselyn.lawson@tbeatty.com,$2b$12$bpb43usdypY4cVF1rL0vK.njjvT1mw.2HvFL6qQOaoKkFHRurK54u,(888) 460-8247
ObjectId("5e18a2e17c29a56f60fb200a"),Kendall,Weeks,176 Dalton St,Cameron Springs,ME,15241,kendall.weeks@tbeatty.com,$2b$12$bpb43usdypY4cVF1rL0vK.7dyMfCB3kEeVWmWHQVfxGQMd3lsrrXW,(941) 514-7370
ObjectId("5e18a2e17c29a56f60fb2018"),Diane,Adkins,742 Cline Ln,Le Lake,CO,98065,diane.adkins@tbeatty.com,$2b$12$bpb43usdypY4cVF1rL0vK.CKoBoKaIM3KrsHLdyWwr0OIG/KJ/9nG,(387) 856-6074
ObjectId("5e18a2e17c29a56f60fb2022"),Greg,Newman,18 Solomon Blvd,Gonzales Bridge,MN,20138,greg.newman@tbeatty.com,$2b$12$bpb43usdypY4cVF1rL0vK.cdXx778coOzl40Fh4lcwT6nMwGwCH/6,(980) 972-8869
ObjectId("5e18a2e17c29a56f60fb2038"),Gillian,Hansen,731 Chang Ct,Olson Fork,NY,27867,gillian.hansen@tbeatty.com,$2b$12$bpb43usdypY4cVF1rL0vK.7BFABNCOB4WigaFHzCY.7U977JEf6KK,(506) 33-5093
ObjectId("5e18a2e17c29a56f60fb1fe5"),Aidan,Calderon,409 Charles St,George Valley,ID,32628,aidan.calderon@tbeatty.com,$2b$12$bpb43usdypY4cVF1rL0vK.7qp7dESlkULFTIDsNmDwX19LA2rjcRK,(861) 166-5428
ObjectId("5e18a2e17c29a56f60fb2005"),Jada,Young,33 Lamb St,Logan Springs,LA,38989,jada.young@tbeatty.com,$2b$12$bpb43usdypY4cVF1rL0vK.q3uonjuCpuQ/nDO.BI38QB2hUg.l7M.,(446) 110-7697
ObjectId("5e18a2e17c29a56f60fb2028"),Jami,Suarez,176 Blevins Ln,Russelltown,SD,11196,jami.suarez@tbeatty.com,$2b$12$bpb43usdypY4cVF1rL0vK.rSwpZXVR2D9.MXNH9dQqMPVQnpB9e0m,(859) 353-6284
ObjectId("5e18a2e17c29a56f60fb2034"),Reggie,Gill,957 Thomas Ct,Rogers Lake,AK,13767,reggie.gill@tbeatty.com,$2b$12$bpb43usdypY4cVF1rL0vK.6pvrZo2.UQijjcysaX/PQKWfIRkrioS,(841) 100-2235
ObjectId("5e18a2e17c29a56f60fb2041"),Wade,Nelson,922 Howell Ct,Johns Island,KY,69231,wade.nelson@tbeatty.com,$2b$12$bpb43usdypY4cVF1rL0vK.FhZNwYCYqiPrfnBGPsCFxVGw7h.1cu.,(125) 634-2113
ObjectId("5e18a2e17c29a56f60fb1fe1"),Kristine,Underwood,461 Mitchell Blvd,Stone Pond,NC,59322,kristine.underwood@tbeatty.com,$2b$12$bpb43usdypY4cVF1rL0vK.pr5gfSCyAflBb3QdDomORvAoqdqCaKW,(443) 317-2304
ObjectId("5e18a2e17c29a56f60fb1fea"),Ulises,Blackwell,148 Conley Ct,Duffy Pond,NM,86189,ulises.blackwell@tbeatty.com,$2b$12$bpb43usdypY4cVF1rL0vK.tuQ/7O1wc3l8ekyiONZWrLdHAM41FiW,(357) 496-1816
ObjectId("5e18a2e17c29a56f60fb1ff1"),Theodore,Macias,929 Curry Cir,Franklin Island,VT,18353,theodore.macias@tbeatty.com,$2b$12$bpb43usdypY4cVF1rL0vK.tRc92WbmBkyvWZRE6xYaAAHB7RzliA6,(127) 593-3316
ObjectId("5e18a2e17c29a56f60fb1ff5"),Skylar,Joseph,681 Sloan Ln,Delaneyville,NY,60360,skylar.joseph@tbeatty.com,$2b$12$bpb43usdypY4cVF1rL0vK.gby6pYOI/MnFYMt1bJnH5HOhWUJQ/yi,(884) 81-3983
ObjectId("5e18a2e17c29a56f60fb1ff8"),Shaina,Collier,373 Gay Ct,Robles Lake,AR,85180,shaina.collier@tbeatty.com,$2b$12$bpb43usdypY4cVF1rL0vK.U6bqjewfeJ9eoeY8dn9FRCzCdOFeLTq,(853) 266-6422
ObjectId("5e18a2e17c29a56f60fb1ff9"),James,Patel,77 Waller Pass,Jones Bridge,NV,91787,james.patel@tbeatty.com,$2b$12$bpb43usdypY4cVF1rL0vK.6xsKJdfjbR8E4kk127h2dZ8fgjbXX22,(584) 553-9903
ObjectId("5e18a2e17c29a56f60fb2027"),Rhiannon,Beasley,632 Fitzgerald St,Valenzuela Bridge,NJ,57276,rhiannon.beasley@tbeatty.com,$2b$12$bpb43usdypY4cVF1rL0vK.KgKzOQX3rmCIoSlCVaviLYwOONkRe2W,(433) 968-1170
ObjectId("5e18a2e17c29a56f60fb2029"),Kolby,Mullins,818 Williams Ave,Allen City,WY,62959,kolby.mullins@tbeatty.com,$2b$12$bpb43usdypY4cVF1rL0vK.UXwQWqsnwk28hzp4SJ6yuLSJ3k2rga.,(718) 354-7621
ObjectId("5e18a2e17c29a56f60fb1fe7"),Cristian,Collier,222 Hamilton Dr,Norris Island,SC,65093,cristian.collier@tbeatty.com,$2b$12$bpb43usdypY4cVF1rL0vK.oov4IG8JxBtoyn73Pxt/yC1lTet7Svi,(512) 235-4619
ObjectId("5e18a2e17c29a56f60fb1fef"),Andrew,Willis,788 Wilcox Ave,Harvey River,ME,20452,andrew.willis@tbeatty.com,$2b$12$bpb43usdypY4cVF1rL0vK.tIe8F8HI4sj33gPJXMQoUOUVTZxG.cu,(12) 754-7499
ObjectId("5e18a2e17c29a56f60fb1ff0"),Adolfo,Baird,868 Colon Pass,Leblanc Pond,VA,29600,adolfo.baird@tbeatty.com,$2b$12$bpb43usdypY4cVF1rL0vK.D5030AIkhF5GEWlVdPmffjjknlgc/i2,(644) 4-7539
ObjectId("5e18a2e17c29a56f60fb1ffc"),Randall,Munoz,984 Strickland Ct,Cote Springs,AL,40040,randall.munoz@tbeatty.com,$2b$12$bpb43usdypY4cVF1rL0vK.MqNUUzd/reFQm04evkWsbhTGSARHHMe,(998) 867-5833
ObjectId("5e18a2e17c29a56f60fb2004"),Melody,Pennington,994 Morrison Dr,Hinton Pond,SC,27972,melody.pennington@tbeatty.com,$2b$12$bpb43usdypY4cVF1rL0vK.ko2JbIyk4eDyNjVFMvBiMY52/XxlKDy,(994) 759-3229
ObjectId("5e18a2e17c29a56f60fb200d"),Alan,Dunlap,63 Stewart Dr,Parsons Fork,MI,50864,alan.dunlap@tbeatty.com,$2b$12$bpb43usdypY4cVF1rL0vK.Vl7WjvjGsITi8sLTGh8YwBfYVZIU3.i,(909) 916-9160
ObjectId("5e18a2e17c29a56f60fb2011"),Yolanda,Frank,923 Cantu Blvd,Rosales Fork,OK,78572,yolanda.frank@tbeatty.com,$2b$12$bpb43usdypY4cVF1rL0vK.3H6RiEz/9Z8zvGs78fHJFNNKKOWHe/W,(278) 841-8709
ObjectId("5e18a2e17c29a56f60fb2019"),Corina,Wagner,62 Osborne Dr,Holder Creek,IL,52880,corina.wagner@tbeatty.com,$2b$12$bpb43usdypY4cVF1rL0vK.Rr15iHZ4J23GbLJMm3PlfgoHGoWu3U2,(545) 190-6549
ObjectId("5e18a2e17c29a56f60fb2020"),Steve,Atkins,425 Robbins Dr,Simmons Creek,SC,81733,steve.atkins@tbeatty.com,$2b$12$bpb43usdypY4cVF1rL0vK.cUw2XAftLU4AIIfdI.AYkScWb1Kz4OW,(816) 535-5148
ObjectId("5e18a2e17c29a56f60fb2024"),Franklin,Dodson,140 George Rd,Allen Valley,HI,57016,franklin.dodson@tbeatty.com,$2b$12$bpb43usdypY4cVF1rL0vK.kf.3SXTXh2NEynj9nigVxW69T0SlMHS,(621) 674-5280
ObjectId("5e18a2e17c29a56f60fb202f"),Guy,Camacho,738 Higgins Blvd,Cox Island,NE,50607,guy.camacho@tbeatty.com,$2b$12$bpb43usdypY4cVF1rL0vK.z1boG6iM64ESWRqLi.2GHqdjeQ3yuCW,(725) 403-5912
ObjectId("5e18a2e17c29a56f60fb2039"),Aspen,Joyner,51 Bullock Blvd,Contreras Valley,NJ,10029,aspen.joyner@tbeatty.com,$2b$12$bpb43usdypY4cVF1rL0vK.xSjDGo6OnzYgshEwFHcPueUwAFsAfYy,(35) 956-7810
ObjectId("5e18a2e17c29a56f60fb1fdd"),Lea,Henson,744 Jordan Ave,House Creek,NV,13789,lea.henson@tbeatty.com,$2b$12$bpb43usdypY4cVF1rL0vK.zR/7snTIAfKfSxOsSDWbaCwwCdTj9Gu,(142) 113-7969
ObjectId("5e18a2e17c29a56f60fb1fe9"),Yadira,Holt,486 Rosales Rd,Combstown,WA,11016,yadira.holt@tbeatty.com,$2b$12$bpb43usdypY4cVF1rL0vK.prluKGDtjTD.oAnqWVQ//i3mczxt7..,(429) 281-2162
ObjectId("5e18a2e17c29a56f60fb1ffd"),Danielle,Sandoval,50 Dixon Pass,Knight Valley,WY,14985,danielle.sandoval@tbeatty.com,$2b$12$bpb43usdypY4cVF1rL0vK.LYm9VhkqJYuMbEGVM9T6amV6pIsW4Xu,(308) 547-4911
ObjectId("5e18a2e17c29a56f60fb202e"),Osvaldo,Soto,999 Sheppard St,Perkins City,NJ,22381,osvaldo.soto@tbeatty.com,$2b$12$bpb43usdypY4cVF1rL0vK.k6TkZE3P.Kt147HQ7LJ0D7E/mUTlJPu,(547) 821-9501
ObjectId("5e18a2e17c29a56f60fb2031"),Reece,Cameron,254 Alston Rd,Hood Lake,AZ,34170,reece.cameron@tbeatty.com,$2b$12$bpb43usdypY4cVF1rL0vK.0YxMZ7kd2P.ONUbQO8tbLLtZTFtH6Ke,(943) 249-9830
ObjectId("5e18a2e17c29a56f60fb2035"),Tiffani,Slater,948 Foster Ct,Rivera Valley,MO,76242,tiffani.slater@tbeatty.com,$2b$12$bpb43usdypY4cVF1rL0vK.LaRtSxlA1HmAZbPZdI8OfNMSFRkaDKa,(979) 238-9435
ObjectId("5e18a2e17c29a56f60fb1fdb"),Phillip,Pace,963 Ray Way,Browning Island,DE,42786,phillip.pace@tbeatty.com,$2b$12$bpb43usdypY4cVF1rL0vK.Ym7cv4l/J8x6LT0PDfVXFvBHng1qDB6,(975) 864-9097
ObjectId("5e18a2e17c29a56f60fb1ff7"),Raven,Jensen,782 Estes Way,Daltonburg,PA,12209,raven.jensen@tbeatty.com,$2b$12$bpb43usdypY4cVF1rL0vK.CNCqpUoui.ZSba40UIAzEqBgnO8W1fO,(405) 985-9580
ObjectId("5e18a2e17c29a56f60fb1ffe"),Brody,Ballard,811 Roberson Ln,Webbmont,KY,11147,brody.ballard@tbeatty.com,$2b$12$bpb43usdypY4cVF1rL0vK.hZbPcgFGeEyS.wUBnoA7aiGfVCG98oW,(313) 674-7807
ObjectId("5e18a2e17c29a56f60fb2003"),Mitchel,Harrington,476 Dunlap Way,Silva Creek,DC,83015,mitchel.harrington@tbeatty.com,$2b$12$bpb43usdypY4cVF1rL0vK.J4eCCPpPB4.qDN1.1PKEhaE6TryVSTG,(828) 509-4975
ObjectId("5e18a2e17c29a56f60fb2015"),Kayleigh,Beattie,35 Malone Blvd,Harrison Springs,MS,79160,kayleigh.beattie@tbeatty.com,$2b$12$bpb43usdypY4cVF1rL0vK.fYan8QfdtcwVDj4JW2bSjwVPsa4xQKW,(8) 184-6192
ObjectId("5e18a2e17c29a56f60fb201c"),Kieran,Russo,491 Dixon Way,Byrd Pond,KS,10491,kieran.russo@tbeatty.com,$2b$12$bpb43usdypY4cVF1rL0vK.LFjjiM8CXeXnMhNuwjdUcT86G9eZtmC,(364) 146-7607
ObjectId("5e18a2e17c29a56f60fb1fe4"),Regan,Lynch,641 Hurst Ln,Alvarez Creek,AL,26297,regan.lynch@tbeatty.com,$2b$12$bpb43usdypY4cVF1rL0vK.kjRTflWghWjxJ71MDIOrDXZUshurNem,(638) 47-7242
ObjectId("5e18a2e17c29a56f60fb2012"),Kathy,Huff,240 Lowe Cir,Mccall Springs,WY,69932,kathy.huff@tbeatty.com,$2b$12$bpb43usdypY4cVF1rL0vK.qV2phXntJd6qklwSu6T1b9HIkRKP3iC,(387) 457-1486
ObjectId("5e18a2e17c29a56f60fb2017"),Steve,Ramsey,32 Decker Rd,Duketown,NJ,14825,steve.ramsey@tbeatty.com,$2b$12$bpb43usdypY4cVF1rL0vK.Clqa2hoFSdVtQBbu3DxvPjNfYfvYqPe,(855) 648-9254
ObjectId("5e18a2e17c29a56f60fb202b"),Hernan,Cherry,760 Meyer St,Blackwellville,MT,91674,hernan.cherry@tbeatty.com,$2b$12$bpb43usdypY4cVF1rL0vK.gBscZ62fSP2iJlDxAvfG14/7HhtW/sC,(421) 765-8252
ObjectId("5e18a2e17c29a56f60fb2032"),Darby,Kennedy,351 Spencer Dr,Johnson Springs,TN,31044,darby.kennedy@tbeatty.com,$2b$12$bpb43usdypY4cVF1rL0vK.2fqaYTd9ySxnUyNdveDCO6hOs7DGY8.,(652) 996-1334
ObjectId("5e18a2e17c29a56f60fb2033"),Susan,Lopez,678 Atkinson Way,Price Fork,KY,62344,susan.lopez@tbeatty.com,$2b$12$bpb43usdypY4cVF1rL0vK.b9vDJOdAz04xcDsvsa5fG.uusKZBanK,(968) 158-5942
ObjectId("5e18a2e17c29a56f60fb203a"),Myranda,Santiago,216 Joseph Way,Craft Valley,TN,70927,myranda.santiago@tbeatty.com,$2b$12$bpb43usdypY4cVF1rL0vK.OIgcJdCKzncaclubPlwk4G7EzZEqzOS,(81) 420-1008
ObjectId("5e18a2e17c29a56f60fb203b"),Maggie,Stark,930 Sampson Ave,Burkemont,LA,32254,maggie.stark@tbeatty.com,$2b$12$bpb43usdypY4cVF1rL0vK.dg2GrXAtkAqm1atXWtSyAekFXm3zPQu,(964) 989-4881
ObjectId("5e18a2e17c29a56f60fb1fe2"),Alice,Burnett,944 Meyers Dr,Meyers Bridge,CT,75146,alice.burnett@tbeatty.com,$2b$12$bpb43usdypY4cVF1rL0vK.IAeuN2sR3GOn3Kfyl0HAi/ME3LnevXm,(395) 338-7707
ObjectId("5e18a2e17c29a56f60fb203c"),Christiana,Garcia,243 Ramos Ct,Sextontown,IL,31347,christiana.garcia@tbeatty.com,$2b$12$bpb43usdypY4cVF1rL0vK..dUVdk90XIcdYMmJ3mJp9oo5drCVZiq,(501) 655-5940
ObjectId("5e18a2e17c29a56f60fb2042"),Lukas,Hurley,249 Hart Ave,Andersontown,NM,78255,lukas.hurley@tbeatty.com,$2b$12$bpb43usdypY4cVF1rL0vK.uLZ7mGIsuMvx7A4pVm4SsqhtYTAei6u,(546) 934-1070
ObjectId("5e18a2e17c29a56f60fb1fe0"),Jaquan,Tanner,923 Young Pass,Church Fork,WY,41877,jaquan.tanner@tbeatty.com,$2b$12$bpb43usdypY4cVF1rL0vK.6oG43KvZsj4J46a.97TR2Y7Gr.hSIYK,(307) 491-1076
ObjectId("5e18a2e17c29a56f60fb1ff3"),Dillon,Petersen,650 Russo Pass,Quinnville,NJ,47767,dillon.petersen@tbeatty.com,$2b$12$bpb43usdypY4cVF1rL0vK.lk6huPZCSfjectOaU69pFwWRG05zePC,(711) 111-7082
ObjectId("5e18a2e17c29a56f60fb1fe8"),Nico,Carney,801 Marshall Rd,Carverville,NC,85207,nico.carney@tbeatty.com,$2b$12$bpb43usdypY4cVF1rL0vK.rno1HLRT9h6BY3oltV7X7wLw9L2lvtG,(141) 44-1789
ObjectId("5e18a2e17c29a56f60fb1ffb"),Tom,Beatty,163 Williamson Ln,Medina Island,VT,20027,tom@tbeatty.com,$2b$12$bpb43usdypY4cVF1rL0vK.Jd6m/DrRDkQ33B1JxuvZdJfHPIkxqLq,(433) 440-5082
ObjectId("5e18a2e17c29a56f60fb2009"),Darren,Miles,561 Burnett Ave,Hernandez Pond,AL,55728,darren.miles@tbeatty.com,$2b$12$bpb43usdypY4cVF1rL0vK.62ytnOu.MwLDSy5daz8qyKU64jxTVNi,(894) 888-5532
ObjectId("5e18a2e17c29a56f60fb2010"),Krystal,Whitehead,839 Paul Pass,Bartlettville,DC,71711,krystal.whitehead@tbeatty.com,$2b$12$bpb43usdypY4cVF1rL0vK.QQgxXLIRoqptcHAlcU.uB0HaAd9Nlmu,(973) 501-3774
ObjectId("5e18a2e17c29a56f60fb2025"),Rylee,Wong,308 Alvarado Rd,Hoover Lake,NM,49092,rylee.wong@tbeatty.com,$2b$12$bpb43usdypY4cVF1rL0vK.uFuaAx4DeGpzNHF7ksSrXW0jLarz6mm,(51) 579-3625
ObjectId("5e18a2e17c29a56f60fb203e"),Tommy,Mathis,152 Vaughn Blvd,Vazquez City,KY,24051,tommy.mathis@tbeatty.com,$2b$12$bpb43usdypY4cVF1rL0vK.the1LqhbdaJUbsWYAkjZP21wQNEqlyO,(709) 607-5971
ObjectId("5e18a2e17c29a56f60fb203f"),Kaylee,Chase,118 Brown St,Combs Fork,TX,40368,kaylee.chase@tbeatty.com,$2b$12$bpb43usdypY4cVF1rL0vK.tcu9hNw.etqZEuPZsdqT4HGkjdvbZUy,(647) 610-2666
ObjectId("5e18a2e17c29a56f60fb200e"),Jalisa,Marsh,93 Schroeder Ave,Greene Springs,AZ,14291,jalisa.marsh@tbeatty.com,$2b$12$bpb43usdypY4cVF1rL0vK.O2jzFkhOP7jLtON6l/8WFYCsHzb6sDK,(124) 443-7563
ObjectId("5e18a2e17c29a56f60fb2013"),Lucia,Suarez,153 Santos Dr,Colliertown,MT,55225,lucia.suarez@tbeatty.com,$2b$12$bpb43usdypY4cVF1rL0vK.5xUTmXFHVytX/pyvAj6N7mNGxOdhLVe,(585) 457-3796
ObjectId("5e18a2e17c29a56f60fb1fe3"),Alfredo,Justice,83 Lamb St,Martintown,CA,27915,alfredo.justice@tbeatty.com,$2b$12$bpb43usdypY4cVF1rL0vK.HrHQXE7juNQUuv72Ex7QtksXC6lknpK,(467) 744-1344
ObjectId("5e18a2e17c29a56f60fb1fe6"),Ryder,Randolph,13 Craft Rd,Robinson Fork,DC,79747,ryder.randolph@tbeatty.com,$2b$12$bpb43usdypY4cVF1rL0vK./O3e0rw9E4.wbBP3b7i6v6xwypj5Vza,(448) 26-1540
ObjectId("5e18a2e17c29a56f60fb1feb"),Camron,Flynn,34 Carver Way,Mccoy Bridge,UT,20280,camron.flynn@tbeatty.com,$2b$12$bpb43usdypY4cVF1rL0vK.Z56x32.lJ9BAXjDN9JpM13nEX4p6XDu,(591) 455-7272
ObjectId("5e18a2e17c29a56f60fb1ff4"),Tiffany,Massey,223 Mccray Cir,Ferguson Valley,MT,13043,tiffany.massey@tbeatty.com,$2b$12$bpb43usdypY4cVF1rL0vK.ANzG.nQKQrCuCIq0xhJi06z/oHMg32.,(457) 643-9097
ObjectId("5e18a2e17c29a56f60fb200b"),Justina,Watson,432 Odom Rd,Combs Springs,OR,17313,justina.watson@tbeatty.com,$2b$12$bpb43usdypY4cVF1rL0vK.P/lOQvmaKqP30ORYrHututnIpF2akX2,(169) 780-5100
ObjectId("5e18a2e17c29a56f60fb201a"),Ellis,Noel,426 Brewer Way,Brady City,NY,25995,ellis.noel@tbeatty.com,$2b$12$bpb43usdypY4cVF1rL0vK.z6vtSk2j2pi0nRfGFQq/ncw.BI2aGOm,(975) 722-2789
ObjectId("5e18a2e17c29a56f60fb201e"),Paris,Swanson,583 Dunn Blvd,Josephtown,AK,69171,paris.swanson@tbeatty.com,$2b$12$bpb43usdypY4cVF1rL0vK.6YMgO8GrKYCShmJBiCAxIupmVMHjuy6,(956) 872-5916
ObjectId("5e18a2e17c29a56f60fb1fd9"),Emma,Harvey,384 Lee Dr,Doyle Bridge,NV,21842,emma.harvey@tbeatty.com,$2b$12$bpb43usdypY4cVF1rL0vK.vduM.ZUVXrc1z.nxvHl7Mr4M5mW0F9O,(909) 256-4922
ObjectId("5e18a2e17c29a56f60fb1fdf"),Landon,Roy,10 Carter Ave,Roachville,OH,43069,landon.roy@tbeatty.com,$2b$12$bpb43usdypY4cVF1rL0vK.oSvEt.VOjG19tFFw1hOJ.f063d90Gaa,(946) 517-7918
ObjectId("5e18a2e17c29a56f60fb1fed"),Myra,Merrill,478 Franks Dr,Castroburg,UT,97281,myra.merrill@tbeatty.com,$2b$12$bpb43usdypY4cVF1rL0vK.QYLTlkDXpoAfgQTmYVr.nMblyyiq.hC,(543) 329-8056
ObjectId("5e18a2e17c29a56f60fb1fee"),Aubrey,Paul,272 Keller Rd,Blevinstown,ME,72206,aubrey.paul@tbeatty.com,$2b$12$bpb43usdypY4cVF1rL0vK.9Y5gsYt0YdHMdnZ7OCXH1ULWHgjv/Cy,(614) 946-3374
ObjectId("5e18a2e17c29a56f60fb2016"),Megan,Frazier,315 Bender Dr,Molina City,NV,36359,megan.frazier@tbeatty.com,$2b$12$bpb43usdypY4cVF1rL0vK.iyTezCz6bZQ1vM4f9IX790yKhIIvqtO,(497) 804-2793
ObjectId("5e18a2e17c29a56f60fb2023"),Will,Salinas,100 Walsh Cir,Wootenmont,TN,29416,will.salinas@tbeatty.com,$2b$12$bpb43usdypY4cVF1rL0vK.ZoPTsgke5OBY5JuDekfzawVsz6Cug.e,(607) 165-5035
ObjectId("5e18a2e17c29a56f60fb2026"),Sheldon,Riddle,299 Cameron Pass,Leonville,HI,38286,sheldon.riddle@tbeatty.com,$2b$12$bpb43usdypY4cVF1rL0vK.2WXAZ1cAF6ImldAbzZGQKbWIcpZAu4K,(193) 886-2377
ObjectId("5e18a2e17c29a56f60fb203d"),Bennett,Leonard,200 Cooley Pass,Romero Lake,LA,44371,bennett.leonard@tbeatty.com,$2b$12$bpb43usdypY4cVF1rL0vK.n7ZGeYpiBiwlKltP42z/NnpFHTFT.xC,(964) 423-9097
ObjectId("5e18a2e17c29a56f60fb1fda"),Norma,Finch,762 Hebert St,Bell Bridge,ID,21837,norma.finch@tbeatty.com,$2b$12$bpb43usdypY4cVF1rL0vK.ZW3wT/B2nkipNcVgr7yojJsQjxBWgOS,(973) 758-5622
ObjectId("5e18a2e17c29a56f60fb1fec"),Shantel,Quinn,980 Vaughn Way,Dudleymont,IA,16447,shantel.quinn@tbeatty.com,$2b$12$bpb43usdypY4cVF1rL0vK.KG2oy/d0kvweaKwNH9qYApF8puKiRvK,(286) 104-9973
ObjectId("5e18a2e17c29a56f60fb1ff2"),Bob,Zombie,793 Stephenson Dr,Dominguez Lake,MD,82038,brains@tbeatty.com,$2b$12$bpb43usdypY4cVF1rL0vK.qEesiCtBbd5lJtYAOLplmF8SvBrZkba,(801) 555-1212
ObjectId("5e18a2e17c29a56f60fb2008"),Hunter,Sims,532 Conrad St,Caldwell Creek,RI,10106,hunter.sims@tbeatty.com,$2b$12$bpb43usdypY4cVF1rL0vK.NTCRzB5z/6.nb8jfVVDI6LItI2D3sCe,(622) 227-8793
ObjectId("5e18a2e17c29a56f60fb201d"),Everett,Dunn,698 Villarreal Rd,Peterson Springs,WA,37502,everett.dunn@tbeatty.com,$2b$12$bpb43usdypY4cVF1rL0vK.IGDGOlocnv98LDGxBHTxrUZwcUQb4EW,(196) 305-8623
ObjectId("5e18a2e17c29a56f60fb202c"),Ashley,Montgomery,345 Phelps Ave,Cook Valley,AL,64025,ashley.montgomery@tbeatty.com,$2b$12$bpb43usdypY4cVF1rL0vK.kdSfRM6z.KgZUjnUMG5l9cHNrgAnD7W,(420) 198-9917
ObjectId("5e18a2e17c29a56f60fb202d"),Taylor,Buckley,770 Cline St,Orr River,NM,33120,taylor.buckley@tbeatty.com,$2b$12$bpb43usdypY4cVF1rL0vK.EOZ8JY/TQpgwvbBoP/I8GTmU7vvO0su,(121) 312-5522
ObjectId("5e18a2e17c29a56f60fb1ff6"),Dustin,Edwards,157 Dalton Pass,Hester Lake,IL,14719,dustin.edwards@tbeatty.com,$2b$12$bpb43usdypY4cVF1rL0vK.mHdDysViCcsQIJjXLiBo9UsoYl1Bz86,(937) 808-2448
ObjectId("5e18a2e17c29a56f60fb200f"),Ronald,Huber,49 Savage Way,Dickson Pond,CA,55910,ronald.huber@tbeatty.com,$2b$12$bpb43usdypY4cVF1rL0vK.1/bucnrNFr39cgHpEFPWr90qXAFAmiK,(678) 417-1249
ObjectId("5e18a2e17c29a56f60fb201b"),Lee,Munoz,775 Maynard Ct,Huffman River,VA,97349,lee.munoz@tbeatty.com,$2b$12$bpb43usdypY4cVF1rL0vK.kx7l1UVw8SwqFxif0cudLEhSGL3t822,(441) 958-7712
ObjectId("5e18a2e17c29a56f60fb2021"),Gary,Chen,940 Watkins Ln,Sykesville,ME,50115,gary.chen@tbeatty.com,$2b$12$bpb43usdypY4cVF1rL0vK.rzkrZBczGBHS5Td22KPi.6iZ56IQqhm,(426) 277-8415
ObjectId("5e18a2e17c29a56f60fb202a"),Chelsie,Robinson,462 Reilly Pass,Leblanc Creek,SD,37398,chelsie.robinson@tbeatty.com,$2b$12$bpb43usdypY4cVF1rL0vK.J9xy5hM45w0ki2r7Hr0MHEVEUX/pEFS,(525) 385-4961
ObjectId("5e18a2e17c29a56f60fb2036"),Joaquin,Guzman,405 Hester Cir,Preston Island,SD,17118,joaquin.guzman@tbeatty.com,$2b$12$bpb43usdypY4cVF1rL0vK.AQSpV0K0941/timZKqSCiBpuYQLDKn2,(304) 473-8553
ObjectId("5e18a2e17c29a56f60fb2037"),Henry,Lee,546 Rowland Pass,Hancock Valley,RI,90930,henry.lee@tbeatty.com,$2b$12$bpb43usdypY4cVF1rL0vK.y1LAerjlS.xjjy2m5jdvUn3/1iXI1PS,(565) 100-7781
ObjectId("5e18a2e17c29a56f60fb1fdc"),Coty,Singleton,955 Brock Ave,Soto River,ME,70845,coty.singleton@tbeatty.com,$2b$12$bpb43usdypY4cVF1rL0vK.l1pAbj9J/EbaFzk71TQqXMQPvonqdnu,(79) 333-6858
ObjectId("5e18a2e17c29a56f60fb1ffa"),Cecelia,Daniels,554 Nguyen Cir,Morrow Creek,IA,16606,cecelia.daniels@tbeatty.com,$2b$12$bpb43usdypY4cVF1rL0vK.5vlBY5wpGEZEQUYkUW/SX58MvrQlN8q,(535) 295-4974
ObjectId("5e18a2e17c29a56f60fb200c"),Brandon,Hardin,857 Hardy Ct,Cantrellburg,MS,30259,brandon.hardin@tbeatty.com,$2b$12$bpb43usdypY4cVF1rL0vK.V4WxcRKZAXkOq5XEcJFjJKx8na0YYqO,(22) 170-9383
ObjectId("5e18a2e17c29a56f60fb2014"),Darius,Jarvis,963 Velez Pass,Fitzgerald Lake,LA,83745,darius.jarvis@tbeatty.com,$2b$12$bpb43usdypY4cVF1rL0vK.3kyrZwZRIdwxTA8dkKOxbrufH5/8sWq,(974) 543-2073
ObjectId("5e18a2e17c29a56f60fb201f"),Terrell,Moore,13 Wood Ln,Duke Island,MN,79525,terrell.moore@tbeatty.com,$2b$12$bpb43usdypY4cVF1rL0vK.Ogit5S0J/p/1.zQ7NfJBPNPum8IEspG,(318) 333-1900
ObjectId("5e18a2e17c29a56f60fb2030"),Javier,Meyer,438 Lynn Rd,Lawrence Fork,AL,19549,javier.meyer@tbeatty.com,$2b$12$bpb43usdypY4cVF1rL0vK.CPFV2zcb2dDQt33d2V2DJSXWR1s9xcu,(450) 296-7845
ObjectId("5e18a2e17c29a56f60fb2040"),Angelo,Kane,74 Rivas Dr,Jordan Valley,OR,15733,angelo.kane@tbeatty.com,$2b$12$bpb43usdypY4cVF1rL0vK.LICFHQBOBnV9oarILZsJwTWr6oHLTG.,(389) 694-8260
ObjectId("5e18a2e17c29a56f60fb2000"),Janette,Lang,190 Newton Rd,Wilkerson Creek,PA,82517,janette.lang@tbeatty.com,$2b$12$bpb43usdypY4cVF1rL0vK.14A7c0yJ41LsNVM2tQzwbH5x5YWV0w6,(39) 739-7158
ObjectId("5e18a2e17c29a56f60fb2002"),Heriberto,Holman,865 Donaldson Blvd,Hunt River,IA,12872,heriberto.holman@tbeatty.com,$2b$12$bpb43usdypY4cVF1rL0vK.RGRdi.23pCHhnbNjtT28JZM8KQdTIKi,(385) 334-6423
ObjectId("5e18a2e17c29a56f60fb2046"),Lauren,Bruce,226 Callahan St,Sharp Island,AL,98974,lauren.bruce@tbeatty.com,$2b$12$bpb43usdypY4cVF1rL0vK.9ZL3iP7tB8eWwTii/LFKHcoCB0GFhc6,(952) 828-4637
ObjectId("5e18a2e17c29a56f60fb205c"),Khalid,Ruiz,812 Charles Pass,Webster Springs,IL,26143,khalid.ruiz@tbeatty.com,$2b$12$bpb43usdypY4cVF1rL0vK.0bag/PTXbfti0L9W2BzLdWS1TBqEUHS,(254) 211-2306
ObjectId("5e18a2e17c29a56f60fb2051"),Daquan,Pugh,87 Stevenson Blvd,Terrell River,DE,65054,daquan.pugh@tbeatty.com,$2b$12$bpb43usdypY4cVF1rL0vK.pSh5qLeZNYN1rY3/CtqkyY6Ix6rcXdq,(64) 219-1369
ObjectId("5e18a2e17c29a56f60fb2054"),Iris,Walter,783 Stephens St,Ratliff Island,WA,12970,iris.walter@tbeatty.com,$2b$12$bpb43usdypY4cVF1rL0vK.4fAyu8uo81Vrm9yWuYKEm0v3L.h7x/2,(547) 277-5628
ObjectId("5e18a2e17c29a56f60fb2057"),Kori,Swanson,384 Cook Pass,Harrison Fork,CT,86415,kori.swanson@tbeatty.com,$2b$12$bpb43usdypY4cVF1rL0vK.CYsy7OEWbUFtret7YvMZE/LI8s6PicS,(676) 522-4232
ObjectId("5e18a2e17c29a56f60fb205d"),Colleen,Bass,570 Perkins Dr,Bryan River,ME,36955,colleen.bass@tbeatty.com,$2b$12$bpb43usdypY4cVF1rL0vK.Coad7NkmZZkvpWEtcf8j9Tw6Mi.filK,(490) 475-1220
ObjectId("5e18a2e17c29a56f60fb206e"),Montana,Stanton,731 Prince Dr,Frazier River,CA,99212,montana.stanton@tbeatty.com,$2b$12$bpb43usdypY4cVF1rL0vK.dJVkpgaaAS7Ywsk.QUyWQtmS7pdu5iy,(929) 211-7353
ObjectId("5e18a2e17c29a56f60fb207b"),Tristen,Giles,314 Collins St,Knight Island,LA,35641,tristen.giles@tbeatty.com,$2b$12$bpb43usdypY4cVF1rL0vK.SCZ/OukfN.aoNFlLWAv0tOS83pMl3/C,(394) 182-8465
ObjectId("5e18a2e17c29a56f60fb204b"),Christie,Spencer,108 Whitaker Pass,Collier Pond,OH,88111,christie.spencer@tbeatty.com,$2b$12$bpb43usdypY4cVF1rL0vK.tHN3kOm0NKStPkhkZBsTj11pQpVqKP6,(71) 625-2866
ObjectId("5e18a2e17c29a56f60fb204e"),Lily,Nguyen,945 Brennan Blvd,Barrmont,MT,23570,lily.nguyen@tbeatty.com,$2b$12$bpb43usdypY4cVF1rL0vK.SqLja3GkQmvYHpV.XbSNbTgxZRnEuoq,(830) 769-8621
ObjectId("5e18a2e17c29a56f60fb2053"),Stormy,Stephens,627 Vang Ct,Schmidtburg,NJ,13219,stormy.stephens@tbeatty.com,$2b$12$bpb43usdypY4cVF1rL0vK.6k57mAoDxuFRBFt7HbA84BVNqeECr8q,(72) 951-3523
ObjectId("5e18a2e17c29a56f60fb2062"),Jenny,Mccarty,731 Potter St,Figueroa Fork,NM,70493,jenny.mccarty@tbeatty.com,$2b$12$bpb43usdypY4cVF1rL0vK.7MiDbLePj2jbil35hvQwzGSdjRRWj02,(127) 618-8479
ObjectId("5e18a2e17c29a56f60fb206f"),Cynthia,Jenkins,121 Rose Ct,Parkertown,NH,35447,cynthia.jenkins@tbeatty.com,$2b$12$bpb43usdypY4cVF1rL0vK.Khd6cjI24/x8dEcQy8dkBECeWnoR8im,(964) 206-8969
ObjectId("5e18a2e17c29a56f60fb2071"),Tanner,Petty,343 Zamora Blvd,Simmons Springs,AK,43309,tanner.petty@tbeatty.com,$2b$12$bpb43usdypY4cVF1rL0vK.vduv83cCzQjVLbtU4/DzgL4WxL.DVe6,(130) 1-2460
ObjectId("5e18a2e17c29a56f60fb2075"),Fredrick,Mcdaniel,697 Odom Dr,Cortezmont,ND,76860,fredrick.mcdaniel@tbeatty.com,$2b$12$bpb43usdypY4cVF1rL0vK.8ZhmU5EvAmBVoPs721Utiw6desFRSNO,(130) 202-7664
ObjectId("5e18a2e17c29a56f60fb2079"),Nikki,Vang,312 Adams Ct,Gardnerburg,IN,67129,nikki.vang@tbeatty.com,$2b$12$bpb43usdypY4cVF1rL0vK.VqVk3rIyrzGi3HxR1dHVUCuD.HajFhe,(583) 634-3676
ObjectId("5e18a2e17c29a56f60fb207f"),Deborah,Cleveland,525 Ellis Ct,Velez Creek,CO,84713,deborah.cleveland@tbeatty.com,$2b$12$bpb43usdypY4cVF1rL0vK..3OoNEh/Zu06o97xhK7Ncjrx2Aa/LhO,(795) 39-5179
ObjectId("5e18a2e17c29a56f60fb2056"),Bonnie,Hunt,842 Deleon Ct,Maysville,IN,69423,bonnie.hunt@tbeatty.com,$2b$12$bpb43usdypY4cVF1rL0vK.v18RWqJ29uojf0zABgj5Zm7CLXW3Wdu,(49) 136-5989
ObjectId("5e18a2e17c29a56f60fb2074"),Jacques,Eaton,158 Goodwin St,Mclean River,KS,21994,jacques.eaton@tbeatty.com,$2b$12$bpb43usdypY4cVF1rL0vK.Fa9/g4NhQnp2PMT2OnOlSCuAK8OV9cC,(262) 719-8528
ObjectId("5e18a2e17c29a56f60fb2043"),Lizeth,Chang,646 Hurst Dr,Spears Springs,NV,11602,lizeth.chang@tbeatty.com,$2b$12$bpb43usdypY4cVF1rL0vK.8sq/PO.nM3UjWK3FokgKwmK4JrTpqRy,(245) 264-5139
ObjectId("5e18a2e17c29a56f60fb2058"),Billie,Francis,453 Howe Pass,Chavez City,VA,16445,billie.francis@tbeatty.com,$2b$12$bpb43usdypY4cVF1rL0vK.HnrFOHGrUEuVPCQkFZI6qApq549q6X2,(322) 677-4595
ObjectId("5e18a2e17c29a56f60fb2064"),Jordan,Clarke,384 Williams St,Hayden City,TX,43302,jordan.clarke@tbeatty.com,$2b$12$bpb43usdypY4cVF1rL0vK.GMHJg/eEzBgxwqsMGHrrpVauTASpfVK,(818) 425-6979
ObjectId("5e18a2e17c29a56f60fb2077"),Aron,Spencer,914 Pittman Ln,Clarke River,LA,86523,aron.spencer@tbeatty.com,$2b$12$bpb43usdypY4cVF1rL0vK.X1UA4dM3JLzZj25.G4hhDLezwDy.tkK,(945) 41-9487
ObjectId("5e18a2e17c29a56f60fb207c"),Judy,Buchanan,507 Banks Pass,Clay Bridge,DC,28204,judy.buchanan@tbeatty.com,$2b$12$bpb43usdypY4cVF1rL0vK.LzmFoIcjudYoDRvCxflawAKBmcJv/wy,(558) 344-7746
ObjectId("5e18a2e17c29a56f60fb2082"),Katelyn,Slater,384 Wolf Dr,Holdermont,CA,12293,katelyn.slater@tbeatty.com,$2b$12$bpb43usdypY4cVF1rL0vK.nWguhcNRZ67tUHQdOr7QZMLV25YS.gi,(960) 138-3697
ObjectId("5e18a2e17c29a56f60fb2044"),Rebekah,Gould,631 Roach Blvd,Chen Fork,VA,16112,rebekah.gould@tbeatty.com,$2b$12$bpb43usdypY4cVF1rL0vK.WUdOjBsUtHyS0PO0nFF2IJjpqepP3jy,(605) 415-9123
ObjectId("5e18a2e17c29a56f60fb206a"),Jimmy,Estrada,968 Russo Dr,Gallaghermont,OR,77304,jimmy.estrada@tbeatty.com,$2b$12$bpb43usdypY4cVF1rL0vK.V7dXyDJdWtVqW6nu2doAMdhE3fmxV8q,(555) 223-7133
ObjectId("5e18a2e17c29a56f60fb2049"),Clay,Osborne,502 Poole Rd,Rios River,DC,44174,clay.osborne@tbeatty.com,$2b$12$bpb43usdypY4cVF1rL0vK.1ycahGq7qcVRxDXZN6GlhBu9GOfGzZK,(16) 802-8646
ObjectId("5e18a2e17c29a56f60fb205b"),Marcus,Hughes,737 Short Ct,Sims Fork,LA,23475,marcus.hughes@tbeatty.com,$2b$12$bpb43usdypY4cVF1rL0vK.7qqWcCR9PDBs3MLWJj2eNSbjaKm4MRi,(311) 498-8107
ObjectId("5e18a2e17c29a56f60fb206c"),Harry,Werewolf,770 Patton St,Pooleburg,SC,67273,harry345@tbeatty.com,$2b$12$bpb43usdypY4cVF1rL0vK.191kmd45lJXdre89hHZUlq.Diu7VTiq,(223) 694-3548
ObjectId("5e18a2e17c29a56f60fb207e"),Kristie,Vaughan,856 Mann Ave,Shaffer Fork,UT,76416,kristie.vaughan@tbeatty.com,$2b$12$bpb43usdypY4cVF1rL0vK.HKlj.oCvVno5UQsb4.ZkeKXsU6eqdn6,(245) 896-8907
ObjectId("5e18a2e17c29a56f60fb2059"),Darin,Whitfield,742 Franklin Dr,Carrillo Lake,OH,14683,darin.whitfield@tbeatty.com,$2b$12$bpb43usdypY4cVF1rL0vK.YbXPw1Drg72YWrK32bVaQfa.Gol5IUu,(201) 34-6687
ObjectId("5e18a2e17c29a56f60fb2045"),Brady,Zimmerman,216 Martin St,Daugherty Island,AK,12323,brady.zimmerman@tbeatty.com,$2b$12$bpb43usdypY4cVF1rL0vK.ra9kPXQfCjABwS1R.bCaejcS.8OpYTq,(952) 787-9829
ObjectId("5e18a2e17c29a56f60fb2065"),Jessie,Pennington,645 Hendrix Dr,Cantrell Fork,MT,17413,jessie.pennington@tbeatty.com,$2b$12$bpb43usdypY4cVF1rL0vK.NkoaKsDqGiOPcShteVTqc7yBbns4yBa,(418) 223-1848
ObjectId("5e18a2e17c29a56f60fb207a"),Daron,Shannon,273 Mcdowell Pass,Willisburg,MA,59854,daron.shannon@tbeatty.com,$2b$12$bpb43usdypY4cVF1rL0vK.1Xbs3yE83hWkcLNKRkPiU0bTmTBk9u6,(377) 786-1306
ObjectId("5e18a2e17c29a56f60fb204c"),Rochelle,Lindsey,614 Wright St,Castro City,IA,34442,rochelle.lindsey@tbeatty.com,$2b$12$bpb43usdypY4cVF1rL0vK.XVjDpjAXfT7NIDJzroP591FG98a07ym,(421) 704-2656
ObjectId("5e18a2e17c29a56f60fb205a"),Gary,Thompson,739 Stanley Rd,Foley City,NH,82621,gary.thompson@tbeatty.com,$2b$12$bpb43usdypY4cVF1rL0vK.vTEP1l8bYUZEPl99A/garmVgaE9IvQC,(181) 120-8729
ObjectId("5e18a2e17c29a56f60fb2061"),Latisha,Blair,201 Cox Way,Merritt Springs,AZ,82959,latisha.blair@tbeatty.com,$2b$12$bpb43usdypY4cVF1rL0vK.Jo4x1v46dDOQzwDoV.6UuGa/YSeCoC2,(250) 458-9110
ObjectId("5e18a2e17c29a56f60fb2080"),Simone,Booth,955 Glass Dr,Stephenson City,DC,41434,simone.booth@tbeatty.com,$2b$12$bpb43usdypY4cVF1rL0vK.qv6JQvkWNrIo9eZBWE6i7MhNH.6PUlu,(544) 182-1749
ObjectId("5e18a2e17c29a56f60fb2047"),Kendal,Jones,688 Faulkner Dr,Briggs River,VT,72403,kendal.jones@tbeatty.com,$2b$12$bpb43usdypY4cVF1rL0vK.9bjJzNqO4ScJJpICqNQM3BVIrqdO7O2,(841) 872-2303
ObjectId("5e18a2e17c29a56f60fb204d"),Cory,Mercer,67 Myers Ave,Myers Valley,WI,71235,cory.mercer@tbeatty.com,$2b$12$bpb43usdypY4cVF1rL0vK.HIRQAA1hfWUuY98MoozHECtxoqKujgW,(847) 824-5229
ObjectId("5e18a2e17c29a56f60fb2066"),Lukas,Davidson,963 Cross St,Frederick River,MA,27193,lukas.davidson@tbeatty.com,$2b$12$bpb43usdypY4cVF1rL0vK.2N97W9I5ozgsvfscd2Vd2RaxXKdpzcq,(358) 110-6881
ObjectId("5e18a2e17c29a56f60fb2073"),Lyndsey,Matthews,735 Gilliam Blvd,Richard Island,OR,39852,lyndsey.matthews@tbeatty.com,$2b$12$bpb43usdypY4cVF1rL0vK.1gtQxD//9vjVGadHB0H6ucNqFj14Mwe,(104) 817-8918
ObjectId("5e18a2e17c29a56f60fb2048"),Jerod,Hatfield,393 Scott Ln,Bird Springs,CT,58618,jerod.hatfield@tbeatty.com,$2b$12$bpb43usdypY4cVF1rL0vK.aIWeaZVae8z70VfNjpZedsdRr1NE2W2,(126) 690-8526
ObjectId("5e18a2e17c29a56f60fb2063"),Laurel,Short,12 Love Dr,Campbellburg,IL,54721,laurel.short@tbeatty.com,$2b$12$bpb43usdypY4cVF1rL0vK.9d1aGQj/QIY57aaKYhi/..I1Oal7RJe,(430) 487-6844
ObjectId("5e18a2e17c29a56f60fb206b"),Ashlynn,Bailey,466 Cameron Way,Mcguire Lake,AL,56697,ashlynn.bailey@tbeatty.com,$2b$12$bpb43usdypY4cVF1rL0vK.JbsD8aWzgPKPsvXD8NnQqsS7YaGfvzm,(725) 445-9195
ObjectId("5e18a2e17c29a56f60fb2081"),Joselyn,Wright,898 Garrison Ln,Solis Creek,HI,80071,joselyn.wright@tbeatty.com,$2b$12$bpb43usdypY4cVF1rL0vK.eQ9CMw9WUS0f8JnSx1rxGQBYp6WtzL.,(209) 188-1250
ObjectId("5e18a2e17c29a56f60fb2055"),Jaqueline,Reid,358 Ruiz Ct,Bridges Springs,KS,77474,jaqueline.reid@tbeatty.com,$2b$12$bpb43usdypY4cVF1rL0vK.EGit2TAGaNvWmfseMM7iKaWFn3rjDx2,(541) 776-4294
ObjectId("5e18a2e17c29a56f60fb205e"),Gilbert,Burris,881 Diaz Ct,Gonzales Springs,NC,39883,gilbert.burris@tbeatty.com,$2b$12$bpb43usdypY4cVF1rL0vK.HExH3wg0Q9Eqe2Nxm/lvBa3WgVaeD3u,(974) 164-9866
ObjectId("5e18a2e17c29a56f60fb2060"),Loren,Vargas,836 Moon St,Velez Island,DE,51321,loren.vargas@tbeatty.com,$2b$12$bpb43usdypY4cVF1rL0vK.FcjVd90QBgFDtOJyAIrcHqBWijUyYxC,(523) 440-5197
ObjectId("5e18a2e17c29a56f60fb2070"),Reyna,Middleton,258 Norris Rd,Lane Fork,NM,47048,reyna.middleton@tbeatty.com,$2b$12$bpb43usdypY4cVF1rL0vK.VTfI5WeXmLQgKScdZd5ky8h3txs80Jm,(659) 385-6797
ObjectId("5e18a2e17c29a56f60fb207d"),Kane,Horne,1 Pearson Dr,Kaneburg,OK,11981,kane.horne@tbeatty.com,$2b$12$bpb43usdypY4cVF1rL0vK.O.NkRSRb/S7vDa6l90DY30baNgr/vsy,(147) 602-5726
ObjectId("5e18a2e17c29a56f60fb204a"),Kolton,Vang,213 Thomas Dr,Rollinsville,VA,93679,kolton.vang@tbeatty.com,$2b$12$bpb43usdypY4cVF1rL0vK.NHEt43Wwd2ayGL4N.v8DCsdCuHbXDey,(966) 49-4129
ObjectId("5e18a2e17c29a56f60fb205f"),Bronson,Snyder,674 Larson Blvd,Mcdonald Fork,VT,80531,bronson.snyder@tbeatty.com,$2b$12$bpb43usdypY4cVF1rL0vK.FhXkBY5Qe0LtRQkGnkG14EKAaTOwc5e,(661) 769-4605
ObjectId("5e18a2e17c29a56f60fb2067"),Macey,Kerr,258 Baird Pass,Mcgowan River,ND,58270,macey.kerr@tbeatty.com,$2b$12$bpb43usdypY4cVF1rL0vK.PwIIghy7jdt3O03rsrI8XcBcoD.LUca,(579) 152-9618
ObjectId("5e18a2e17c29a56f60fb2068"),Beth,Hughes,46 Hood Dr,Wells Island,RI,13452,beth.hughes@tbeatty.com,$2b$12$bpb43usdypY4cVF1rL0vK.cDfJ/8jGazG8lh2uGlDdVIXMUfYaYsK,(467) 652-6401
ObjectId("5e18a2e17c29a56f60fb2076"),Drew,Hanson,177 Bray Ave,Lucas Pond,NJ,49590,drew.hanson@tbeatty.com,$2b$12$bpb43usdypY4cVF1rL0vK.UolvWt4VpjVaPcVumAD3YnHjsuyOrOm,(34) 675-7314
ObjectId("5e18a2e17c29a56f60fb2050"),Monique,Dunlap,604 Delaney Way,Beck River,PA,61001,monique.dunlap@tbeatty.com,$2b$12$bpb43usdypY4cVF1rL0vK.MiIIxBRZuc6QvqdpALrezk5/ZDWPDP6,(790) 753-3061
ObjectId("5e18a2e17c29a56f60fb2052"),Santiago,Lawson,171 Garza Ave,Nicholson River,CA,91811,santiago.lawson@tbeatty.com,$2b$12$bpb43usdypY4cVF1rL0vK.oAsYBNX7czu.JZhV8gPDu2n9Ho2IuU2,(832) 295-7058
ObjectId("5e18a2e17c29a56f60fb2078"),Peter,Levine,74 Chapman Cir,Burgess Valley,ME,68982,peter.levine@tbeatty.com,$2b$12$bpb43usdypY4cVF1rL0vK.D/1EYsQKrZP80.hD.zkRF7I.ovyxOhy,(617) 831-3032
ObjectId("5e18a2e17c29a56f60fb204f"),Jaqueline,Jimenez,615 Hall Ln,Johnsville,ID,79278,jaqueline.jimenez@tbeatty.com,$2b$12$bpb43usdypY4cVF1rL0vK.2p8yF1K8bQ2VokxitblMdlGFipqXsQi,(529) 475-7823
ObjectId("5e18a2e17c29a56f60fb2069"),Jaylon,Schmidt,892 Perez Cir,Pecktown,AL,93373,jaylon.schmidt@tbeatty.com,$2b$12$bpb43usdypY4cVF1rL0vK.TED8OsYAw.P7l.sIL37.gDg1cgDiA/O,(864) 272-9635
ObjectId("5e18a2e17c29a56f60fb206d"),Jana,Yang,579 Stein Dr,Baker Valley,TN,45015,jana.yang@tbeatty.com,$2b$12$bpb43usdypY4cVF1rL0vK.ykAZOJnJCQZ4dFiaOKCqWFCRhhdmY8C,(881) 409-5581
ObjectId("5e18a2e17c29a56f60fb2072"),Darrell,Mccall,362 Guerrero Ln,Colemanmont,NM,88955,darrell.mccall@tbeatty.com,$2b$12$bpb43usdypY4cVF1rL0vK.2l7VLxRofDfybRDL1PMQWYkIlcI/EvS,(555) 411-6533
ObjectId("5e18a2e17c29a56f60fb2085"),Morris,Rich,908 Marsh Ave,Woodmont,TN,84456,morris.rich@tbeatty.com,$2b$12$bpb43usdypY4cVF1rL0vK.WuWFhIb9jJJJgwa4C5qFxOhimsFAyVq,(828) 824-8492
ObjectId("5e18a2e17c29a56f60fb208e"),Kenia,Gaines,700 Gray Ct,Kirklandville,FL,83302,kenia.gaines@tbeatty.com,$2b$12$bpb43usdypY4cVF1rL0vK.km0djLaNknHFQIQ6mgacOO0DEBmV6gq,(374) 3-1250
ObjectId("5e18a2e17c29a56f60fb2096"),Nathanael,Ware,858 Ruiz Blvd,Dunn Bridge,FL,96221,nathanael.ware@tbeatty.com,$2b$12$bpb43usdypY4cVF1rL0vK.cW7pfpbm73HdVuZxvsPg56JqzAEQNgO,(177) 983-1337
ObjectId("5e18a2e17c29a56f60fb20d2"),Cameron,Odom,482 Gibson Cir,Washington Valley,MI,25809,cameron.odom@tbeatty.com,$2b$12$bpb43usdypY4cVF1rL0vK.L6KL9Iv69dv6yN5fTB03JDxrEWZG.aW,(379) 76-5447
ObjectId("5e18a2e17c29a56f60fb20d5"),Audra,Johns,459 Francis Ave,Craft City,IL,96354,audra.johns@tbeatty.com,$2b$12$bpb43usdypY4cVF1rL0vK.7VCGALrRb1ki26u9AbjuGXkUjfmSHoy,(211) 124-6982
ObjectId("5e18a2e17c29a56f60fb209a"),Tyra,Tucker,249 Fulton Pass,Owen Creek,MO,26958,tyra.tucker@tbeatty.com,$2b$12$bpb43usdypY4cVF1rL0vK./aEWUa61CtXf3WDVcwrq2rFaqdqrI4q,(68) 196-5594
ObjectId("5e18a2e17c29a56f60fb209e"),Mitchel,Kidd,306 Foreman Pass,Buckner Lake,MA,32515,mitchel.kidd@tbeatty.com,$2b$12$bpb43usdypY4cVF1rL0vK.BdoI1JjM.YgQrtOumR4v5qE2Djo/Xw.,(628) 740-7181
ObjectId("5e18a2e17c29a56f60fb20ac"),Lydia,Garcia,973 Mcmahon Ct,Byrd River,PA,59272,lydia.garcia@tbeatty.com,$2b$12$bpb43usdypY4cVF1rL0vK.luWgLkZWC7ekgPGe35VariDNkVHcwGm,(151) 954-9873
ObjectId("5e18a2e17c29a56f60fb20af"),Charlotte,William,592 Berry St,Joynerville,WI,85114,charlotte.william@tbeatty.com,$2b$12$bpb43usdypY4cVF1rL0vK.SgfLhm3aoXup6jU.otac1Y1w/nrCOcu,(466) 585-1199
ObjectId("5e18a2e17c29a56f60fb20b0"),Ashanti,Morgan,160 Randolph Dr,Miles Creek,DE,68324,ashanti.morgan@tbeatty.com,$2b$12$bpb43usdypY4cVF1rL0vK.PU/vY5TdouvBnoCdmm9AoiIyO.H7V/m,(655) 937-8474
ObjectId("5e18a2e17c29a56f60fb20b8"),Jessika,Booker,589 Ross Ln,Leonburg,NV,91183,jessika.booker@tbeatty.com,$2b$12$bpb43usdypY4cVF1rL0vK.YTiirzpneorXlkJBj30UqwVQdjtAxxy,(641) 32-6196
ObjectId("5e18a2e17c29a56f60fb20ce"),Dewayne,Powell,64 Underwood St,Lewisville,IA,60403,dewayne.powell@tbeatty.com,$2b$12$bpb43usdypY4cVF1rL0vK.PHMdOJ4KAV.g87XkJnq9k96XUl987bW,(171) 205-2003
ObjectId("5e18a2e17c29a56f60fb2098"),Brice,Smith,981 Vasquez Dr,Peterson Valley,MA,99154,brice.smith@tbeatty.com,$2b$12$bpb43usdypY4cVF1rL0vK.msOO6JAFkRCvNWfiZnpMzE1HhPXXvWe,(85) 246-5214
ObjectId("5e18a2e17c29a56f60fb20a0"),Lisa,Raymond,171 Padilla Cir,Garciaburg,KY,99810,lisa.raymond@tbeatty.com,$2b$12$bpb43usdypY4cVF1rL0vK.w2yv0c.FFB4nZcICgI31fJAFwmOyr8K,(868) 26-6172
ObjectId("5e18a2e17c29a56f60fb20c3"),Nolan,Riggs,781 Harper Ave,Alston Island,WV,15463,nolan.riggs@tbeatty.com,$2b$12$bpb43usdypY4cVF1rL0vK.ITHXxNOUNcDNt.qjoJCjPRpL5ZGG5EO,(455) 921-1960
ObjectId("5e18a2e17c29a56f60fb20c5"),Christian,Nielsen,707 Hayden Rd,Bradley Lake,FL,45330,christian.nielsen@tbeatty.com,$2b$12$bpb43usdypY4cVF1rL0vK.1nZL2uAKguQKgDq6Zp12tvh1NQitTCO,(166) 412-7619
ObjectId("5e18a2e17c29a56f60fb2084"),Israel,Becker,354 Fox Cir,Ramos Lake,NV,32541,israel.becker@tbeatty.com,$2b$12$bpb43usdypY4cVF1rL0vK.Ucqd3UsvccCf7/jB4Daqq0n8LMTuNpW,(808) 369-9017
ObjectId("5e18a2e17c29a56f60fb2089"),Andres,Dennis,646 Farley Dr,Ross Island,DC,92124,andres.dennis@tbeatty.com,$2b$12$bpb43usdypY4cVF1rL0vK.byl37Ey2YjdAgqex5TDZm2XsfqfSOpC,(944) 670-4936
ObjectId("5e18a2e17c29a56f60fb20a6"),Daquan,Pratt,101 Wolf Ln,Graham Creek,MN,58413,daquan.pratt@tbeatty.com,$2b$12$bpb43usdypY4cVF1rL0vK.alH9GZUCqqw.VYptJNiyUBL86giqWNy,(46) 881-4315
ObjectId("5e18a2e17c29a56f60fb20ca"),Tierra,Franco,703 Maldonado Cir,Barker Bridge,VT,92110,tierra.franco@tbeatty.com,$2b$12$bpb43usdypY4cVF1rL0vK.x3PM0YjQ7Bcy1ZhnT7zYeL298wEiL/2,(317) 119-1189
ObjectId("5e18a2e17c29a56f60fb20cf"),Estefania,Thornton,788 Paul Blvd,Bailey River,LA,20286,estefania.thornton@tbeatty.com,$2b$12$bpb43usdypY4cVF1rL0vK.pn4ajJSS/H9fyH/16TR.yZLcE.mEFGK,(662) 611-3746
ObjectId("5e18a2e17c29a56f60fb2095"),Brady,Hobbs,848 Mcpherson Cir,Miranda River,TX,95742,brady.hobbs@tbeatty.com,$2b$12$bpb43usdypY4cVF1rL0vK.7QIJGqe/.MB5cAlRuGKv/ngRhOE5CoC,(589) 471-2471
ObjectId("5e18a2e17c29a56f60fb2099"),Grant,Hayden,268 Mckinney Rd,Burgess Lake,AZ,33351,grant.hayden@tbeatty.com,$2b$12$bpb43usdypY4cVF1rL0vK.O9WtDuKEaEQt/WK4xuogXnjFKlvn3mu,(550) 534-5560
ObjectId("5e18a2e17c29a56f60fb20a3"),Kaitlin,Christensen,860 Reid Ave,Letown,NE,29657,kaitlin.christensen@tbeatty.com,$2b$12$bpb43usdypY4cVF1rL0vK.gNnD5oR31T4iwZ1xcR.9YLz1QGbOKUy,(920) 524-7869
ObjectId("5e18a2e17c29a56f60fb20a8"),Stefanie,Wynn,908 Hammond Blvd,Valenzuelatown,PA,10903,stefanie.wynn@tbeatty.com,$2b$12$bpb43usdypY4cVF1rL0vK.UFZ2TJUJtWh3hKG3m4JS4iHIIx1o7um,(291) 796-1475
ObjectId("5e18a2e17c29a56f60fb20b7"),Leeann,Wilson,524 Kennedy St,Farrell River,NV,22477,leeann.wilson@tbeatty.com,$2b$12$bpb43usdypY4cVF1rL0vK.B3RU.EU8ITbHhUDK7l7PwYUv5X/v3mm,(390) 576-6525
ObjectId("5e18a2e17c29a56f60fb20b9"),Ayla,Lindsay,129 Howe Ct,Bestmont,ID,36447,ayla.lindsay@tbeatty.com,$2b$12$bpb43usdypY4cVF1rL0vK..HbsSlS7K33BHEXUtpsX8BA5HwSKcHK,(551) 481-9303
ObjectId("5e18a2e17c29a56f60fb20cc"),Deana,Goodwin,303 Noel Ln,Dillard Island,MD,18704,deana.goodwin@tbeatty.com,$2b$12$bpb43usdypY4cVF1rL0vK.8ezjnhRZDwq8qntLxPb9uJjEB2JyBhS,(22) 195-7573
ObjectId("5e18a2e17c29a56f60fb20d1"),Mollie,Wooten,701 Acevedo Way,Mills Island,NH,98701,mollie.wooten@tbeatty.com,$2b$12$bpb43usdypY4cVF1rL0vK.IK1PEfh9VCzvUFOZMsZMck/3gtaQDfu,(786) 190-2792
ObjectId("5e18a2e17c29a56f60fb20a5"),Leah,Henry,897 Houston Pass,Stone Fork,WA,45375,leah.henry@tbeatty.com,$2b$12$bpb43usdypY4cVF1rL0vK.fR.cpUWNTG5uYakul1FQPVZIqooPeva,(798) 657-5982
ObjectId("5e18a2e17c29a56f60fb20c6"),Marques,Chavez,514 Thornton Ln,Halemont,OR,91171,marques.chavez@tbeatty.com,$2b$12$bpb43usdypY4cVF1rL0vK..MC4hAHwU9NKMmGWvhheDm0mPAdZQdu,(269) 281-8342
ObjectId("5e18a2e17c29a56f60fb2086"),Daniela,Terry,210 Russo Ct,Perez Bridge,MN,63455,daniela.terry@tbeatty.com,$2b$12$bpb43usdypY4cVF1rL0vK.A1HYbEJPnbgRoTcrROzHibplfaCxque,(889) 547-6547
ObjectId("5e18a2e17c29a56f60fb2083"),Gabriella,Christensen,582 Kline Dr,Ball Pond,NY,78727,gabriella.christensen@tbeatty.com,$2b$12$bpb43usdypY4cVF1rL0vK.9HITzG75hGz3AhalyRdzNOjk5jaOMwW,(640) 403-5827
ObjectId("5e18a2e17c29a56f60fb208d"),Ryan,Suarez,477 Mueller Cir,Cookemont,NC,11866,ryan.suarez@tbeatty.com,$2b$12$bpb43usdypY4cVF1rL0vK.J8yq4Otes0KYAGbPyMVPtc5C8RX30.y,(604) 252-8533
ObjectId("5e18a2e17c29a56f60fb2094"),Kerri,Burnett,37 Richardson Cir,Hornville,AL,25709,kerri.burnett@tbeatty.com,$2b$12$bpb43usdypY4cVF1rL0vK.xuzb2/NlJalpiICXJi.shYbPcYw7utO,(902) 66-7842
ObjectId("5e18a2e17c29a56f60fb2097"),Jason,Potter,352 Lowe Ct,Warner Bridge,MD,44641,jason.potter@tbeatty.com,$2b$12$bpb43usdypY4cVF1rL0vK.DeI6BUSleRbZrDxUuelYajy8bjiPlAK,(808) 286-1998
ObjectId("5e18a2e17c29a56f60fb20a7"),Adam,Leach,190 Wilder Ct,Waters River,DC,59871,adam.leach@tbeatty.com,$2b$12$bpb43usdypY4cVF1rL0vK.EsGphSivTzENTvK98eXqj2sE3LTErLK,(565) 137-3367
ObjectId("5e18a2e17c29a56f60fb20b2"),Dustin,West,36 Parker Ct,Harveyville,MI,97440,dustin.west@tbeatty.com,$2b$12$bpb43usdypY4cVF1rL0vK.RHzLto2KbjA/V/9kKbsjAOU1Geb0BpK,(923) 874-8494
ObjectId("5e18a2e17c29a56f60fb20b3"),Adrian,Cochran,178 Bender Cir,Mcdanielville,TX,12582,adrian.cochran@tbeatty.com,$2b$12$bpb43usdypY4cVF1rL0vK.scV5p5R057c0KOjfoYATajDXEiBTL3e,(727) 151-9207
ObjectId("5e18a2e17c29a56f60fb20b6"),Spenser,Chase,390 Snyder Way,Griffin Island,SD,47332,spenser.chase@tbeatty.com,$2b$12$bpb43usdypY4cVF1rL0vK.EnyWIKKCwcs4R.EGWvo5X0dfzx/WV0a,(828) 341-9978
ObjectId("5e18a2e17c29a56f60fb20d7"),Katlynn,Mckinney,19 Downs Pass,Frazier Bridge,NJ,17522,katlynn.mckinney@tbeatty.com,$2b$12$bpb43usdypY4cVF1rL0vK.tgVhs3YChaLHjsIKVbFr1LSaWvLlevy,(799) 272-6217
ObjectId("5e18a2e17c29a56f60fb20da"),,,,,,,,,
ObjectId("5e18a2e17c29a56f60fb208a"),Elaine,Rosales,744 Burton Ln,Hale Valley,MT,34120,elaine.rosales@tbeatty.com,$2b$12$bpb43usdypY4cVF1rL0vK.NirOcYb3xuA6EbEHuzivbocmNw828oC,(533) 286-8029
ObjectId("5e18a2e17c29a56f60fb20a1"),Larry,Moss,372 Soto St,Burris Valley,WA,31783,larry.moss@tbeatty.com,$2b$12$bpb43usdypY4cVF1rL0vK.qGv.HLFhTJ7EbrwBmiyUzwgvlZ.S.eG,(101) 282-4289
ObjectId("5e18a2e17c29a56f60fb20ae"),Allie,Dawson,60 Clark Way,Hewittmont,PA,98139,allie.dawson@tbeatty.com,$2b$12$bpb43usdypY4cVF1rL0vK.N72oJI/EmGxVDeqebPEj7JJGSP8Bjb.,(775) 268-4467
ObjectId("5e18a2e17c29a56f60fb20b5"),Nichole,Wyatt,619 Everett Ct,Alvarado City,PA,73770,nichole.wyatt@tbeatty.com,$2b$12$bpb43usdypY4cVF1rL0vK.1TpQtDT.TLvXkRRIGMAwb0v2PDgRRBm,(958) 580-2845
ObjectId("5e18a2e17c29a56f60fb20c7"),Simone,Cannon,417 Ballard St,Justice Fork,IN,27586,simone.cannon@tbeatty.com,$2b$12$bpb43usdypY4cVF1rL0vK.luqCU0k2UGyrENKSsssEAADlAdssrT2,(488) 937-7727
ObjectId("5e18a2e17c29a56f60fb20bf"),Cooper,Boone,764 Fox Ct,Bowenville,IL,91294,cooper.boone@tbeatty.com,$2b$12$bpb43usdypY4cVF1rL0vK.VI/Xyhcav1jom8t8UzznSbgIAYT3N9m,(757) 644-7821
ObjectId("5e18a2e17c29a56f60fb2091"),Derik,Mccray,254 Richmond Ln,Bates Springs,OK,68822,derik.mccray@tbeatty.com,$2b$12$bpb43usdypY4cVF1rL0vK.4cVwjwelVKxoN/SkhXl4Fd9aeMstlZK,(518) 260-9107
ObjectId("5e18a2e17c29a56f60fb209b"),Marisa,Navarro,574 Zamora Ln,Holder Springs,CO,40549,marisa.navarro@tbeatty.com,$2b$12$bpb43usdypY4cVF1rL0vK.obqER2hPePt2PC4D3FjBtjMbw1sI8JG,(693) 858-6175
ObjectId("5e18a2e17c29a56f60fb208c"),Carlie,Joyner,606 Bryan Way,Burrismont,NH,97358,carlie.joyner@tbeatty.com,$2b$12$bpb43usdypY4cVF1rL0vK.ItcH9.EgXODx/S8eyq5OrflVWoAg.0.,(289) 984-3460
ObjectId("5e18a2e17c29a56f60fb208f"),Trevon,Waters,428 Figueroa Way,Strongville,MT,90318,trevon.waters@tbeatty.com,$2b$12$bpb43usdypY4cVF1rL0vK.ezN80ySmEbVy12Tc/PlZgm.6944ayOC,(359) 341-9682
ObjectId("5e18a2e17c29a56f60fb20a9"),Victor,Hoffman,400 Townsend Blvd,Taylortown,IN,48731,victor.hoffman@tbeatty.com,$2b$12$bpb43usdypY4cVF1rL0vK.mhruZdC8bf2FMRGgVdXfVCp629DDVR.,(552) 183-7259
ObjectId("5e18a2e17c29a56f60fb20d4"),Marlena,Powell,872 Davis Dr,Carney Lake,ME,17553,marlena.powell@tbeatty.com,$2b$12$bpb43usdypY4cVF1rL0vK.uTxlxrrduQQsx3JXRI/0OiSlU4F/sK2,(60) 14-4404
ObjectId("5e18a2e17c29a56f60fb20d8"),Arlene,Washington,385 Chambers Pass,Cannon Creek,DC,34896,arlene.washington@tbeatty.com,$2b$12$bpb43usdypY4cVF1rL0vK.XLbVmrKaGxlNZcxOqpRK.B5GEmHhBXS,(190) 101-5971
ObjectId("5e18a2e17c29a56f60fb2088"),Braxton,Harrison,716 Christian Blvd,Burkeburg,HI,19708,braxton.harrison@tbeatty.com,$2b$12$bpb43usdypY4cVF1rL0vK./CnbsAHQTzOh8F4/mHH5n45Pd7f.pNa,(48) 843-9064
ObjectId("5e18a2e17c29a56f60fb2087"),Erick,French,398 Dillon Ln,Ayers Valley,MI,39532,erick.french@tbeatty.com,$2b$12$bpb43usdypY4cVF1rL0vK.50Kj7RAQQLpeFUpys1HSAtYHPfk0iT6,(135) 882-8266
ObjectId("5e18a2e17c29a56f60fb20aa"),Fabiola,Boone,616 Kirkland Pass,Alston City,IA,79274,fabiola.boone@tbeatty.com,$2b$12$bpb43usdypY4cVF1rL0vK.JJU6ebfFfN6piE82WNI/suXXX/DYQJm,(869) 309-8407
ObjectId("5e18a2e17c29a56f60fb20c8"),Alexander,Mcbride,118 Barnes Way,Reynoldsville,MI,81771,alexander.mcbride@tbeatty.com,$2b$12$bpb43usdypY4cVF1rL0vK.0NqRPIXLOaR0uguLmhbAjX63V/.MPrO,(614) 777-5350
ObjectId("5e18a2e17c29a56f60fb20cd"),Reyna,Klein,626 Boyer Ln,Carney City,GA,42454,reyna.klein@tbeatty.com,$2b$12$bpb43usdypY4cVF1rL0vK.nq9zDsPkSCwap0FuFVBNkOCn4wKykcm,(915) 482-8716
ObjectId("5e18a2e17c29a56f60fb208b"),Gabriel,Burns,470 Clayton Ln,Hubbard City,CA,82377,gabriel.burns@tbeatty.com,$2b$12$bpb43usdypY4cVF1rL0vK.wyN5AQyBbWWwwOpeauAv9rVb/cIbZii,(819) 874-4990
ObjectId("5e18a2e17c29a56f60fb209c"),Jovany,Bruce,390 Moon Pass,Hicks Bridge,KY,41076,jovany.bruce@tbeatty.com,$2b$12$bpb43usdypY4cVF1rL0vK..EIfYW.UaVsESNx0rqSrFKZMr7Ndnry,(892) 987-1818
ObjectId("5e18a2e17c29a56f60fb209d"),Beau,Blake,345 Hood Blvd,Dale River,MA,33503,beau.blake@tbeatty.com,$2b$12$bpb43usdypY4cVF1rL0vK.oDR2QUVlJbEY5jjlujC4uOWJI8Nth3y,(709) 366-8231
ObjectId("5e18a2e17c29a56f60fb20ab"),Bennett,Serrano,188 Rich St,Sanders River,KY,70776,bennett.serrano@tbeatty.com,$2b$12$bpb43usdypY4cVF1rL0vK.gMdZhGG5Q1TlWTvrvKNDNGqQ4U0mjky,(743) 291-7809
ObjectId("5e18a2e17c29a56f60fb20ad"),Bobbie,Stuart,556 Bright Ct,Stevens Lake,VT,81633,bobbie.stuart@tbeatty.com,$2b$12$bpb43usdypY4cVF1rL0vK.np.Q8iwphkIGJKw3d/QXwnbGiusGxuK,(553) 743-8179
ObjectId("5e18a2e17c29a56f60fb20b4"),Bryant,Fields,254 Sawyer Pass,Anthony Bridge,NJ,98107,bryant.fields@tbeatty.com,$2b$12$bpb43usdypY4cVF1rL0vK.tnTlj1oFqiOZZXBh.eeubgoUWEKO4L.,(680) 852-2190
ObjectId("5e18a2e17c29a56f60fb20ba"),Erik,Spears,614 Moore Pass,Banks Creek,CO,19175,erik.spears@tbeatty.com,$2b$12$bpb43usdypY4cVF1rL0vK.qe3YEEx.rTGOTb0Ujbz1gKnCcG6cLga,(915) 584-7599
ObjectId("5e18a2e17c29a56f60fb20bd"),Carter,Soto,859 Humphrey Pass,Leach Creek,TX,76617,carter.soto@tbeatty.com,$2b$12$bpb43usdypY4cVF1rL0vK.kIwKEl/d2cPPR2iXInKODW5kUW8dGvS,(369) 486-2129
ObjectId("5e18a2e17c29a56f60fb20c0"),Dominique,Guthrie,609 Tyson Rd,Lambert Fork,DE,54963,dominique.guthrie@tbeatty.com,$2b$12$bpb43usdypY4cVF1rL0vK.ONeUn0BBWs2yg421hKiFa9kQ64YfVt2,(645) 895-7216
ObjectId("5e18a2e17c29a56f60fb20c1"),Christopher,Marshall,481 Neal Cir,Adkins Springs,VT,40142,christopher.marshall@tbeatty.com,$2b$12$bpb43usdypY4cVF1rL0vK.lgupmXInaPsalQnnPhI53PYCrPFN/WW,(546) 700-5066
ObjectId("5e18a2e17c29a56f60fb20c9"),Louis,Fernandez,757 Knowles St,Garcia River,WY,56670,louis.fernandez@tbeatty.com,$2b$12$bpb43usdypY4cVF1rL0vK.hi9VR/RXJCtKVzCaXVrngAUcg5h2EcW,(917) 782-2134
ObjectId("5e18a2e17c29a56f60fb20cb"),Peyton,Middleton,503 Acevedo St,Salinas Lake,NE,78705,peyton.middleton@tbeatty.com,$2b$12$bpb43usdypY4cVF1rL0vK.EzfKnhFmjowgpnxdtvjc.lh1NLy/OZG,(572) 760-2638
ObjectId("5e18a2e17c29a56f60fb20d0"),Justina,Whitley,791 Johnston Pass,Kidd Pond,ND,70136,justina.whitley@tbeatty.com,$2b$12$bpb43usdypY4cVF1rL0vK.88BIjXzUaISsKJIlYppJfQ.LU/rcHi2,(168) 124-2450
ObjectId("5e18a2e17c29a56f60fb20d6"),Deondre,Greene,58 Stafford St,Conrad Pond,NV,33438,deondre.greene@tbeatty.com,$2b$12$bpb43usdypY4cVF1rL0vK.w9lqPB21soh8upDTHgqZST1RXwsoam6,(928) 752-3578
ObjectId("5e18a2e17c29a56f60fb20d9"),Eleanor,Preston,84 Peters St,Buchanan Island,WA,49367,eleanor.preston@tbeatty.com,$2b$12$bpb43usdypY4cVF1rL0vK.FdEmW22TW6ukJyNsDLFAbT/emz.Lk7W,(204) 923-4606
ObjectId("5e18a2e17c29a56f60fb20a2"),Marisa,Sweeney,759 Love Rd,House Fork,NM,61452,marisa.sweeney@tbeatty.com,$2b$12$bpb43usdypY4cVF1rL0vK.vjGQB.A2Su5MJdrtX/ZzeXrk.qEY5Ce,(548) 749-3392
ObjectId("5e18a2e17c29a56f60fb20bb"),Dallas,Collins,947 Wilson Dr,Morales Creek,CA,33346,dallas.collins@tbeatty.com,$2b$12$bpb43usdypY4cVF1rL0vK.dOqh.YGdXuzVC8TDkTVS3KqTCmQgCDu,(503) 240-4674
ObjectId("5e18a2e17c29a56f60fb20be"),Keenan,Witt,989 Sanchez Pass,Kennedy Bridge,CT,18803,keenan.witt@tbeatty.com,$2b$12$bpb43usdypY4cVF1rL0vK.MshRUEV3KWzLv0nJ6r2Lnd6teNTe8z2,(717) 973-9674
ObjectId("5e18a2e17c29a56f60fb20c2"),Deondre,Johnson,44 Conner Ln,Hollowayburg,NV,31230,deondre.johnson@tbeatty.com,$2b$12$bpb43usdypY4cVF1rL0vK.47bvo6EQqpbsakq9TIiG3ohgAFHmqku,(352) 854-9078
ObjectId("5e18a2e17c29a56f60fb20c4"),Kailey,Phillips,896 Rivas Ln,Hamilton Bridge,KY,97264,kailey.phillips@tbeatty.com,$2b$12$bpb43usdypY4cVF1rL0vK.pUbF4hwViKGlyoqz49APFzvXkqQl8bO,(987) 669-4735
ObjectId("5e18a2e17c29a56f60fb209f"),Ashly,Lynn,539 Hays Dr,Baldwin Lake,MI,81683,ashly.lynn@tbeatty.com,$2b$12$bpb43usdypY4cVF1rL0vK.GpKgxPjnSAq4gdlGX20sYa.0Gi/KLre,(841) 494-6610
ObjectId("5e18a2e17c29a56f60fb20a4"),Jake,Alexander,804 Underwood Way,Saundersmont,AZ,19402,jake.alexander@tbeatty.com,$2b$12$bpb43usdypY4cVF1rL0vK.IRSqdGeO.J5MltGIAgY30fkeG0RZ6OG,(789) 435-6676
ObjectId("5e18a2e17c29a56f60fb20d3"),Wilfredo,Blankenship,3 Rowe Dr,Cline Island,TX,91232,wilfredo.blankenship@tbeatty.com,$2b$12$bpb43usdypY4cVF1rL0vK./xiHB0EObL9we1cI.qu69aIZ1Sqw4xq,(749) 125-7115
ObjectId("5e18a2e17c29a56f60fb2090"),Molly,Delgado,117 Pitts Dr,Terry Lake,CT,45078,molly.delgado@tbeatty.com,$2b$12$bpb43usdypY4cVF1rL0vK.8zgTcwl1piUq/iKp6RRKLti00UG3xBa,(682) 794-2306
ObjectId("5e18a2e17c29a56f60fb2092"),Dylon,Meyers,822 Hoffman Way,Horton Island,OK,44190,dylon.meyers@tbeatty.com,$2b$12$bpb43usdypY4cVF1rL0vK.DilwcdiUIPuhFZJ4fR3eASZYshhag5e,(365) 456-1911
ObjectId("5e18a2e17c29a56f60fb2093"),Kayla,Mays,168 Hatfield Ave,Mcknight Pond,NH,42227,kayla.mays@tbeatty.com,$2b$12$bpb43usdypY4cVF1rL0vK.KkZLn8HxXoJFAcoyNaAQZXebSMQcjCW,(480) 294-2792
ObjectId("5e18a2e17c29a56f60fb20b1"),Walter,Mercer,125 Jimenez Way,Morrison Lake,ME,14873,walter.mercer@tbeatty.com,$2b$12$bpb43usdypY4cVF1rL0vK.jEGA2yKGivDnYnzaf4abtznkK1MD0WS,(824) 758-3795
ObjectId("5e18a2e17c29a56f60fb20bc"),Zechariah,Vargas,177 Baird Cir,Hubermont,WY,52759,zechariah.vargas@tbeatty.com,$2b$12$bpb43usdypY4cVF1rL0vK.jqWi1JHLQJL8bV92pkuZmD0.pxwUzJK,(438) 722-1241
ObjectId("5e2871fd804e620304ee3120"),asdf,dafd,adsfa,dasfa,fdasf,,dsfadf,fdsaf,
ObjectId("5e287275804e620304ee3121"),asdf,dafd,adsfa,dasfa,fdasf,,dsfadf,fdsaf,
ObjectId("5e2fbdef1ef29d1fd0c5ed1a"),Jess,Borda,c,d,e,1,two@two.two,$2a$10$6j66dY18uIi1gEw3oHSh2eExZ0ke2.PNW.XUZwO.7DN7XQ0WKVBpS,
ObjectId("5e33052b4dc1fa43d052d217"),Lee,Chan,dasf,dasf,dasdf,,LeeChan@gmail.com,$2a$10$qHSYFs8RBOLS/fubZKxg4.ts/20Te6a7HmQye36rvxAXOsZw77G/6,
ObjectId("5e40bb4a5946fb6504018fff"),third,three,thre,the,wa,12345,three@three.three,$2a$10$T8dffpgXr4XsL1MBOT6EeO9aE97vbJswrFcjM8hjY16BGzc3/yixC,
ObjectId("5e42d7270fa29d44dc73f599"),Name,last,asdf,asdf,wa,12345,a@a.a,$2a$10$zwORz1dVyDjWL9qdxfWMS.xsHblVHmpIlqz89MJvWArexSka5B/Vq,
ObjectId("5e4577b0bba6d28868de516f"),Topa,Pat,123 Street,City,UT,84215,topanga1997@gmail.com,$2a$10$i6GtY0jGXZjy.w5.Ae48OuC.T7cCt5CH8JeYcvKIlrjynM4XPfBLG,
ObjectId("5e4ccd86ae7f0b1daca449cd"),Jeff J,Jones,420 Drive,Salt Lake City,UT,84102,Elithous2@gmail.com,$2a$10$5TQvuHsZxpoQSKeP3B31eOFtIdDRAmz3IGeBwqxKqOoOHFyuqGpcG,
ObjectId("5e4ccf52ae7f0b1daca449d0"),Myz,Moe,St,ST,UT,84102,a@a.c,$2a$10$DWILF/9PWAE4f1HrRHC73OxQLNIirlPySW1NjvpGo1QNv4Wluvs16,
ObjectId("5e4cd23cae7f0b1daca449d4"),Paige,Klima,343 S 500 E,Salt Lake City ,UT,84102,pklima@student.neumont.edu,$2a$10$UP6g0eZ6Q91ucYeQbYuoleE.5XgSvk2yQYdr3XnHT/O8ob14ipeE2,
ObjectId("5e5168523f23182cc014c000"),,,,,,,,$2a$10$CK7S8zpp0yi/Qz5yOkv2eukdd3lf/qOaC5RF1Nya6DJB7d1wm8xNO,
ObjectId("5e5538f70892b6781482e518"),,,,,,,,$2a$10$h.E3s26Jk4tpsJyrsYDTpe8utWITW34HQAtChuvY4gZP8ssJby0R6,
ObjectId("5e5539f00892b6781482e519"),,,,,,,,$2a$10$966o13liIQ46fLephbRW/eMUNBS0MMe2wpRfYV76FygAwzKxWpB3u,
ObjectId("5e553a5d0892b6781482e51a"),,borda,7101,mercer,wa,98040,jbjabzin@gmail.com,$2a$10$Ft4yZKhFJak9ZoOcfelzt.4XIcF8OaMM0xzzrxV1nbH8HNx6QHWLG,
ObjectId("5e569e6ba5454f6980c3392b"),,,,,,,,$2a$10$B13hSj3QLQEmd1b2CYla8ejV3Vegyg.rEUrliH2wBg7B5ssw9KvM6,
ObjectId("5e569e70a5454f6980c3392c"),,,,,,,,$2a$10$4qX7y8WCeWXkL2a.Yg73gedxVQazmVlDM1SRQXIAsqUepIm4kJoBG,
ObjectId("5e569e9ba5454f6980c3392d"),,,,,,,,$2a$10$GPewrbYUBOM6.W1YWSIyMuYMUaa..Em0QaINtFP7j43BFMoi3hV0O,
ObjectId("5e569ed0a5454f6980c3392e"),,,,,,,,$2a$10$e/m4ZuqEkDQ/gjW2znZ6IOTNKx8o9zhDs1qxcX9SXimVAeZ11Sqfi,
ObjectId("5e569f13a5454f6980c3392f"),,,,,,,,$2a$10$USWKkA4KcqZvkEjXFfzc7OM8DyhPNaxhc9U81LaLNIF2BDvdatuAS,
ObjectId("5e569f9da5454f6980c33930"),,,,,,,,$2a$10$FiOaVSIl7ArVdcxYz96/k.mE//Mk2XZnMh4pTvePjHNT3Rr.NKrfG,
ObjectId("5e569fd1a5454f6980c33931"),,,,,,,,$2a$10$Uyyg2ATYaga3Xwr822GT1e3CSCJHsalWU4nCD.pHJ7MI0GhoEBZU2,
ObjectId("5e569fd4a5454f6980c33932"),,,,,,,,$2a$10$AH12wHVKLVooGnE.XiC84O5TwwszBorNiluI9pkFbEEAGUnjL9kkq,
ObjectId("5e56a22ca5454f6980c33933"),,,,,,,,$2a$10$ZKZP4zvP3CV8hVH58.1QBuXCEZ/TXT8SjcsGDXUWz0aXz2W.LGMhy,
ObjectId("5e56a931a5454f6980c33934"),,,,,,,,$2a$10$1a0l9cWyXckJ/N9ABkexyeFXRBTSHP3.h8/86oB4ZqKZdJdTzc1Fm,
